{"type": "FeatureCollection", "_comment": "IDEAM Zonificacion Hidrografica 2013 - 5 areas hidrograficas, simplified 0.02deg (source: IDEAM via ArcGIS Online community mirror)", "features": [{"type": "Feature", "properties": {"name": "Amazonas"}, "geometry": {"type": "Polygon", "coordinates": [[[-67.830511018, 3.03514255000003], [-67.723766567, 2.99087682300006], [-67.8643305419999, 2.86622853000005], [-67.864110634, 2.78947214200003], [-67.7504225289999, 2.83754375100006], [-67.658347845, 2.79655836700003], [-67.614386262, 2.81154997400006], [-67.5638266619999, 2.72605784700005], [-67.5618959399999, 2.65578528400005], [-67.485224694, 2.66580448200006], [-67.187902018, 2.35031021700007], [-67.221970895, 2.25424705700003], [-67.161578802, 2.13283581200005], [-67.108021577, 2.11930433600002], [-67.122995523, 1.97688588100005], [-67.0653203849999, 1.92056645300004], [-66.963942703, 1.59121670800005], [-66.919056924, 1.53099922100005], [-66.911048111, 1.42358460800005], [-66.854918525, 1.36976230900006], [-66.8484555319999, 1.31864888800004], [-66.881211755, 1.28659731300008], [-66.849445503, 1.22262552400002], [-67.086515694, 1.16709400000001], [-67.139231684, 1.32001667700008], [-67.080170524, 1.38545732800002], [-67.127255217, 1.63986331900003], [-67.159220482, 1.67503727600007], [-67.153836339, 1.83149709200005], [-67.2283067119999, 1.84126869600004], [-67.3308300969999, 1.94157456200001], [-67.3529732539999, 2.00526523200006], [-67.326715543, 2.06387182500002], [-67.397387354, 2.22972671500003], [-67.436903812, 2.22127164600005], [-67.449228734, 2.16960444100004], [-67.495186265, 2.16312399400004], [-67.550948935, 2.04769243900005], [-67.73204865, 2.02850430400003], [-67.81385097, 1.97259660200006], [-67.9016233849999, 1.81165204600006], [-68.090647642, 1.89790619600005], [-68.144165675, 1.97854115000007], [-68.180335347, 1.97670485900005], [-68.1958300279999, 2.03479120300004], [-68.285546832, 1.83083954300003], [-68.226880861, 1.82918370500006], [-68.23954213, 1.770444315], [-68.192070848, 1.77970005300005], [-68.193262723, 1.73749074200002], [-68.164692444, 1.72944749600004], [-69.391088592, 1.72935046000003], [-69.5346429579999, 1.77690702000007], [-69.6300651339999, 1.72303646300003], [-69.7381626279999, 1.73180640900006], [-69.781484457, 1.69325278400004], [-69.840526005, 1.71885705100003], [-69.841272675, 1.07928521700007], [-69.803838979, 1.06528484800002], [-69.703676493, 1.11864002300006], [-69.679392075, 1.07018260600006], [-69.611608995, 1.09845655000004], [-69.4375626999999, 1.07409980900007], [-69.413968413, 1.04126975400003], [-69.3756549249999, 1.08912242500003], [-69.244410199, 1.05636830500003], [-69.198065045, 1.00059711900002], [-69.2177012829999, 0.97437369700004], [-69.165716092, 0.941800686000008], [-69.191023044, 0.915941432000073], [-69.136300075, 0.873959422000056], [-69.166724927, 0.844943542000055], [-69.148169794, 0.769699001000039], [-69.189724143, 0.739732012000043], [-69.115643486, 0.643970102000016], [-69.194481818, 0.650642833000049], [-69.2000241269999, 0.607261382000033], [-69.231210615, 0.598304622000049], [-69.295565697, 0.603955690000006], [-69.288455442, 0.649805828000062], [-69.353038957, 0.613767009000064], [-69.4809795529999, 0.734919979000038], [-69.5973026409999, 0.654463943000048], [-69.6058525459999, 0.613056729000051], [-69.671750978, 0.667970490000068], [-69.8026999149999, 0.571510482000066], [-69.915790282, 0.589840004000049], [-69.93545796, 0.553078059000039], [-69.9988320639999, 0.574730296000042], [-70.0046178439999, 0.541639586000022], [-70.040754588, 0.563658012000069], [-70.018873936, -0.206613224999961], [-69.921086021, -0.323898084999941], [-69.841413657, -0.339528222999943], [-69.8295300779999, -0.372817730999957], [-69.610875017, -0.500764874999956], [-69.6025022969999, -0.595212440999949], [-69.5620362299999, -0.635929982999922], [-69.624765828, -0.745401117999952], [-69.524149881, -0.874540343999962], [-69.528835548, -0.924114330999958], [-69.418746848, -0.998186417999938], [-69.445234995, -1.02423789399996], [-69.39555082, -1.13031941499997], [-69.4304857, -1.21977143199997], [-69.3983044079999, -1.36185730499995], [-69.457245219, -1.49326195699996], [-69.9475303839999, -4.22861352299998], [-70.064934127, -4.08090956899997], [-70.1721772339999, -4.04704115099998], [-70.180207004, -3.93231718999994], [-70.2444680419999, -3.90033859399995], [-70.2918170729999, -3.81976704299997], [-70.354746663, -3.80205907499994], [-70.396376561, -3.84896657499997], [-70.514873312, -3.88075000299995], [-70.5774926509999, -3.81656535799994], [-70.617209991, -3.84292030199994], [-70.713247305, -3.79546291699996], [-70.0608167619999, -2.75953266799997], [-70.090271005, -2.64506196799993], [-70.131005914, -2.70318178399998], [-70.162182511, -2.68674321399994], [-70.1638830529999, -2.63629380999994], [-70.217445373, -2.64827679899998], [-70.252670289, -2.54483913899998], [-70.349838257, -2.57141398799997], [-70.299217235, -2.50379514999997], [-70.363224332, -2.49023617099994], [-70.431022647, -2.52570415299993], [-70.470863348, -2.45397280999993], [-70.510490416, -2.47362756199993], [-70.572579912, -2.41749077599996], [-70.597143293, -2.42882771999998], [-70.555763444, -2.46831807899998], [-70.622651418, -2.47965502299997], [-70.626808298, -2.39859586799997], [-70.679525091, -2.39878481699998], [-70.666297916, -2.35109734799994], [-70.831251201, -2.29165068899993], [-70.8680962719999, -2.22495166399995], [-70.93286133, -2.25286602999996], [-70.980834957, -2.20911502899998], [-71.019444485, -2.23043118799995], [-70.995811464, -2.30418848299997], [-71.0514831639999, -2.26348018999994], [-71.137726609, -2.28995014699995], [-71.1299896309999, -2.33815431699998], [-71.163459776, -2.33697127699998], [-71.174034123, -2.37802314399994], [-71.237869621, -2.33869900999997], [-71.286781323, -2.38687062299993], [-71.28837586, -2.33812951599999], [-71.3951339769999, -2.40811420099994], [-71.394531253, -2.34993266699995], [-71.4556648229999, -2.27485850799996], [-71.497107758, -2.28144743899999], [-71.4977645869999, -2.35132455599995], [-71.5183792189999, -2.24906492499998], [-71.6408004789999, -2.19941687299997], [-71.72103119, -2.22486996199995], [-71.728111272, -2.14029120899993], [-71.798454286, -2.20299792699996], [-71.833198555, -2.19167447399997], [-71.880920406, -2.30784439599996], [-71.93503571, -2.31269979899999], [-71.9224204779999, -2.37665546799997], [-72.056510928, -2.33688735599998], [-72.148209589, -2.46844820999997], [-72.168991093, -2.42510437899995], [-72.253265384, -2.42975163199998], [-72.257916693, -2.45674423799995], [-72.3719951589999, -2.48903591699997], [-72.408050545, -2.41376852699995], [-72.5193100019999, -2.42521405499998], [-72.6336641349999, -2.35652394899995], [-72.6793746879999, -2.44997214799998], [-72.709938047, -2.38679766499996], [-72.7472272969999, -2.42572166399999], [-72.77330775, -2.38482922899994], [-72.9319526259999, -2.45505209799995], [-72.921714787, -2.41808700599995], [-72.9761352529999, -2.34171318699994], [-73.003295904, -2.35792946099997], [-73.033119195, -2.31305623099997], [-73.0512485249999, -2.36127931599999], [-73.071884155, -2.31091475699997], [-73.119247436, -2.32601356599998], [-73.168147225, -2.22393391899993], [-73.170928964, -2.18891047899996], [-73.132179263, -2.18377804999995], [-73.067746894, -2.09603630599998], [-73.111526489, -2.07536196299999], [-73.1068071349999, -1.88282661299997], [-73.153373721, -1.85862458099997], [-73.1458673769999, -1.80428309599995], [-73.185615545, -1.80757200799997], [-73.2133941129999, -1.73636238799999], [-73.2330233869999, -1.79948454799996], [-73.2933991359999, -1.77490569399993], [-73.315635684, -1.82718181199995], [-73.382513236, -1.77351919499995], [-73.429402126, -1.78990509799997], [-73.459259026, -1.73730599799996], [-73.534141543, -1.70505857199994], [-73.456909184, -1.57084106799994], [-73.499450683, -1.56177579799994], [-73.489903921, -1.48386685499997], [-73.587120052, -1.42309308499995], [-73.550796514, -1.40995598299997], [-73.568656925, -1.32261621899995], [-73.6113815309999, -1.31910443199996], [-73.6202348689999, -1.26278321699994], [-73.737060549, -1.24206232099993], [-73.743766786, -1.19998788799995], [-73.7685775799999, -1.26004993699997], [-73.860981591, -1.22963327499997], [-73.9077987699999, -1.12035786599995], [-73.953697206, -1.13234233799994], [-73.956031803, -1.08554017399996], [-73.984687803, -1.10807418499998], [-74.0116119369999, -1.08950423199997], [-74.021563436, -1.00489431999996], [-74.0623703049999, -1.05341375299998], [-74.271163937, -0.979652700999965], [-74.277813743, -0.900276632999977], [-74.319656368, -0.879761100999931], [-74.269554141, -0.880538579999958], [-74.2444117109999, -0.817464801999964], [-74.283863923, -0.825657753999966], [-74.280493438, -0.777568971999931], [-74.3156204169999, -0.794459347999983], [-74.30974579, -0.758687961999973], [-74.3746166139999, -0.73314042799997], [-74.3377761849999, -0.683070954999949], [-74.372978024, -0.656000639999948], [-74.3907089159999, -0.545585094999977], [-74.422119144, -0.558190579999981], [-74.42172241, -0.499999815999957], [-74.528139917, -0.465419987999961], [-74.6108257019999, -0.350592625999982], [-74.6653060909999, -0.373647571999931], [-74.6836799449999, -0.329921178999936], [-74.726031201, -0.343408036999959], [-74.7951812859999, -0.187466321999973], [-74.890646499, -0.236647579999956], [-74.9735717789999, -0.185895583999981], [-74.973510748, -0.153190703999936], [-75.170971478, -0.0415292939999409], [-75.276219391, -0.124215078999971], [-75.42407065, -0.0889223659999576], [-75.527427882, -0.0197234389999632], [-75.572930272, -0.026655935999957], [-75.582761815, 0.0149390480000276], [-75.642898563, 0.0493474250000775], [-75.804475681, 0.0518703510000472], [-75.852372934, 0.129640365000054], [-75.903295277, 0.137455180000074], [-75.955520631, 0.203261305000087], [-75.9456465329999, 0.231737143000025], [-76.0038795099999, 0.252660680000027], [-76.008132933, 0.300554808000079], [-76.055320744, 0.336002053000073], [-76.1108920579999, 0.314422928000055], [-76.13168955, 0.370891269000019], [-76.226623373, 0.377094005000048], [-76.278043006, 0.437083576000021], [-76.316326373, 0.431517795000041], [-76.345041091, 0.380611208000058], [-76.412352946, 0.381283131000023], [-76.4189128209999, 0.236604055000039], [-76.432664959, 0.261095229000027], [-76.449026579, 0.239831415000013], [-76.5337353199999, 0.258858742000021], [-76.58660085, 0.222796815000025], [-76.7318540649999, 0.292719799000063], [-76.75754948, 0.250563483000049], [-76.846062492, 0.244708602000073], [-77.013807663, 0.295207629000067], [-77.078226792, 0.28606863400006], [-77.11194069, 0.379126071000025], [-77.2866250859999, 0.363072824000029], [-77.3896840579999, 0.387485593000063], [-77.4307827279999, 0.438737453000021], [-77.527295422, 0.401249651000057], [-77.480894042, 0.657103903000076], [-77.562897678, 0.651104558000049], [-77.6744264489999, 0.721543697000061], [-77.5821950449999, 0.723531610000057], [-77.477500914, 0.791666633000035], [-77.4016647409999, 0.798333291000054], [-77.3979186989999, 0.872499942000038], [-77.3225021329999, 0.979583384000015], [-77.2483367949999, 0.992916763000036], [-77.210830683, 1.03500008400005], [-77.16874695, 1.18999982000002], [-77.1208343529999, 1.21500003100004], [-77.069168093, 1.18500005700002], [-76.9786610949999, 1.23332986300005], [-76.9741668729999, 1.29125010900002], [-76.931867424, 1.28076438200003], [-76.905830383, 1.32041656900003], [-76.9291686939999, 1.50083327200003], [-76.858329765, 1.52083325400002], [-76.8466644329999, 1.67166650100005], [-76.769165039, 1.77541673400002], [-76.73291779, 1.78083336900003], [-76.707496642, 1.96166670600007], [-76.623336799, 1.97333323500004], [-76.5899963369999, 1.86749995500002], [-76.4333343589999, 1.78958344700002], [-76.4208297709999, 1.72041666600006], [-76.3712463319999, 1.74333334100002], [-76.3783340429999, 1.66250002300005], [-76.2433319039999, 1.68333339500003], [-76.199165342, 1.57583332100007], [-76.166873928, 1.59072911600003], [-76.120002743, 1.55416655200001], [-76.023330688, 1.59125005700003], [-75.910835265, 1.71375000800003], [-75.736663816, 1.78291666500007], [-75.5345840419999, 2.11750007300002], [-75.443336486, 2.14499998600007], [-75.395835872, 2.30500006600004], [-75.308334347, 2.36166643900002], [-75.227500913, 2.51166677700008], [-75.179168708, 2.50999999000004], [-75.1324996929999, 2.60458326500002], [-75.148330684, 2.71958327000004], [-75.0716629, 2.73958325200004], [-74.9332742249999, 2.91003657200002], [-74.910625452, 2.88354182400007], [-74.800003053, 2.93833351600004], [-74.769374845, 2.87312495100001], [-74.672920228, 2.88833332100006], [-74.666664119, 2.80499982600002], [-74.6175003119999, 2.75375008200006], [-74.637496953, 2.70083331800003], [-74.5858306929999, 2.66541670900005], [-74.681663508, 2.55833339200006], [-74.647499081, 2.49374985800007], [-74.750831601, 2.27791667000003], [-74.693336486, 2.28416657100008], [-74.650001526, 2.24000000800002], [-74.665000914, 2.21125007400002], [-74.591667178, 2.20166659800003], [-74.5800018369999, 2.12458324700002], [-74.538749691, 2.11000012600004], [-74.4854202339999, 2.14916658400004], [-74.462081908, 2.08916663800003], [-74.236179567, 2.05474998700002], [-74.172920236, 1.98000001700007], [-74.14416504, 1.99666666700005], [-73.9858322119999, 1.94833325700007], [-73.924793245, 1.97187495500004], [-73.89833069, 1.92083335200005], [-73.7666702289999, 1.97250008600003], [-73.639579774, 2.07416677500003], [-73.5683364879999, 2.07083344300002], [-73.5008316079999, 2.00916647600007], [-73.504585264, 2.03666663100005], [-73.4433364929999, 2.07166672300001], [-73.313331606, 2.05291676300005], [-73.282501227, 2.02250004200004], [-73.223957062, 2.05229163500007], [-73.203330998, 1.99083316500003], [-73.1525039699999, 1.98000001700007], [-73.151664734, 2.04145835800006], [-73.095832827, 2.02666663900005], [-73.0329132049999, 2.05583334700003], [-72.94437408, 2.26062500500006], [-72.800415038, 2.28250002500004], [-72.724998473, 2.20499992300006], [-72.722503666, 2.15208315900002], [-72.69999695, 2.16374993800002], [-72.6412506149999, 2.10999990000004], [-72.605834954, 2.13000010800005], [-72.572082522, 2.07583331400002], [-72.470832816, 2.05833315900002], [-72.411666865, 1.99083328100004], [-72.372917172, 1.99916661000003], [-72.348335272, 1.88499987000007], [-72.249168394, 1.83583342100007], [-72.178337095, 1.71499990700004], [-72.1549987769999, 1.73083329000002], [-72.0824966439999, 1.67708337700003], [-71.989585883, 1.68583333100003], [-71.912086481, 1.61666655000004], [-71.8716659529999, 1.62500023600006], [-71.815002439, 1.74833321300002], [-71.73166656, 1.71541666300004], [-71.62652589, 1.77902785600003], [-71.596252443, 1.74333334100002], [-71.4483337359999, 1.70416677500003], [-71.4574966389999, 1.62458337000003], [-71.385833738, 1.61375022300007], [-71.338333136, 1.51875006800002], [-71.2416686989999, 1.50166654600001], [-71.234168998, 1.53750002700001], [-71.0999984759999, 1.62791669500006], [-71.009162907, 1.62750006300006], [-70.993331908, 1.67166674200007], [-70.8741683969999, 1.66458332600006], [-70.7879180859999, 1.74166667800005], [-70.512496947, 1.72083330700002], [-70.4389019019999, 1.81774133400007], [-70.379836118, 1.82002491100008], [-70.3666086929999, 1.88825574000002], [-70.298332215, 1.89416670800005], [-70.220095903, 1.97559913000004], [-70.076248171, 1.92333328800005], [-70.021247863, 2.02583337400005], [-69.967498773, 2.02708338800004], [-69.926666274, 2.10333324200008], [-69.8616638239999, 2.12708329800005], [-69.873336797, 2.14583349200007], [-69.685836799, 2.30583333200002], [-69.672500617, 2.36458325600007], [-69.6175003079999, 2.36874986200007], [-69.5429153539999, 2.44166683300005], [-69.4066696249999, 2.42750001100006], [-69.3154144389999, 2.45416665900005], [-69.266670233, 2.42750001100006], [-69.2195816019999, 2.47166657300004], [-69.147724607, 2.45378370500003], [-69.0975513499999, 2.48511643300003], [-69.040098112, 2.43727148300006], [-68.987543989, 2.43994372600002], [-68.797030788, 2.66307914400004], [-68.725830088, 2.64416671300008], [-68.6864448269999, 2.67785992400007], [-68.6963246179999, 2.73300531800003], [-68.565000321, 2.75445275400006], [-68.5373637439999, 2.82777875000004], [-68.478145779, 2.86637023300005], [-68.4392216109999, 2.85439356700005], [-68.305149475, 2.98780033100007], [-68.292872398, 2.96061510900006], [-68.122957749, 2.91905343200005], [-68.063801224, 2.96686792100006], [-67.9991684139999, 2.94083332700007], [-67.830511018, 3.03514255000003]]]}}, {"type": "Feature", "properties": {"name": "Caribe"}, "geometry": {"type": "MultiPolygon", "coordinates": [[[[-73.003393503, 9.28748979800003], [-72.957085566, 9.18032131500007], [-72.98656088, 9.14367130000005], [-72.948434376, 9.09339215400006], [-72.821919227, 9.14053832700005], [-72.766884507, 9.10451122200004], [-72.655109248, 8.61466453300004], [-72.3946638149999, 8.36134827500007], [-72.3532293279999, 8.15772003500008], [-72.373348779, 8.10508189400002], [-72.3488362159999, 8.00509344800003], [-72.4155871409999, 8.03373703000005], [-72.486719302, 7.93618407800005], [-72.445115672, 7.85734257400004], [-72.4738183269999, 7.75859234700005], [-72.452762832, 7.55972881700007], [-72.476246949, 7.48847278700003], [-72.4151396029999, 7.40076363100008], [-72.452499387, 7.39958333700001], [-72.5358352659999, 7.49583339800006], [-72.596664429, 7.45375013800003], [-72.580001828, 7.34083318800004], [-72.6212539589999, 7.35416649600007], [-72.6616668729999, 7.31749963900005], [-72.6991653549999, 7.33916950900003], [-72.743751526, 7.24916648100002], [-72.837081903, 7.27250003700005], [-72.837501527, 7.36041641200006], [-72.899581916, 7.43333339200006], [-72.895835882, 7.48000001400003], [-72.9775009109999, 7.52916668800003], [-72.9916687049999, 7.59916686600008], [-72.951667777, 7.66041660000006], [-72.999168395, 7.71583318300002], [-73.006668092, 7.79750013200004], [-73.114997865, 7.77583360400007], [-73.160445366, 7.84456564900005], [-73.2270812949999, 7.85333299000006], [-73.2474975599999, 7.95833349400004], [-73.277084358, 7.99750041700003], [-73.2975006029999, 7.98500013400008], [-73.3379135129999, 8.13333320400004], [-73.406250004, 8.22666644800005], [-73.437499999, 8.37125015900004], [-73.402496333, 8.50791644700007], [-73.4116668729999, 8.78499984400001], [-73.44499969, 8.87041664500004], [-73.4116668729999, 9.15499973300007], [-73.372654375, 9.15814432400002], [-73.35278814, 9.21747220300005], [-73.3459684429999, 9.17305163600002], [-73.1778427099999, 9.17757292800008], [-73.003393503, 9.28748979800003]]], [[[-75.563500963, 9.96724685800006], [-75.497085575, 9.95499991400004], [-75.509162902, 9.87208271000003], [-75.47333527, 9.82250022700004], [-75.3294179759999, 9.81935537700002], [-75.32583618, 9.77416706700006], [-75.2658309889999, 9.74583339900005], [-75.2520828199999, 9.69666670900004], [-75.3000030539999, 9.66583251500004], [-75.3091659569999, 9.60416603100002], [-75.252502436, 9.57416724700005], [-75.224166865, 9.44916629500005], [-75.2791671799999, 9.36749935500007], [-75.345832837, 9.32499980900008], [-75.375000003, 9.34833335300005], [-75.415832525, 9.32416629900007], [-75.3899993909999, 9.18000030800004], [-75.4566650469999, 9.09500026900001], [-75.440834049, 8.93916701900002], [-75.4558334399999, 8.86541652800002], [-75.512916566, 8.81166649600004], [-75.496454644, 8.72122188500004], [-75.603542327, 8.70604181600004], [-75.681663516, 8.56166648800007], [-75.653335574, 8.43791675500007], [-75.673332216, 8.38500022400007], [-75.6383361859999, 8.31583308600005], [-75.666664123, 8.29791640800005], [-75.674163826, 8.18624972700006], [-75.72666931, 8.06583309400003], [-75.7504196149999, 8.07333277600003], [-75.745414733, 8.12416648600003], [-75.7850036579999, 8.12250041400006], [-75.809165965, 8.16499996400005], [-75.841667171, 8.14500045600003], [-75.865167367, 8.04830185600003], [-75.89741399, 8.01732812500005], [-75.9550018259999, 8.04166698800003], [-75.979164126, 7.94166660400003], [-76.01249695, 7.92416668200001], [-75.96749877, 7.84249973400006], [-75.9524993969999, 7.56250000200002], [-76.034164426, 7.50666666900002], [-76.0575027529999, 7.37666653800004], [-76.003753663, 7.30249977800002], [-75.991249083, 7.20750046100004], [-75.945831302, 7.17041635100002], [-75.981666563, 7.00208330600004], [-75.9524993969999, 6.93750000500006], [-75.986760433, 6.76545653200002], [-75.958335875, 6.72708320400005], [-76.0104141209999, 6.64583348700006], [-76.035415652, 6.50750016700005], [-76.084999076, 6.47541665800003], [-75.988334658, 6.33083343600003], [-76.049163815, 6.25541686400003], [-75.99666596, 6.07791662000006], [-76.094169617, 6.00500011400004], [-76.055891975, 5.90992005000004], [-76.099998472, 5.83874988300005], [-76.060836792, 5.76166629800001], [-76.085830694, 5.68750047800006], [-76.0049972519999, 5.62499999800002], [-76.0033340539999, 5.57916688200003], [-76.0741653379999, 5.54833365100006], [-76.0766677829999, 5.47083329400004], [-76.117500305, 5.42166662000004], [-76.1966629039999, 5.41416644800006], [-76.2366638079999, 5.36166668900007], [-76.3183364829999, 5.33500051600004], [-76.3554153489999, 5.37583303], [-76.4908370969999, 5.33916711400007], [-76.746246344, 5.15499973000003], [-76.85180192, 5.20557424300005], [-76.815002443, 5.42041682300003], [-76.880836481, 5.49000024400003], [-76.8820800779999, 5.55499982800007], [-76.908332828, 5.55249977600005], [-76.940002447, 5.46083354400003], [-76.967086792, 5.49083327600004], [-76.949996945, 5.70666647200005], [-77.0054168769999, 5.75166654800005], [-77.035415653, 5.93833302900004], [-77.0974960349999, 5.97333335400002], [-77.124168394, 6.03374957600005], [-77.180831907, 6.04916667600003], [-77.269584655, 6.01666641000002], [-77.290412899, 6.05333328300002], [-77.216667184, 6.14833307300005], [-77.2466659519999, 6.20999955700005], [-77.2291641269999, 6.23708343500004], [-77.3279190109999, 6.28666639300006], [-77.295829767, 6.35208319900005], [-77.335830694, 6.42499971300003], [-77.310836794, 6.43625021600007], [-77.3091659579999, 6.55208302000006], [-77.3949966449999, 6.71583317500005], [-77.333335872, 6.79083348100005], [-77.35874939, 6.83916664100008], [-77.422894528, 6.85394715800005], [-77.487952206, 6.75531249400006], [-77.541955231, 6.73576389100004], [-77.5291671749999, 6.80458354600005], [-77.574165339, 6.89666700100002], [-77.561668388, 7.00333356900007], [-77.600830076, 7.09666633100005], [-77.584999077, 7.17291641000003], [-77.66791534, 7.22333335500002], [-77.73416901, 7.37458324300006], [-77.7014652, 7.50779824400006], [-77.746849759, 7.60650470500001], [-77.743649475, 7.67646094400003], [-77.6921219929999, 7.69296256500008], [-77.645201962, 7.65146896000004], [-77.6122790749999, 7.54166261000007], [-77.564857703, 7.50778536200005], [-77.5166150009999, 7.58272664000003], [-77.4911711729999, 7.56710607000002], [-77.465686068, 7.66274090300005], [-77.440411437, 7.65841667400004], [-77.3980046139999, 7.72530569700006], [-77.3990465429999, 7.77244486300002], [-77.342224409, 7.76569638600006], [-77.36648123, 7.83045675300002], [-77.334815095, 7.89364017100008], [-77.178741466, 7.91746384300006], [-77.1533080579999, 7.92936500200006], [-77.1789516809999, 7.95905703500005], [-77.139377919, 7.95419781400005], [-77.236187569, 8.02411678300006], [-77.216852671, 8.08554866600002], [-77.258900833, 8.20846856900003], [-77.3473338909999, 8.29586916600005], [-77.355635564, 8.39443147500002], [-77.402521514, 8.47161183100008], [-77.4477001699999, 8.47163143200005], [-77.4433328659999, 8.55365357400007], [-77.393592287, 8.58942535900007], [-77.4092400219999, 8.64483275400006], [-77.364893647, 8.64055516600007], [-77.379289921, 8.68021208400006], [-77.2766364879999, 8.55472103300002], [-77.272877748, 8.50287950900001], [-77.130872742, 8.41130524000004], [-77.037072448, 8.25422768100003], [-76.942334699, 8.24912324700005], [-76.967912142, 8.24291102800003], [-76.958503224, 8.18670078200006], [-76.942102439, 8.20921932700003], [-76.911499667, 8.19169610600005], [-76.9494461039999, 8.14470224300003], [-76.930444903, 8.09200325900002], [-76.892934419, 8.13225823100004], [-76.8337948829999, 8.13980334300004], [-76.8069847349999, 8.12942350800006], [-76.852927669, 8.11997902500002], [-76.828543305, 8.09075770000003], [-76.8715231639999, 8.06977700800008], [-76.829769173, 8.04870145300003], [-76.874293586, 8.05239242400005], [-76.8417385769999, 8.01861429600005], [-76.894337902, 8.04538606800003], [-76.924107899, 8.02721650100006], [-76.919829987, 7.91659285400005], [-76.7483830749999, 7.92055978800004], [-76.7152963089999, 8.06250779600004], [-76.734782034, 8.08936527600003], [-76.7430609159999, 8.06498883500006], [-76.754492724, 8.11589330700002], [-76.7593445429999, 8.39773917000003], [-76.821214427, 8.49241986700003], [-76.93809686, 8.55156855700005], [-76.8841998569999, 8.62215728200004], [-76.648507654, 8.67255617400002], [-76.629085359, 8.73143193800008], [-76.524437818, 8.77321074900004], [-76.413093202, 8.89028198100004], [-76.3307712389999, 8.92580251700001], [-76.18751824, 9.11781979000006], [-76.170228815, 9.22914063600006], [-76.1070042709999, 9.26561441100005], [-76.082020731, 9.33627230700005], [-75.970158263, 9.38214125500002], [-75.94776276, 9.44338546200003], [-75.796256758, 9.43008883300008], [-75.825434586, 9.39372790500005], [-75.63635944, 9.42804244400003], [-75.576301907, 9.55358574200006], [-75.576359436, 9.63119899600001], [-75.614325455, 9.69446380200004], [-75.704065742, 9.69929832900004], [-75.6423449599999, 9.75989500300005], [-75.620539488, 9.87437073400004], [-75.563500963, 9.96724685800006]]], [[[-74.8758316129999, 11.045833588], [-74.981666562, 10.8800001060001], [-74.965415956, 10.802499772], [-75.015830997, 10.754166603], [-75.105003353, 10.735000606], [-75.1347406469999, 10.650638664], [-75.120025542, 10.598792686], [-75.252433429, 10.49057659], [-75.231666563, 10.476250641], [-75.2566680859999, 10.383333205], [-75.356246959, 10.348333354], [-75.3783340419999, 10.3787498500001], [-75.441253665, 10.322499279], [-75.433334358, 10.288749699], [-75.504154262, 10.2836012350001], [-75.510006824, 10.380014386], [-75.5482361749999, 10.4196458910001], [-75.544518605, 10.390138516], [-75.564479971, 10.3973326920001], [-75.55455497, 10.4248640340001], [-75.4941686989999, 10.479703334], [-75.512516923, 10.571309305], [-75.4605879219999, 10.5905114770001], [-75.394588913, 10.684067052], [-75.276600537, 10.713702024], [-75.261664635, 10.8007842850001], [-75.220938587, 10.796970865], [-75.0491118579999, 10.8957829230001], [-75.0066610229999, 10.981413779], [-74.9597716809999, 10.9905500470001], [-74.921515191, 11.045907486], [-74.8758316129999, 11.045833588]]], [[[-71.665996712, 12.456792063], [-71.5254556369999, 12.437403922], [-71.267433957, 12.3332609560001], [-71.11797483, 12.0931864570001], [-71.1215032059999, 12.0245247080001], [-71.269030829, 11.914282953], [-71.328175459, 11.9216620830001], [-71.289851644, 11.9137700200001], [-71.3233466729999, 11.832065608], [-71.363399595, 11.8432313800001], [-71.3784448489999, 11.8121295400001], [-71.9713632359999, 11.646266879], [-72.2494164839999, 11.1401860070001], [-72.349313599, 11.1513728360001], [-72.485714321, 11.098118604], [-72.553774496, 10.940203571], [-72.648965867, 10.87954547], [-72.6799521569999, 10.7639707860001], [-72.8083217779999, 10.577956338], [-72.8829572069999, 10.706488311], [-72.9873149379999, 10.818925349], [-73.0741653439999, 10.860833165], [-73.1091690109999, 10.924583426], [-73.252502443, 10.9141664520001], [-73.291664122, 10.9383325580001], [-73.648651961, 10.8218596940001], [-73.745002744, 10.8784372750001], [-73.859803415, 10.8643595880001], [-73.883313054, 10.897138741], [-73.86791992, 10.98916626], [-73.91595426, 11.0102563940001], [-73.990588902, 11.0237384830001], [-74.047290801, 10.991042139], [-74.2424484749999, 11.035847604], [-74.2140819799999, 11.0739113060001], [-74.2416188019999, 11.221681314], [-74.190954017, 11.265180641], [-74.1935617729999, 11.303878465], [-74.1483782029999, 11.2982793370001], [-74.143688611, 11.337222688], [-74.1049791899999, 11.318690668], [-74.105502063, 11.3486535700001], [-74.081706832, 11.3159036270001], [-74.065138431, 11.3455934150001], [-73.9780538159999, 11.340463819], [-73.7886938949999, 11.255938369], [-73.274011952, 11.286903845], [-73.026588965, 11.493958008], [-72.8806241939999, 11.5662019330001], [-72.768981148, 11.6790020990001], [-72.4467678619999, 11.778534489], [-72.22898565, 11.8876775950001], [-72.138865322, 12.106212182], [-72.148860418, 12.2005012760001], [-72.180523436, 12.2067721280001], [-72.178581961, 12.216925228], [-71.960938718, 12.25845332], [-72.000412677, 12.185968592], [-71.986809165, 12.148645694], [-71.9286028179999, 12.152315222], [-71.860635681, 12.211118446], [-71.8912070389999, 12.275276618], [-71.9552767449999, 12.273388072], [-71.822693988, 12.3719976940001], [-71.838262861, 12.3346775630001], [-71.799574317, 12.307408933], [-71.743339538, 12.3454546160001], [-71.7622154869999, 12.379788073], [-71.722559206, 12.410922064], [-71.721737517, 12.3706024310001], [-71.704945633, 12.3755552210001], [-71.702123521, 12.3591520100001], [-71.689570508, 12.3604765220001], [-71.6960465889999, 12.39088401], [-71.630327972, 12.4141350320001], [-71.700076854, 12.4160671650001], [-71.684887797, 12.4429431320001], [-71.736028743, 12.4122385090001], [-71.665996712, 12.456792063]]], [[[-81.7039907399999, 12.594867696], [-81.686708397, 12.580878898], [-81.73022098, 12.480368458], [-81.732332964, 12.5551377900001], [-81.7039907399999, 12.594867696]]], [[[-81.3891116199999, 13.3207430620001], [-81.3544576619999, 13.377299833], [-81.3497174679999, 13.356871192], [-81.3891116199999, 13.3207430620001]]], [[[-81.379691365, 13.3914581990001], [-81.367537006, 13.386053664], [-81.376743543, 13.3814983260001], [-81.379691365, 13.3914581990001]]], [[[-81.1776998879999, 14.1656276420001], [-81.162731589, 14.1568159490001], [-81.1725459629999, 14.153531555], [-81.1776998879999, 14.1656276420001]]], [[[-80.322445284, 14.319945435], [-80.369027828, 14.2849361950001], [-80.3234579479999, 14.333688732], [-80.322445284, 14.319945435]]], [[[-81.104043893, 14.5002774180001], [-81.1354424899999, 14.467226263], [-81.1412264419999, 14.496146024], [-81.104043893, 14.5002774180001]]]]}}, {"type": "Feature", "properties": {"name": "Magdalena Cauca"}, "geometry": {"type": "Polygon", "coordinates": [[[-74.8549842899999, 11.1076891830001], [-74.467186461, 10.978759416], [-74.310165405, 10.983379353], [-74.2424484749999, 11.035847604], [-74.047290801, 10.991042139], [-73.990588902, 11.0237384830001], [-73.91595426, 11.0102563940001], [-73.86791992, 10.98916626], [-73.883313054, 10.897138741], [-73.859803415, 10.8643595880001], [-73.745002744, 10.8784372750001], [-73.648651961, 10.8218596940001], [-73.291664122, 10.9383325580001], [-73.252502443, 10.9141664520001], [-73.1091690109999, 10.924583426], [-73.0741653439999, 10.860833165], [-72.9873149379999, 10.818925349], [-72.8829572069999, 10.706488311], [-72.8083343449999, 10.5808334320001], [-72.900887725, 10.43749202], [-72.912591057, 10.109397922], [-73.000964207, 9.91806116900004], [-72.978391583, 9.88820182400002], [-73.00327877, 9.85475713300001], [-72.9834988109999, 9.87204648600005], [-72.945585082, 9.83918084000004], [-73.0547439979999, 9.67645169200006], [-73.082820151, 9.55758156500002], [-73.1366540289999, 9.55009046900006], [-73.19804053, 9.47579813300007], [-73.186651895, 9.44799548200005], [-73.2401275079999, 9.40413378300008], [-73.32231555, 9.23265198900003], [-73.4262466449999, 9.11583327500005], [-73.44499969, 8.87041664500004], [-73.4116668729999, 8.78499984400001], [-73.402496333, 8.50791644700007], [-73.437499999, 8.37125015900004], [-73.406250004, 8.22666644800005], [-73.3379135129999, 8.13333320400004], [-73.2975006029999, 7.98500013400008], [-73.277084358, 7.99750041700003], [-73.2474975599999, 7.95833349400004], [-73.2270812949999, 7.85333299000006], [-73.160445366, 7.84456564900005], [-73.114997865, 7.77583360400007], [-73.0175018309999, 7.80625009300007], [-72.999168395, 7.71583318300002], [-72.9574966329999, 7.68125009600004], [-72.9916687049999, 7.59916686600008], [-72.9775009109999, 7.52916668800003], [-72.895835882, 7.48000001400003], [-72.833335876, 7.30458355400001], [-72.8991699219999, 7.24416685100004], [-72.9504165659999, 7.09250021500003], [-72.7904129029999, 7.03833341300003], [-72.680000309, 6.95583343300006], [-72.6183319049999, 6.84000015500004], [-72.6258316029999, 6.71083355300003], [-72.5358352659999, 6.74249983100002], [-72.488334648, 6.71708346200005], [-72.4841690059999, 6.65666627700006], [-72.4016647289999, 6.62249994700005], [-72.344169614, 6.52583312900003], [-72.301666257, 6.51333331900002], [-72.281669616, 6.38374995200006], [-72.3700027479999, 6.32250022400006], [-72.4212493909999, 6.15333319300004], [-72.5304183969999, 6.05333328200003], [-72.5595855719999, 5.95833301800008], [-72.7004165659999, 5.84083318600005], [-72.7149963379999, 5.79791641300005], [-72.6862487879999, 5.78166676200004], [-72.728752137, 5.75000000200003], [-72.7099990849999, 5.72500037400004], [-72.754585263, 5.65916681000004], [-72.922500611, 5.61999988600007], [-72.975418089, 5.55083322200004], [-72.992500299, 5.43250035800001], [-73.032501226, 5.46666622200007], [-73.1233367959999, 5.45833349200006], [-73.147087101, 5.48166655800002], [-73.216247557, 5.44500016000006], [-73.266018711, 5.46251085100003], [-73.2845840479999, 5.51666688400007], [-73.314163208, 5.47583294000002], [-73.3908309999999, 5.47499990000004], [-73.42375183, 5.53000020800004], [-73.5858330619999, 5.40583357800006], [-73.594169614, 5.29666662400006], [-73.514999393, 5.23166704000005], [-73.579582213, 5.15083313100006], [-73.670417782, 5.10166692400002], [-73.6825027469999, 4.99416637500002], [-73.813331606, 4.83458328400007], [-73.829170227, 4.75750017400003], [-73.987915041, 4.63000011700008], [-74.0058364829999, 4.56333351300002], [-74.108749387, 4.44250012300006], [-74.114166256, 4.31333351300003], [-74.204170231, 4.29166650400003], [-74.253334046, 4.05791663600008], [-74.216667182, 4.01125002200007], [-74.317085263, 3.88083314900007], [-74.2949981629999, 3.81833338400002], [-74.3279190009999, 3.82500004200006], [-74.393333438, 3.77083348900003], [-74.629585268, 3.47333336100007], [-74.616668701, 3.28749990400006], [-74.672500612, 3.18583322300003], [-74.9041671689999, 2.96041655200002], [-75.0716629, 2.73958325200004], [-75.1449966439999, 2.72416662500006], [-75.1324996929999, 2.60458326500002], [-75.179168708, 2.50999999000004], [-75.227500913, 2.51166677700008], [-75.308334347, 2.36166643900002], [-75.395835872, 2.30500006600004], [-75.443336486, 2.14499998600007], [-75.5345840419999, 2.11750007300002], [-75.735420227, 1.78416669400002], [-75.910835265, 1.71375000800003], [-76.023330688, 1.59125005700003], [-76.120002743, 1.55416655200001], [-76.166873928, 1.59072911600003], [-76.199165342, 1.57583332100007], [-76.2433319039999, 1.68333339500003], [-76.3783340429999, 1.66250002300005], [-76.371665948, 1.74374997400002], [-76.4208297709999, 1.72041666600006], [-76.4333343589999, 1.78958344700002], [-76.5899963369999, 1.86749995500002], [-76.623336799, 1.97374999200001], [-76.5783309889999, 2.00166677800007], [-76.590835569, 2.10916662000003], [-76.5541687049999, 2.13916683300005], [-76.560417176, 2.26083326400003], [-76.5929183979999, 2.28083347900002], [-76.609580992, 2.36166667900005], [-76.849998472, 2.43624997200003], [-76.958335883, 2.53125000300002], [-76.853752136, 2.74583339500004], [-76.8787460299999, 2.81249999800001], [-76.917503361, 2.81916665600005], [-76.806663505, 3.04083347100005], [-76.780830387, 3.25166678700002], [-76.693336487, 3.36750054700003], [-76.703750515, 3.44333370500003], [-76.6279144279999, 3.48833310600001], [-76.514167786, 3.69666671200002], [-76.4483337359999, 3.75291665100002], [-76.438331456, 3.92500054800007], [-76.39833069, 3.97708320800006], [-76.412918094, 4.06250000700003], [-76.4983367899999, 4.06333303900005], [-76.447502137, 4.16166639500005], [-76.453330992, 4.23083353300005], [-76.344169617, 4.26249980300002], [-76.324996948, 4.30749988700007], [-76.2900009269999, 4.31166648600001], [-76.301246644, 4.34250021300005], [-76.244163514, 4.42979169000006], [-76.155624389, 4.47729182600005], [-76.165000915, 4.58354162900002], [-76.088542939, 4.73520827700002], [-76.1466674869999, 4.78458356200002], [-76.128753667, 4.91083336300005], [-76.087501521, 4.94583320800007], [-76.095413206, 5.03500032700003], [-76.0591659579999, 5.13749980700003], [-75.988334659, 5.15874957900008], [-75.976669311, 5.21333360400006], [-75.927497865, 5.22416687600001], [-75.899169924, 5.35500001600007], [-75.8683319149999, 5.37833309000005], [-75.868331916, 5.49166679800005], [-75.981666563, 5.51875018700002], [-76.0049972519999, 5.62499999800002], [-76.085830694, 5.68750047800006], [-76.060836792, 5.76166629800001], [-76.099998472, 5.83874988300005], [-76.055891975, 5.90992005000004], [-76.094169617, 6.00500011400004], [-75.99666596, 6.07791662000006], [-76.049163815, 6.25541686400003], [-75.988334658, 6.33083343600003], [-76.084999076, 6.47541665800003], [-76.035415652, 6.50750016700005], [-76.0104141209999, 6.64583348700006], [-75.958335875, 6.72708320400005], [-75.986760433, 6.76545653200002], [-75.9524993969999, 6.93750000500006], [-75.981666563, 7.00208330600004], [-75.945831302, 7.17041635100002], [-75.991249083, 7.20750046100004], [-76.003753663, 7.30249977800002], [-76.0575027529999, 7.37666653800004], [-76.034164426, 7.50666666900002], [-75.9524993969999, 7.56250000200002], [-75.96749877, 7.84249973400006], [-76.01249695, 7.92416668200001], [-75.979164126, 7.94166660400003], [-75.9550018259999, 8.04166698800003], [-75.89741399, 8.01732812500005], [-75.865167367, 8.04830185600003], [-75.841667171, 8.14500045600003], [-75.809165965, 8.16499996400005], [-75.7850036579999, 8.12250041400006], [-75.745414733, 8.12416648600003], [-75.7504196149999, 8.07333277600003], [-75.72666931, 8.06583309400003], [-75.674163826, 8.18624972700006], [-75.666664123, 8.29791640800005], [-75.6383361859999, 8.31583308600005], [-75.673332216, 8.38500022400007], [-75.653335574, 8.43791675500007], [-75.681663516, 8.56166648800007], [-75.603542327, 8.70604181600004], [-75.496454644, 8.72122188500004], [-75.512916566, 8.81166649600004], [-75.4558334399999, 8.86541652800002], [-75.440834049, 8.93916701900002], [-75.4566650469999, 9.09500026900001], [-75.3899993909999, 9.18000030800004], [-75.415832525, 9.32416629900007], [-75.375000003, 9.34833335300005], [-75.345832837, 9.32499980900008], [-75.2791671799999, 9.36749935500007], [-75.220001231, 9.49708367000004], [-75.252502436, 9.57416724700005], [-75.3091659569999, 9.60416603100002], [-75.3000030539999, 9.66583251500004], [-75.2520828199999, 9.69666670900004], [-75.2658309889999, 9.74583339900005], [-75.32583618, 9.77416706700006], [-75.3294179759999, 9.81935537700002], [-75.47333527, 9.82250022700004], [-75.509162902, 9.87208271000003], [-75.497085575, 9.95499991400004], [-75.575909044, 9.97100143200003], [-75.581050483, 10.120318211], [-75.533984817, 10.16242859], [-75.548162765, 10.179971304], [-75.522833571, 10.175054421], [-75.5470814989999, 10.2275468090001], [-75.5221874489999, 10.2371390380001], [-75.543394544, 10.243721362], [-75.619809688, 10.1962843600001], [-75.668417169, 10.1390493060001], [-75.7029703539999, 10.142271168], [-75.622150491, 10.2044524080001], [-75.586460694, 10.2975972020001], [-75.568585523, 10.270228688], [-75.5282161229999, 10.3039158880001], [-75.4441680959999, 10.283333777], [-75.434585569, 10.3325004590001], [-75.3783340419999, 10.3787498500001], [-75.356246959, 10.348333354], [-75.2566680859999, 10.383333205], [-75.231666563, 10.476250641], [-75.252433429, 10.49057659], [-75.120025542, 10.598792686], [-75.1347406469999, 10.650638664], [-75.105003353, 10.735000606], [-75.015830997, 10.754166603], [-74.965415956, 10.802499772], [-74.981666562, 10.8800001060001], [-74.8824996929999, 11.041250233], [-74.8292023719999, 11.0413512490001], [-74.8549842899999, 11.1076891830001]]]}}, {"type": "Feature", "properties": {"name": "Orinoco"}, "geometry": {"type": "Polygon", "coordinates": [[[-72.530830384, 7.48874998300005], [-72.452499387, 7.39958333700001], [-72.1964543569999, 7.38421352500007], [-72.153843598, 7.32699591700002], [-72.1738218419999, 7.25210349700007], [-72.049933852, 7.04269194900008], [-71.960140493, 7.01110496500007], [-71.7462161139999, 7.06573271200005], [-71.7050103289999, 7.03251957000004], [-71.587724408, 7.05519688400004], [-71.5882882449999, 7.01554436700007], [-71.498461676, 7.03628167900008], [-71.478175219, 7.01511605000007], [-71.4652264269999, 7.04222958600008], [-71.454972867, 7.00977668000007], [-71.424624372, 7.03895882900001], [-71.240948739, 7.01182925800003], [-71.12977492, 7.03294504800003], [-71.111670992, 6.98992764000007], [-71.022216837, 6.97429300100003], [-70.92156361, 7.02369192500003], [-70.9181551139999, 7.05301440000005], [-70.687214317, 7.10438067000008], [-70.641942694, 7.06876890900003], [-70.55633491, 7.07932002700005], [-70.5023373669999, 7.00566791100004], [-70.4311066509999, 7.00728426800003], [-70.32238755, 6.93456794600008], [-70.117802003, 6.97941232100004], [-69.430466763, 6.10779424100001], [-69.342134496, 6.13997071700005], [-69.308868992, 6.08865328900003], [-69.23860896, 6.07953420300003], [-69.123728117, 6.19090975700003], [-69.046177529, 6.22169822000007], [-69.01416424, 6.19292857700003], [-68.644844989, 6.12915246800003], [-68.4485676639999, 6.18772928100003], [-68.3069730079999, 6.16298956100007], [-68.1418538739999, 6.22867498600005], [-68.027537954, 6.19610917000005], [-67.810259553, 6.32430397100006], [-67.761767614, 6.29137033200003], [-67.547193654, 6.26622738500003], [-67.469764931, 6.20827623100006], [-67.493424462, 6.12752257400006], [-67.410007795, 5.99482581200004], [-67.597359954, 5.82775183500006], [-67.637952046, 5.67473608000005], [-67.598885895, 5.54408850100002], [-67.6248561359999, 5.47620324600007], [-67.849510343, 5.30395970800004], [-67.824445999, 5.19613691000005], [-67.854284907, 5.13522497200006], [-67.8059266189999, 5.05400508900004], [-67.838732249, 4.94347811900008], [-67.8178441549999, 4.70723271600002], [-67.857593375, 4.53117846200006], [-67.7731822269999, 4.41899692100002], [-67.7616098779999, 4.34934451000003], [-67.804012084, 4.32728457200006], [-67.7970138219999, 4.22966639300005], [-67.733202805, 4.12288584800006], [-67.634426535, 3.78555000800002], [-67.606820301, 3.75211988700003], [-67.501285907, 3.76744879300003], [-67.447956684, 3.67648399500007], [-67.4014681039999, 3.47999663400002], [-67.339150347, 3.45102220200005], [-67.313009956, 3.39455688900005], [-67.3811782879999, 3.24841741300003], [-67.434852518, 3.24847201300004], [-67.723766567, 2.99087682300006], [-67.8269527369999, 3.03603212200006], [-67.9991684139999, 2.94083332700007], [-68.063801224, 2.96686792100006], [-68.122957749, 2.91905343200005], [-68.292872398, 2.96061510900006], [-68.305149475, 2.98780033100007], [-68.4392216109999, 2.85439356700005], [-68.478145779, 2.86637023300005], [-68.5373637439999, 2.82777875000004], [-68.565000321, 2.75445275400006], [-68.6963246179999, 2.73300531800003], [-68.6864448269999, 2.67785992400007], [-68.725830088, 2.64416671300008], [-68.797030788, 2.66307914400004], [-68.987543989, 2.43994372600002], [-69.040098112, 2.43727148300006], [-69.0975513499999, 2.48511643300003], [-69.147724607, 2.45378370500003], [-69.2195816019999, 2.47166657300004], [-69.266670233, 2.42750001100006], [-69.3154144389999, 2.45416665900005], [-69.4066696249999, 2.42750001100006], [-69.5429153539999, 2.44166683300005], [-69.6175003079999, 2.36874986200007], [-69.672500617, 2.36458325600007], [-69.685836799, 2.30583333200002], [-69.873336797, 2.14583349200007], [-69.8616638239999, 2.12708329800005], [-69.926666274, 2.10333324200008], [-69.967498773, 2.02708338800004], [-70.021247863, 2.02583337400005], [-70.076248171, 1.92333328800005], [-70.220095903, 1.97559913000004], [-70.298332215, 1.89416670800005], [-70.3666086929999, 1.88825574000002], [-70.379836118, 1.82002491100008], [-70.4389019019999, 1.81774133400007], [-70.512496947, 1.72083330700002], [-70.7879180859999, 1.74166667800005], [-70.8741683969999, 1.66458332600006], [-70.993331908, 1.67166674200007], [-71.009162907, 1.62750006300006], [-71.0999984759999, 1.62791669500006], [-71.234168998, 1.53750002700001], [-71.2416686989999, 1.50166654600001], [-71.338333136, 1.51875006800002], [-71.385833738, 1.61375022300007], [-71.4574966389999, 1.62458337000003], [-71.4483337359999, 1.70416677500003], [-71.596252443, 1.74333334100002], [-71.62652589, 1.77902785600003], [-71.73166656, 1.71541666300004], [-71.815002439, 1.74833321300002], [-71.8716659529999, 1.62500023600006], [-71.912086481, 1.61666655000004], [-71.989585883, 1.68583333100003], [-72.0824966439999, 1.67708337700003], [-72.1549987769999, 1.73083329000002], [-72.178337095, 1.71499990700004], [-72.249168394, 1.83583342100007], [-72.348335272, 1.88499987000007], [-72.372917172, 1.99916661000003], [-72.411666865, 1.99083328100004], [-72.470832816, 2.05833315900002], [-72.572082522, 2.07583331400002], [-72.605834954, 2.13000010800005], [-72.6412506149999, 2.10999990000004], [-72.69999695, 2.16374993800002], [-72.722503666, 2.15208315900002], [-72.724998473, 2.20499992300006], [-72.800415038, 2.28250002500004], [-72.94437408, 2.26062500500006], [-73.0329132049999, 2.05583334700003], [-73.095832827, 2.02666663900005], [-73.151664734, 2.04145835800006], [-73.1525039699999, 1.98000001700007], [-73.203330998, 1.99083316500003], [-73.223957062, 2.05229163500007], [-73.282501227, 2.02250004200004], [-73.313331606, 2.05291676300005], [-73.4433364929999, 2.07166672300001], [-73.504585264, 2.03666663100005], [-73.5008316079999, 2.00916647600007], [-73.5683364879999, 2.07083344300002], [-73.639579774, 2.07416677500003], [-73.7666702289999, 1.97250008600003], [-73.89833069, 1.92083335200005], [-73.924793245, 1.97187495500004], [-73.9858322119999, 1.94833325700007], [-74.14416504, 1.99666666700005], [-74.172920236, 1.98000001700007], [-74.236179567, 2.05474998700002], [-74.462081908, 2.08916663800003], [-74.4854202339999, 2.14916658400004], [-74.538749691, 2.11000012600004], [-74.5933303909999, 2.13458323800004], [-74.591667178, 2.20166659800003], [-74.665000914, 2.21125007400002], [-74.650001526, 2.24000000800002], [-74.693336486, 2.28416657100008], [-74.750831601, 2.27791667000003], [-74.647499081, 2.49374985800007], [-74.681663508, 2.55833339200006], [-74.5858306929999, 2.66541670900005], [-74.637496953, 2.70083331800003], [-74.6175003119999, 2.75375008200006], [-74.666664119, 2.80499982600002], [-74.672920228, 2.88833332100006], [-74.769374845, 2.87312495100001], [-74.800003053, 2.93833351600004], [-74.910625452, 2.88354182400007], [-74.931526187, 2.90986116800002], [-74.672500612, 3.18583322300003], [-74.616668701, 3.28749990400006], [-74.63999939, 3.36750030600008], [-74.6058349639999, 3.41375017200004], [-74.620414736, 3.48749995000003], [-74.564582818, 3.52500009500005], [-74.393333438, 3.77083348900003], [-74.3279190009999, 3.82500004200006], [-74.2949981629999, 3.81833338400002], [-74.317085263, 3.88083314900007], [-74.216667182, 4.01125002200007], [-74.253334046, 4.05791663600008], [-74.204170231, 4.29166650400003], [-74.114166256, 4.31333351300003], [-74.108749387, 4.44250012300006], [-74.0058364829999, 4.56333351300002], [-73.987915041, 4.63000011700008], [-73.829170227, 4.75750017400003], [-73.813331606, 4.83458328400007], [-73.6825027469999, 4.99416637500002], [-73.670417782, 5.10166692400002], [-73.5175018309999, 5.22666644600003], [-73.594169614, 5.29666662400006], [-73.5858330619999, 5.40583357800006], [-73.42375183, 5.53000020800004], [-73.3908309999999, 5.47499990000004], [-73.314163208, 5.47583294000002], [-73.2845840479999, 5.51666688400007], [-73.266018711, 5.46251085100003], [-73.216247557, 5.44500016000006], [-73.147087101, 5.48166655800002], [-73.1233367959999, 5.45833349200006], [-73.032501226, 5.46666622200007], [-72.992500299, 5.43250035800001], [-72.975418089, 5.55083322200004], [-72.922500611, 5.61999988600007], [-72.754585263, 5.65916681000004], [-72.7099990849999, 5.72500037400004], [-72.728752137, 5.75000000200003], [-72.6862487879999, 5.78166676200004], [-72.7149963379999, 5.79791641300005], [-72.7004165659999, 5.84083318600005], [-72.5595855719999, 5.95833301800008], [-72.5304183969999, 6.05333328200003], [-72.4212493909999, 6.15333319300004], [-72.3700027479999, 6.32250022400006], [-72.281669616, 6.38374995200006], [-72.301666257, 6.51333331900002], [-72.344169614, 6.52583312900003], [-72.4016647289999, 6.62249994700005], [-72.4841690059999, 6.65666627700006], [-72.488334648, 6.71708346200005], [-72.5358352659999, 6.74249983100002], [-72.6258316029999, 6.71083355300003], [-72.6183319049999, 6.84000015500004], [-72.680000309, 6.95583343300006], [-72.959167483, 7.11083364300002], [-72.8991699219999, 7.24416685100004], [-72.833335877, 7.30416631500004], [-72.8116684, 7.25208378000002], [-72.743751526, 7.24916648100002], [-72.6991653549999, 7.33916950900003], [-72.6616668729999, 7.31749963900005], [-72.6212539589999, 7.35416649600007], [-72.580001828, 7.34083318800004], [-72.596664429, 7.45375013800003], [-72.530830384, 7.48874998300005]]]}}, {"type": "Feature", "properties": {"name": "Pacifico"}, "geometry": {"type": "MultiPolygon", "coordinates": [[[[-77.1738835749999, 3.80560922100005], [-77.150682422, 3.79930832200006], [-77.146046589, 3.77151952100007], [-77.171634626, 3.76966199100002], [-77.1738835749999, 3.80560922100005]]], [[[-77.093031055, 3.88736423000005], [-77.109317717, 3.87432971600004], [-77.103416125, 3.89569626400002], [-77.093031055, 3.88736423000005]]], [[[-77.723335272, 7.48474321000004], [-77.722503662, 7.33583355000007], [-77.66791534, 7.22333335500002], [-77.584999077, 7.17291641000003], [-77.600830076, 7.09666633100005], [-77.561668388, 7.00333356900007], [-77.574165339, 6.89666700100002], [-77.5291671749999, 6.80458354600005], [-77.541955231, 6.73576389100004], [-77.487952206, 6.75531249400006], [-77.422894528, 6.85394715800005], [-77.35874939, 6.83916664100008], [-77.333335872, 6.79083348100005], [-77.3949966449999, 6.71583317500005], [-77.3091659579999, 6.55208302000006], [-77.310836794, 6.43625021600007], [-77.335830694, 6.42499971300003], [-77.295829767, 6.35208319900005], [-77.3279190109999, 6.28666639300006], [-77.2291641269999, 6.23708343500004], [-77.2466659519999, 6.20999955700005], [-77.216667184, 6.14833307300005], [-77.290412899, 6.05333328300002], [-77.269584655, 6.01666641000002], [-77.180831907, 6.04916667600003], [-77.124168394, 6.03374957600005], [-77.0974960349999, 5.97333335400002], [-77.035415653, 5.93833302900004], [-77.0054168769999, 5.75166654800005], [-76.949996945, 5.70666647200005], [-76.967086792, 5.49083327600004], [-76.940002447, 5.46083354400003], [-76.8899993919999, 5.56041669700004], [-76.879897891, 5.48813408800003], [-76.816665648, 5.43041706300005], [-76.8133316, 5.34541654100001], [-76.8525009099999, 5.25541687100002], [-76.8341674819999, 5.18250989900001], [-76.720646657, 5.15477092900005], [-76.63375092, 5.21999978800004], [-76.6275024409999, 5.26416683200005], [-76.52860378, 5.29474817000005], [-76.4908370969999, 5.33916711400007], [-76.3554153489999, 5.37583303], [-76.324165346, 5.33541679900002], [-76.2395858779999, 5.36000013600004], [-76.1966629039999, 5.41416644800006], [-76.1541671699999, 5.40375042300007], [-76.0854186999999, 5.44999980600005], [-76.083747865, 5.53499984600006], [-76.032913215, 5.56833314400007], [-75.958335875, 5.50500011400005], [-75.868331916, 5.49166679800005], [-75.8608322169999, 5.44750022800003], [-75.927497865, 5.22416687600001], [-75.976669311, 5.21333360400006], [-75.988334659, 5.15874957900008], [-76.0591659579999, 5.13749980700003], [-76.095413206, 5.03500032700003], [-76.087501521, 4.94583320800007], [-76.128753667, 4.91083336300005], [-76.1466674869999, 4.78458356200002], [-76.088542939, 4.73520827700002], [-76.165000915, 4.58354162900002], [-76.155624389, 4.47729182600005], [-76.244163514, 4.42979169000006], [-76.301246644, 4.34250021300005], [-76.2900009269999, 4.31166648600001], [-76.324996948, 4.30749988700007], [-76.344169617, 4.26249980300002], [-76.453330992, 4.23083353300005], [-76.447502137, 4.16166639500005], [-76.4983367899999, 4.06333303900005], [-76.412918094, 4.06250000700003], [-76.39833069, 3.97708320800006], [-76.438331456, 3.92500054800007], [-76.4483337359999, 3.75291665100002], [-76.514167786, 3.69666671200002], [-76.6279144279999, 3.48833310600001], [-76.703750515, 3.44333370500003], [-76.693336487, 3.36750054700003], [-76.780830387, 3.25166678700002], [-76.806663505, 3.04083347100005], [-76.917503361, 2.81916665600005], [-76.879165654, 2.81291651500004], [-76.851628266, 2.755244681], [-76.955833438, 2.51833343600002], [-76.849998472, 2.43624997200003], [-76.609580992, 2.36166667900005], [-76.5599975599999, 2.25749993100004], [-76.5541687049999, 2.13916683300005], [-76.590835569, 2.10916662000003], [-76.5783309889999, 2.00166677800007], [-76.707496642, 1.96166670600007], [-76.73291779, 1.78083336900003], [-76.769165039, 1.77541673400002], [-76.8466644329999, 1.67166650100005], [-76.858329765, 1.52083325400002], [-76.9291686939999, 1.50083327200003], [-76.905830383, 1.32041656900003], [-76.931867424, 1.28076438200003], [-76.9741668729999, 1.29125010900002], [-76.9786610949999, 1.23332986300005], [-77.069168093, 1.18500005700002], [-77.1208343529999, 1.21500003100004], [-77.1683349629999, 1.19041669300002], [-77.210830683, 1.03500008400005], [-77.2483367949999, 0.992916763000036], [-77.3225021329999, 0.979583384000015], [-77.3979186989999, 0.872499942000038], [-77.385414125, 0.81416660500002], [-77.595557939, 0.723086182000023], [-77.6978296729999, 0.740895582000052], [-77.663717974, 0.814177842000037], [-77.7162748699999, 0.850154849000037], [-77.866931847, 0.801507231000066], [-77.964883769, 0.824202664000037], [-78.120144684, 0.934810634999999], [-78.187845325, 0.939073186000025], [-78.208532116, 1.00604576900002], [-78.2819584659999, 1.05571427700004], [-78.2524833319999, 1.10267157000004], [-78.311062911, 1.19092371700002], [-78.422280955, 1.13874559500005], [-78.438744829, 1.19431614200004], [-78.5161721319999, 1.18784964600008], [-78.5538862189999, 1.25021796900005], [-78.636188878, 1.25904437500003], [-78.662587776, 1.31892156200007], [-78.779317038, 1.39191652400007], [-78.816210164, 1.46518127700004], [-78.8334287929999, 1.45040466500006], [-78.799367714, 1.48545855300004], [-78.853234534, 1.47864405900003], [-78.87571208, 1.54754789500002], [-78.99166888, 1.60403296300007], [-79.0078517969999, 1.65271693500005], [-78.871731465, 1.79224327400006], [-78.821440748, 1.82443430300003], [-78.8122447489999, 1.78705947400004], [-78.7980601079999, 1.80480272800003], [-78.781738402, 1.80149594800002], [-78.7751409319999, 1.817896059], [-78.758431926, 1.82510298200002], [-78.782017284, 1.79075457700003], [-78.739122837, 1.79800856300005], [-78.726135327, 1.75369827200007], [-78.749098691, 1.74302249500004], [-78.72695848, 1.73701078100004], [-78.716721046, 1.79366930500004], [-78.686489197, 1.74926163600003], [-78.687426661, 1.78236065600004], [-78.650543964, 1.79318216600007], [-78.600055034, 1.79278080800004], [-78.602471201, 1.74528048800004], [-78.5904640099999, 1.77167001200007], [-78.5818460579999, 1.74063646200006], [-78.55410424, 1.75698324000007], [-78.534084395, 1.85836373400001], [-78.5526214179999, 1.90049772100002], [-78.5997522119999, 1.89872597400007], [-78.601375558, 1.99386803700002], [-78.6368205099999, 2.01219517800007], [-78.6455770709999, 1.97833833100002], [-78.674938803, 1.98018480900003], [-78.6718952209999, 2.04648800500008], [-78.646632682, 2.04859819200004], [-78.679294913, 2.05954789200006], [-78.712792614, 2.17039582000006], [-78.545006067, 2.49179402900006], [-78.458296113, 2.57632823700005], [-78.386782018, 2.57799122900001], [-78.385216566, 2.62386750400003], [-78.334829837, 2.65514301500002], [-78.3109923929999, 2.58815116200003], [-78.2861712059999, 2.60716327700004], [-78.3033101899999, 2.65950800100007], [-78.241649093, 2.66417044600007], [-78.192163033, 2.59719761000001], [-78.2089701249999, 2.66919209100007], [-78.153728326, 2.68504884700005], [-78.068414812, 2.60819007900005], [-77.9783414299999, 2.66139426600005], [-77.94537051, 2.62629258700001], [-77.8736589439999, 2.69667435900005], [-77.790650543, 2.66575576600008], [-77.7945961949999, 2.76003350600008], [-77.7339764339999, 2.77147892300007], [-77.7650492129999, 2.79509654800006], [-77.6551235759999, 2.94311932300007], [-77.668556057, 2.98531072200004], [-77.703460717, 2.97218388300007], [-77.6676703, 3.04518466600006], [-77.547645183, 3.20900867200005], [-77.5028798329999, 3.20902835400005], [-77.502839777, 3.23425135900004], [-77.545051235, 3.23502573300005], [-77.4946620439999, 3.30530938200007], [-77.413882201, 3.36322039100003], [-77.366263847, 3.44994959600007], [-77.340722381, 3.42338152600006], [-77.369205048, 3.47834838700004], [-77.304919495, 3.56293441000003], [-77.1977256169999, 3.60769492700006], [-77.16493586, 3.65349261300003], [-77.1949363299999, 3.75152439400006], [-77.136336655, 3.76145783900006], [-77.146545154, 3.80887427900006], [-77.0513357359999, 3.87938377300002], [-77.080439615, 3.89128089900002], [-77.054042908, 3.88550217100003], [-77.051260385, 3.90924592900008], [-77.1017497659999, 3.91786247400007], [-77.111870966, 3.87682514600003], [-77.18237728, 3.83233514800001], [-77.27995322, 3.83960921100004], [-77.316540066, 3.95167981900005], [-77.22509731, 3.99741534000004], [-77.187642216, 4.05446509800004], [-77.254796916, 4.05374329300002], [-77.2476452929999, 4.07997930900007], [-77.305972276, 4.04123708200006], [-77.357349155, 3.92716497400004], [-77.434537497, 4.01172944600006], [-77.432245482, 4.07334260100003], [-77.452150945, 4.04115335900002], [-77.5261138769999, 4.12739114100002], [-77.51544438, 4.27853364000003], [-77.4984118369999, 4.29361669500002], [-77.483753416, 4.29242832200003], [-77.490618494, 4.25880976200005], [-77.436948198, 4.28587031500005], [-77.4580453029999, 4.29454588500005], [-77.427421032, 4.29975203500003], [-77.408588088, 4.35628327700003], [-77.365308327, 4.36467655100006], [-77.304768659, 4.67822234300007], [-77.325999236, 4.74253079400006], [-77.303195134, 4.74349855800005], [-77.346746348, 4.78332013800002], [-77.3236312929999, 4.80988718400004], [-77.34787227, 4.80763795400002], [-77.374892111, 4.95913509000008], [-77.363785188, 5.09560908800005], [-77.395574832, 5.17286749900007], [-77.390205126, 5.28534021100006], [-77.3636349449999, 5.29285827400002], [-77.4026756109999, 5.32645001000003], [-77.412293684, 5.40227764800006], [-77.389326097, 5.44020628000002], [-77.427159607, 5.43730581700003], [-77.456605259, 5.48763654500003], [-77.539580512, 5.48218510100003], [-77.489696481, 5.60732779500006], [-77.338159299, 5.61973370900007], [-77.264838114, 5.71568947400004], [-77.2526150159999, 5.78614994700007], [-77.3480990849999, 6.03726016000007], [-77.351734091, 5.99586411200004], [-77.48231851, 6.19145236700006], [-77.473673025, 6.29698817100006], [-77.398234439, 6.23513116900005], [-77.3704147459999, 6.35429366100004], [-77.411185621, 6.38860584600008], [-77.358884663, 6.39640874800005], [-77.37485581, 6.42618416200002], [-77.327324862, 6.55576270100005], [-77.399973281, 6.62065270300008], [-77.4059847789999, 6.68741585400005], [-77.4664253, 6.70572016900007], [-77.52652032, 6.64769081600001], [-77.5865692739999, 6.81555067500004], [-77.670245743, 6.87581203500002], [-77.694849494, 6.83535044200005], [-77.706195414, 6.90856501500001], [-77.656471183, 6.96556585000006], [-77.680272002, 7.03793617800004], [-77.882617421, 7.21702769000006], [-77.8181846429999, 7.47248123000001], [-77.723335272, 7.48474321000004]]]]}}]}