{
"type": "FeatureCollection",
"name": "magdalena_outline",
"crs": { "type": "name", "properties": { "name": "urn:ogc:def:crs:OGC:1.3:CRS84" } },
"features": [
{ "type": "Feature", "properties": { "name": "Magdalena-Cauca AH" }, "geometry": { "type": "Polygon", "coordinates": [ [ [ -76.169142576999946, 1.588614813000049 ], [ -76.201323312999989, 1.577502364000054 ], [ -76.212261569999953, 1.642709100000047 ], [ -76.242244331999984, 1.68314564800005 ], [ -76.272232989999964, 1.67468352700007 ], [ -76.305574084999989, 1.689947916000051 ], [ -76.325205051999944, 1.663266115000056 ], [ -76.380116469999962, 1.662031919000071 ], [ -76.371598738999978, 1.74219572100003 ], [ -76.418045742999936, 1.717244141000037 ], [ -76.433698180999954, 1.789664824000056 ], [ -76.506993240999975, 1.833914777000075 ], [ -76.528837458999988, 1.823963844000048 ], [ -76.590313100999936, 1.868401175000031 ], [ -76.580997958999944, 1.898183650000021 ], [ -76.617903209999952, 1.926950100000056 ], [ -76.624324969999975, 1.973023348000027 ], [ -76.579902376999939, 2.002171232000023 ], [ -76.589481800999977, 2.10621250500003 ], [ -76.554166473999942, 2.14166649200007 ], [ -76.574707413999988, 2.200480938000055 ], [ -76.560477694999975, 2.259670323000023 ], [ -76.593818671999941, 2.280866573000026 ], [ -76.610382819999984, 2.361466558000075 ], [ -76.690431069999988, 2.367436593000036 ], [ -76.821598427999959, 2.446356964000074 ], [ -76.850329664999947, 2.436307491000036 ], [ -76.89219043099996, 2.478759945000036 ], [ -76.939170941999976, 2.492280365000056 ], [ -76.959074008999949, 2.531906308000032 ], [ -76.849371418999965, 2.762240771000052 ], [ -76.879911311999933, 2.81202186400003 ], [ -76.917621808999968, 2.818287094000027 ], [ -76.892223515999945, 2.847817646000067 ], [ -76.902806184999974, 2.868660351000074 ], [ -76.880229551999946, 2.894298997000021 ], [ -76.871722339999963, 2.954533097000024 ], [ -76.806249497999943, 3.04489822000005 ], [ -76.817122095999935, 3.113030564000042 ], [ -76.775278649999962, 3.183915755000044 ], [ -76.796762103999981, 3.197989969000048 ], [ -76.78257092399997, 3.249115465000045 ], [ -76.764275773999941, 3.25484104700007 ], [ -76.735650041999975, 3.328891570000053 ], [ -76.694129961999977, 3.368465991000051 ], [ -76.68773510699998, 3.400691848000065 ], [ -76.704936006999958, 3.442066859000022 ], [ -76.628527632999976, 3.487440784000057 ], [ -76.516305102, 3.692791846000034 ], [ -76.447613308999962, 3.753340201000071 ], [ -76.456036473999973, 3.788597492000065 ], [ -76.427944538999952, 3.851011998000047 ], [ -76.436419069999943, 3.926777167000068 ], [ -76.398447313999952, 3.978523964000033 ], [ -76.419190771, 3.990119818000039 ], [ -76.415181400999984, 4.042910566000046 ], [ -76.499451057999977, 4.062706524000021 ], [ -76.447080626999934, 4.164823785000067 ], [ -76.453944560999958, 4.230437752000057 ], [ -76.440179729999954, 4.245660622000059 ], [ -76.395113754999954, 4.245797506000031 ], [ -76.376780352999958, 4.269495549000055 ], [ -76.344435161999968, 4.263853968000035 ], [ -76.325439986999982, 4.303717489000064 ], [ -76.291827658999978, 4.313678613000036 ], [ -76.301558553999939, 4.342759164000029 ], [ -76.244345481999972, 4.429237195000042 ], [ -76.208963031999986, 4.426832360000049 ], [ -76.207885377999958, 4.446091056000057 ], [ -76.157824854999944, 4.474232401000052 ], [ -76.169446088999962, 4.518374506000043 ], [ -76.143460704999939, 4.554973429000029 ], [ -76.159738024999967, 4.601433195000027 ], [ -76.092853193999986, 4.702493679000042 ], [ -76.089281859999971, 4.734785051000074 ], [ -76.116382482999938, 4.741341121000062 ], [ -76.148150916999953, 4.784465716000057 ], [ -76.114587704999963, 4.892044810000073 ], [ -76.131188463999933, 4.912438137000038 ], [ -76.099801961999958, 4.917511911000076 ], [ -76.09017184399994, 4.945697152000037 ], [ -76.096681159999946, 5.034143667000023 ], [ -76.065528399999948, 5.075365674000068 ], [ -76.06088948699994, 5.137192594000055 ], [ -75.988927929999988, 5.15863508800004 ], [ -75.976822671999969, 5.17833999000004 ], [ -75.985901556999977, 5.203242035000073 ], [ -75.963271618999954, 5.236901570000043 ], [ -75.929172969999968, 5.226364007000029 ], [ -75.904472890999955, 5.344751358000053 ], [ -75.86962436999994, 5.376491894000026 ], [ -75.86859207599997, 5.491463620000047 ], [ -75.905667311999935, 5.479992179000021 ], [ -75.930752052999935, 5.508133065000038 ], [ -75.981913523999935, 5.517895493000026 ], [ -76.008644898999989, 5.564349948000029 ], [ -76.00579464499998, 5.623184011000035 ], [ -76.08486990199998, 5.685931743000026 ], [ -76.059772815999963, 5.762894419000077 ], [ -76.081095934999951, 5.767422723000038 ], [ -76.070935797999937, 5.780549922000034 ], [ -76.101693978999947, 5.852951104000056 ], [ -76.082946272999948, 5.885179022000045 ], [ -76.056476029999942, 5.895137082000076 ], [ -76.053680921999955, 5.931791512000075 ], [ -76.069395387999975, 5.984997663000058 ], [ -76.09414843199994, 6.004175513000064 ], [ -76.054915887999982, 6.036300385000061 ], [ -76.058314837999944, 6.051411993000045 ], [ -76.027317025999935, 6.049969976000057 ], [ -75.998493690999965, 6.072490469000059 ], [ -76.049095845999943, 6.255828806000068 ], [ -76.002192858999933, 6.286371043000031 ], [ -75.989151517999971, 6.330596641000056 ], [ -76.010438614999941, 6.367043169000056 ], [ -76.04412807999995, 6.379887837000069 ], [ -76.04404249199996, 6.435541789000069 ], [ -76.08177154699996, 6.456137735000027 ], [ -76.085908361999941, 6.474652220000053 ], [ -76.058128523999983, 6.505527197000049 ], [ -76.036556848999965, 6.506687284000066 ], [ -76.011226285999953, 6.646102214000052 ], [ -75.959485065999957, 6.726366311000049 ], [ -75.984249449999936, 6.764573993000056 ], [ -75.987577428999941, 6.804792530000043 ], [ -75.95625406299996, 6.839408561000027 ], [ -75.96856153799996, 6.902002324000023 ], [ -75.95448141199995, 6.965738195000029 ], [ -75.983044274999941, 7.000943370000073 ], [ -75.963866329999973, 7.086447636000059 ], [ -75.969896890999962, 7.127013308000073 ], [ -75.947083951999957, 7.172349031000067 ], [ -75.99233748499995, 7.208559697000055 ], [ -76.003687775999936, 7.301765487000068 ], [ -76.050989446999949, 7.343822824000029 ], [ -76.057534177999969, 7.374996946000067 ], [ -76.033685717999958, 7.452512492000039 ], [ -76.035518882999952, 7.50770774700004 ], [ -76.001698854999972, 7.512639400000069 ], [ -75.957562464999967, 7.556409383000073 ], [ -75.948635190999937, 7.611563930000045 ], [ -75.974381189999974, 7.674262031000069 ], [ -75.949758655999972, 7.716454120000037 ], [ -75.968588207999971, 7.839573309000059 ], [ -76.000652331999959, 7.875451789000067 ], [ -76.013582648999943, 7.92291417000007 ], [ -75.982135258999961, 7.94236703200005 ], [ -75.981167019999987, 7.992344953000043 ], [ -75.964544122999939, 7.989731213000027 ], [ -75.959729254999957, 8.038113157000055 ], [ -75.923474651999982, 8.031522627000072 ], [ -75.887743880999949, 8.075260872000058 ], [ -75.881028461999961, 8.062318292000043 ], [ -75.853032810999935, 8.065848062000043 ], [ -75.833900830999937, 8.107956831000024 ], [ -75.837413835999939, 8.143212539000046 ], [ -75.811410101999968, 8.164965508000023 ], [ -75.792365325999981, 8.123766862000025 ], [ -75.748555357999976, 8.127356881000026 ], [ -75.750728080999977, 8.072539046000031 ], [ -75.727399008999953, 8.059122440000067 ], [ -75.713968776999934, 8.134983516000034 ], [ -75.67638180199998, 8.188043621000077 ], [ -75.656558792999988, 8.302714608000031 ], [ -75.637250796999979, 8.315256176000048 ], [ -75.676100559999952, 8.392314576000047 ], [ -75.657864727999936, 8.403508252000051 ], [ -75.653401359999975, 8.435541400000034 ], [ -75.682494927999983, 8.566082820000076 ], [ -75.663923485999987, 8.60660404500004 ], [ -75.633819287999984, 8.62645632300007 ], [ -75.636689282999953, 8.645097768000028 ], [ -75.609394632999965, 8.669959433000031 ], [ -75.615044893999936, 8.685361521000061 ], [ -75.593802964999952, 8.714682217000075 ], [ -75.521213309999951, 8.706624471000055 ], [ -75.495925950999947, 8.717391959000054 ], [ -75.504524952999986, 8.750542499000062 ], [ -75.491800333999947, 8.770679356000073 ], [ -75.512059265999937, 8.787642637000033 ], [ -75.511153519999937, 8.809977040000035 ], [ -75.462499759999957, 8.854166775000067 ], [ -75.469319934999987, 8.882240070000023 ], [ -75.440848659999972, 8.937770311000065 ], [ -75.456965598999943, 9.025869810000074 ], [ -75.433454696999945, 9.059409595000034 ], [ -75.455152385999952, 9.094574127000044 ], [ -75.416814189999968, 9.169962225000063 ], [ -75.387065309999969, 9.179398415000037 ], [ -75.419930643999976, 9.238061095000035 ], [ -75.41531275899996, 9.322071814000026 ], [ -75.376397129999987, 9.346520518000034 ], [ -75.346251550999966, 9.325553304000039 ], [ -75.326662716999977, 9.352349179000043 ], [ -75.28115560699996, 9.366979078000043 ], [ -75.277760636999972, 9.397589485000026 ], [ -75.220833106999976, 9.449999547000061 ], [ -75.23261297199997, 9.470921587000021 ], [ -75.219933062999985, 9.510487227000056 ], [ -75.252040587999943, 9.574420355000029 ], [ -75.304457696999975, 9.601593222000076 ], [ -75.313302050999937, 9.623265675000027 ], [ -75.300752128999989, 9.664987551000024 ], [ -75.252206348999948, 9.69574429000005 ], [ -75.266057519999947, 9.744306680000022 ], [ -75.295730694999975, 9.773822647000031 ], [ -75.324597108999967, 9.774350379000055 ], [ -75.328925794999975, 9.81962500800006 ], [ -75.338263133999988, 9.801922661000049 ], [ -75.359937785999989, 9.818612167000026 ], [ -75.371091440999976, 9.803413368000065 ], [ -75.47370036999996, 9.825717098000041 ], [ -75.508721356999956, 9.869760211000028 ], [ -75.498511187999952, 9.955804390000026 ], [ -75.510149346999981, 9.969475297000031 ], [ -75.576007125, 9.970534063000059 ], [ -75.580743411999947, 10.125492893000057 ], [ -75.564123698999936, 10.123587262000058 ], [ -75.529486897999959, 10.166443551000043 ], [ -75.544631551999942, 10.159681287000069 ], [ -75.554493186999935, 10.178277513000069 ], [ -75.538151049999954, 10.187716506000072 ], [ -75.536139163999962, 10.172825027000044 ], [ -75.520850117999942, 10.173352247000025 ], [ -75.524643801999957, 10.221121259000029 ], [ -75.546225951999986, 10.216778633000047 ], [ -75.546847415999935, 10.228788991000044 ], [ -75.522814785999969, 10.236469100000022 ], [ -75.543252509999945, 10.244287363000069 ], [ -75.637590884999952, 10.177004724000028 ], [ -75.637214524999933, 10.187980751000055 ], [ -75.638661408999951, 10.175348602000042 ], [ -75.669043408999983, 10.13760518600003 ], [ -75.703252292999935, 10.141587929000025 ], [ -75.653604607999966, 10.163885533000041 ], [ -75.604356191999955, 10.236942176000071 ], [ -75.586097791999975, 10.225679057000036 ], [ -75.621684242999947, 10.251311107000049 ], [ -75.583935018999966, 10.261569931000054 ], [ -75.595520662999945, 10.278347409000048 ], [ -75.585765393999964, 10.29803460100004 ], [ -75.561979172999941, 10.263323846000048 ], [ -75.531890717999943, 10.279576746000032 ], [ -75.544461184999989, 10.281419090000043 ], [ -75.529887149999979, 10.304511785000045 ], [ -75.493048901999941, 10.278395473000046 ], [ -75.461364187999948, 10.280056798000032 ], [ -75.433510122999962, 10.288335243000063 ], [ -75.436694824999961, 10.330634939000049 ], [ -75.411850283999968, 10.337912953000057 ], [ -75.411199980999982, 10.35549265700007 ], [ -75.379535833999967, 10.377977268000052 ], [ -75.357907970999975, 10.350672021000037 ], [ -75.296165645999963, 10.358265561000053 ], [ -75.256131366999966, 10.382808604000047 ], [ -75.233104127999979, 10.471993276000035 ], [ -75.250168990999953, 10.49596596400005 ], [ -75.139597805999983, 10.562363692000076 ], [ -75.119483504999948, 10.600577251000061 ], [ -75.134878568999966, 10.648657201000049 ], [ -75.107056279999938, 10.697299907000058 ], [ -75.106568429999982, 10.731860479000034 ], [ -75.077728253999965, 10.731894746000023 ], [ -75.052594006999982, 10.756369431000053 ], [ -75.014313705999939, 10.754992510000022 ], [ -74.96335430299996, 10.807044836000046 ], [ -74.95446998999995, 10.84034478600006 ], [ -74.974474895999947, 10.840107830000022 ], [ -74.980909299999951, 10.882959977000041 ], [ -74.956176606999975, 10.896485047000056 ], [ -74.953836887999955, 10.934160902000031 ], [ -74.90522305099995, 10.978423558000031 ], [ -74.885548410999945, 11.04441888100007 ], [ -74.844009098999948, 11.061795816000028 ], [ -74.854781823999986, 11.105369838000058 ], [ -74.629353415999958, 11.02018638800007 ], [ -74.467186460999983, 10.978759416000059 ], [ -74.317124140999965, 10.981938796000065 ], [ -74.246679162999953, 11.022843250000051 ], [ -74.048072529999956, 10.991333139000062 ], [ -73.989283586999989, 11.02249895500006 ], [ -73.917489025999942, 11.010601041000029 ], [ -73.907814176999977, 10.994151265000028 ], [ -73.861457390999988, 10.984022473000039 ], [ -73.881789695999942, 10.896012934000055 ], [ -73.855977400999961, 10.865438306000044 ], [ -73.746044622999989, 10.87898866300003 ], [ -73.710313464999956, 10.859513711000034 ], [ -73.707010466999975, 10.839836228000024 ], [ -73.657671198999935, 10.824524556000028 ], [ -73.519341683999983, 10.848188088000029 ], [ -73.436423024999954, 10.875514657000053 ], [ -73.387875280999936, 10.914933933000043 ], [ -73.34011297099994, 10.910873881000043 ], [ -73.281760051999981, 10.940098358000057 ], [ -73.252547479999976, 10.913759772000049 ], [ -73.158975736999935, 10.933918188000064 ], [ -73.140965205999976, 10.919944106000059 ], [ -73.110070356999984, 10.924679096000034 ], [ -73.078696874999935, 10.898605321000048 ], [ -73.074048586999936, 10.861381039000037 ], [ -73.037896308999962, 10.862791590000029 ], [ -73.019471328999941, 10.831972992000033 ], [ -72.978546729999948, 10.829581800000028 ], [ -72.986677446999977, 10.79996974900007 ], [ -72.935254889999953, 10.773238107000054 ], [ -72.935098313999958, 10.737723256000038 ], [ -72.97494919199994, 10.712396911000042 ], [ -72.964358235999953, 10.685931597000035 ], [ -72.841076114999964, 10.635282935000021 ], [ -72.812416428999938, 10.575762076000046 ], [ -72.843002988999956, 10.538949474000049 ], [ -72.845111768999971, 10.486401821000072 ], [ -72.90212816899998, 10.43396675300005 ], [ -72.88651680299995, 10.384069151000062 ], [ -72.908065531999966, 10.344639654000048 ], [ -72.897950075999972, 10.219714870000075 ], [ -72.922291650999966, 10.137913441000023 ], [ -72.911492464999981, 10.11244051500006 ], [ -72.954692769999951, 10.066006524000045 ], [ -72.952906269999971, 10.026789438000037 ], [ -72.999151094999945, 9.922670966000055 ], [ -72.977906875999963, 9.890270764000036 ], [ -72.992964495999956, 9.876366655000027 ], [ -72.947043337999958, 9.837862646000076 ], [ -73.05385499199997, 9.681094776000066 ], [ -73.086261854999975, 9.562282678000031 ], [ -73.147618970999986, 9.54264775200005 ], [ -73.17669254599997, 9.50105086700006 ], [ -73.173956164999936, 9.479671410000037 ], [ -73.204620975999944, 9.467148310000027 ], [ -73.187012407999987, 9.447639352000067 ], [ -73.260448720999989, 9.371605158000023 ], [ -73.263480829999935, 9.331283843000051 ], [ -73.288745826999957, 9.314843469000039 ], [ -73.298300681999933, 9.267448183000056 ], [ -73.33333222899995, 9.212753705000068 ], [ -73.355699915999935, 9.21619643300005 ], [ -73.371956302999934, 9.158189580000055 ], [ -73.404926922999948, 9.161840372000029 ], [ -73.427116529999978, 9.115024517000052 ], [ -73.41220801299994, 9.051727020000044 ], [ -73.438932368999986, 8.989532582000038 ], [ -73.437520380999956, 8.911031004000051 ], [ -73.425660311999934, 8.899339362000035 ], [ -73.44498189899997, 8.847330900000031 ], [ -73.411234642999943, 8.782446576000041 ], [ -73.404215640999951, 8.691614865000076 ], [ -73.416903755999954, 8.667189651000058 ], [ -73.397883996999951, 8.638657371000022 ], [ -73.422054324999976, 8.579347471000062 ], [ -73.401654461999954, 8.508457530000044 ], [ -73.410774358999959, 8.431207198000038 ], [ -73.437904516999936, 8.370960343000036 ], [ -73.412543423999978, 8.310595869000053 ], [ -73.406228348999946, 8.224587100000065 ], [ -73.388700938999989, 8.226420257000029 ], [ -73.36634460199997, 8.145845311000073 ], [ -73.354042506999974, 8.151756092000028 ], [ -73.338140912999961, 8.130437352000058 ], [ -73.298043247999942, 7.984203334000028 ], [ -73.27738179399995, 7.996602949000021 ], [ -73.24870773899994, 7.959420865000027 ], [ -73.226012577999938, 7.846738627000036 ], [ -73.201896784999974, 7.855412339000054 ], [ -73.162007489999951, 7.842601539000043 ], [ -73.15044809699998, 7.797892429000058 ], [ -73.115024622999954, 7.775022313000022 ], [ -73.086367056999961, 7.773288592000029 ], [ -73.068651522999971, 7.799941767000064 ], [ -73.018748568999968, 7.805847666000034 ], [ -72.995079085999976, 7.757757173000073 ], [ -72.998736835999978, 7.715093738000064 ], [ -72.953818342999966, 7.667015258000049 ], [ -72.99244826599994, 7.597475842000051 ], [ -72.984801396999956, 7.549712836000026 ], [ -72.973549725999987, 7.525142935000076 ], [ -72.893885420999936, 7.475243792000072 ], [ -72.900705288999973, 7.434216683000045 ], [ -72.850549538999985, 7.373996688000034 ], [ -72.855565854999952, 7.362050972000077 ], [ -72.838130063999984, 7.359802530000024 ], [ -72.834065231999944, 7.305065150000075 ], [ -72.900152667999976, 7.243434740000055 ], [ -72.903709486999958, 7.201728384000035 ], [ -72.949340074999952, 7.151515729000039 ], [ -72.934330471999942, 7.139423154000042 ], [ -72.959301783999933, 7.112406882000073 ], [ -72.951408442999934, 7.090965700000027 ], [ -72.937006114999974, 7.097237131000043 ], [ -72.882798805999983, 7.079115590000072 ], [ -72.876741204999973, 7.055963832000032 ], [ -72.792302888999984, 7.038328401000058 ], [ -72.745901738999976, 6.988903121000021 ], [ -72.713690607999979, 6.981320842000059 ], [ -72.704065926999988, 6.957255423000049 ], [ -72.680706135999969, 6.956577158000073 ], [ -72.654243276999978, 6.877275569000062 ], [ -72.619034831999954, 6.839571828000032 ], [ -72.628302639999959, 6.813374533000058 ], [ -72.608314367999981, 6.752899540000044 ], [ -72.626734830999965, 6.710142309000048 ], [ -72.584842117999983, 6.706477240000027 ], [ -72.53716776899995, 6.742274613000063 ], [ -72.490458873999955, 6.717038826000021 ], [ -72.483667879999985, 6.655393051000033 ], [ -72.403710890999946, 6.622664235000059 ], [ -72.344913788999975, 6.525729334000061 ], [ -72.304902698999967, 6.514410463000047 ], [ -72.276449189999937, 6.430253764000042 ], [ -72.282344360999957, 6.385137507000024 ], [ -72.316684134999946, 6.356618964000063 ], [ -72.321785474999956, 6.33248297800003 ], [ -72.356473876999985, 6.345548638000025 ], [ -72.395485267999959, 6.274708647000068 ], [ -72.388907852999978, 6.257647985000062 ], [ -72.42230626199995, 6.151577493000048 ], [ -72.507899603999988, 6.053036402000032 ], [ -72.534883341999944, 6.041059637000046 ], [ -72.573722560999954, 5.93935196800004 ], [ -72.601088454999967, 5.915818886000068 ], [ -72.648077644999944, 5.923619650000035 ], [ -72.654201434999948, 5.882806798000047 ], [ -72.695533679999983, 5.859518100000059 ], [ -72.702609091999989, 5.836301223000021 ], [ -72.687027318999981, 5.822112091000065 ], [ -72.716749842999945, 5.797500152000055 ], [ -72.678023715999984, 5.783198072000062 ], [ -72.729184577999945, 5.750456929000052 ], [ -72.707430260999956, 5.727767785000026 ], [ -72.74764597099994, 5.666973625000026 ], [ -72.770971527999961, 5.647005945000046 ], [ -72.791144176999978, 5.659393603000069 ], [ -72.817396782999936, 5.64330516800004 ], [ -72.843096634999938, 5.652560395000023 ], [ -72.894951886999934, 5.619355876000043 ], [ -72.922600576999969, 5.61984178900002 ], [ -72.931407049999962, 5.585269172000039 ], [ -72.999285121999947, 5.520593723000047 ], [ -72.98494681699998, 5.489062727000032 ], [ -72.994432254999936, 5.431380716000035 ], [ -73.016837123999949, 5.436731153000039 ], [ -73.033473461999961, 5.46525134500007 ], [ -73.123429339999973, 5.461812663000046 ], [ -73.148036414999979, 5.480798153000023 ], [ -73.219523891999984, 5.446963751000055 ], [ -73.264482735999934, 5.461683662000041 ], [ -73.285185725999952, 5.51230995100002 ], [ -73.316824291999978, 5.475919464000071 ], [ -73.359992054999964, 5.474006646000021 ], [ -73.369645077999962, 5.487654897000027 ], [ -73.392131854999946, 5.474941422000029 ], [ -73.391732500999979, 5.511006791000057 ], [ -73.411343210999974, 5.508696433000068 ], [ -73.422601981999946, 5.536046509000073 ], [ -73.46176707099994, 5.497699152000052 ], [ -73.465970105999986, 5.473360178000064 ], [ -73.588144941999985, 5.406362370000068 ], [ -73.58087276599997, 5.395350897000071 ], [ -73.600232239999968, 5.376989819000073 ], [ -73.594825697999966, 5.296581368000034 ], [ -73.516479501999981, 5.22856833700007 ], [ -73.578373080999938, 5.152312425000048 ], [ -73.668743595999956, 5.103227754000045 ], [ -73.684201816999973, 4.990906063000068 ], [ -73.718222486999935, 4.946602849000044 ], [ -73.752044421999983, 4.93364047700004 ], [ -73.762143703999982, 4.890279410000062 ], [ -73.822818977999987, 4.819244400000059 ], [ -73.830426927999952, 4.761262397000053 ], [ -73.883203783999988, 4.734307826000077 ], [ -73.890426029999958, 4.704341996000039 ], [ -73.923872124999946, 4.705546501000072 ], [ -73.987942504999978, 4.632013503000053 ], [ -74.002911799999936, 4.570882802000028 ], [ -74.027267824999967, 4.562276141000041 ], [ -74.040264792999949, 4.512928222000028 ], [ -74.11166626499994, 4.437200400000052 ], [ -74.113153888999989, 4.388748702000044 ], [ -74.094738942999982, 4.364523513000051 ], [ -74.114461281999979, 4.313618584000039 ], [ -74.173031736999974, 4.280534705000036 ], [ -74.204315286999986, 4.289442874000031 ], [ -74.198973610999985, 4.245764084000029 ], [ -74.244662002999974, 4.193714838000062 ], [ -74.254871245999936, 4.05265085700006 ], [ -74.218776959999957, 4.005367269000033 ], [ -74.260507030999975, 3.948580501000038 ], [ -74.256715184999962, 3.930707931000029 ], [ -74.294797389999985, 3.885764198000061 ], [ -74.316879075999964, 3.880518230000064 ], [ -74.295357241999966, 3.819323954000026 ], [ -74.333803732999968, 3.820988190000037 ], [ -74.393907734999971, 3.770530516000065 ], [ -74.387708425999961, 3.752396261000058 ], [ -74.416666590999967, 3.741666832000021 ], [ -74.423994408999988, 3.70923312900004 ], [ -74.506987176999985, 3.639714051000055 ], [ -74.510540834999972, 3.600568564000071 ], [ -74.565317085999936, 3.523719173000075 ], [ -74.588867242999981, 3.533584647000055 ], [ -74.630732104999936, 3.471516299000029 ], [ -74.605771150999942, 3.41425113400004 ], [ -74.640021191999949, 3.36827048400005 ], [ -74.617907161999938, 3.33095806700004 ], [ -74.617218193999975, 3.289613809000059 ], [ -74.664703312999961, 3.235800956000048 ], [ -74.672381084999984, 3.185244835000049 ], [ -74.713033533999976, 3.170693155000038 ], [ -74.788437608999971, 3.059427784000036 ], [ -74.816754466999953, 3.052326614000037 ], [ -74.871672484999976, 2.971515824000051 ], [ -74.904448262999949, 2.959911039000076 ], [ -74.910908827999947, 2.93220195300006 ], [ -74.988706973999967, 2.85871043800006 ], [ -75.06978565299994, 2.744528802000048 ], [ -75.148845284999936, 2.719292806000055 ], [ -75.158569756999952, 2.703973837000035 ], [ -75.133116733999941, 2.691594829000053 ], [ -75.154714056999978, 2.643346274000066 ], [ -75.13434084499994, 2.59659442800006 ], [ -75.180966981999973, 2.53251100600005 ], [ -75.18076743499995, 2.507391772000062 ], [ -75.227094527999952, 2.511837229000037 ], [ -75.250200510999946, 2.445337013000028 ], [ -75.310121288999937, 2.361794623000037 ], [ -75.328498030999981, 2.367160567000042 ], [ -75.346537037999951, 2.324874730000033 ], [ -75.386351840999964, 2.315531723000049 ], [ -75.410545406999972, 2.24579230300003 ], [ -75.439059872999962, 2.223040906000051 ], [ -75.425951307999981, 2.189659081000059 ], [ -75.443313921999959, 2.14542366400002 ], [ -75.534756436999942, 2.118069943000023 ], [ -75.587766291999969, 2.010770127000058 ], [ -75.615629360999947, 1.997887384000023 ], [ -75.640911637999977, 1.958815731000072 ], [ -75.650784061999957, 1.901461054000038 ], [ -75.689482649999945, 1.880167669000059 ], [ -75.730852164999988, 1.824699014000032 ], [ -75.735153253999954, 1.783915084000057 ], [ -75.824985327999968, 1.749567670000033 ], [ -75.843915440999979, 1.723002504000021 ], [ -75.908520473999943, 1.714370154000051 ], [ -75.954577812999958, 1.663565589000029 ], [ -75.980264424999973, 1.657830227000034 ], [ -75.981098094999936, 1.624499292000053 ], [ -76.035655860999952, 1.582657237000035 ], [ -76.074191148999944, 1.58514197300002 ], [ -76.119222086999969, 1.552829661000033 ], [ -76.169142576999946, 1.588614813000049 ] ] ] } }
]
}
