{"type": "Feature", "properties": {"name": "Magdalena River Basin", "area_km2": 260739, "source": "HydroSHEDS HydroBASINS lev4"}, "geometry": {"type": "Polygon", "coordinates": [[[-75.14999999999998, 2.7041666666666884], [-75.13276604546438, 2.694618394639779], [-75.15369805230031, 2.6395833333333547], [-75.13395250108503, 2.5926571316189446], [-75.17943132188583, 2.5303039550781454], [-75.17499999999997, 2.5083333333333537], [-75.22499999999997, 2.5083333333333537], [-75.2458319769965, 2.435400729709221], [-75.27831573486326, 2.419982571072068], [-75.30416666666665, 2.362500000000019], [-75.33262481689451, 2.365779283311651], [-75.34668426513669, 2.3258507622613034], [-75.39548000759547, 2.3065911187066157], [-75.41316121419268, 2.2425662570529696], [-75.44109937879772, 2.2188771565755387], [-75.4208333333333, 2.1916666666667], [-75.44166666666663, 2.145833333333351], [-75.5333333333333, 2.1166666666666836], [-75.58785807291665, 2.0100431654188693], [-75.63679148356117, 1.961612616644997], [-75.6583333333333, 1.8916666666666981], [-75.68749999999997, 1.8833333333333644], [-75.72499999999998, 1.8333333333333641], [-75.73841332329641, 1.779774136013485], [-75.83749999999998, 1.7458333333333633], [-75.87083333333331, 1.7125000000000297], [-75.90416666666664, 1.7208333333333634], [-75.95096774631074, 1.6670625474718177], [-75.98242136637367, 1.6575668334961233], [-75.9833333333333, 1.6250000000000293], [-76.11424221462671, 1.5586866590712094], [-76.16007554796003, 1.5871466742621818], [-76.1958333333333, 1.5750000000000286], [-76.22168409559458, 1.6574824015299772], [-76.24791564941403, 1.6791531032986406], [-76.26874999999997, 1.6708479139540224], [-76.30171305338538, 1.6920199924045436], [-76.33124999999997, 1.6625145806206891], [-76.37499999999997, 1.6666666666666963], [-76.37499999999997, 1.7500000000000302], [-76.42083333333329, 1.7333333333333631], [-76.4160491943359, 1.763306342230933], [-76.46249999999996, 1.8166666666666975], [-76.52916666666664, 1.8250000000000308], [-76.59166666666664, 1.8666666666666978], [-76.57962849934893, 1.8979254828559342], [-76.62499999999997, 1.9708333333333652], [-76.57130194769962, 2.0187500000000322], [-76.59166666666664, 2.09583333333335], [-76.55482788085934, 2.1342329237196513], [-76.5749854193793, 2.1979166666666843], [-76.56249999999997, 2.266666666666685], [-76.5826249864366, 2.2717207166883866], [-76.63372938368052, 2.3698655870225886], [-76.71760389539928, 2.3785993787977624], [-76.78372938368052, 2.432365587022589], [-76.87721048990882, 2.45473395453561], [-76.95416666666664, 2.516666666666687], [-76.8458333333333, 2.766666666666689], [-76.87670966254338, 2.8079752604166894], [-76.91249999999997, 2.820833333333356], [-76.90416666666664, 2.8708333333333567], [-76.88368665907115, 2.8892422146267593], [-76.86666666666663, 2.9666666666666908], [-76.80473395453556, 3.0436228434245036], [-76.81609937879772, 3.1147104899088793], [-76.77473246256507, 3.18655141194664], [-76.79166666666663, 3.195833333333359], [-76.77839525010847, 3.2533952501085333], [-76.74999999999997, 3.2750000000000266], [-76.73749999999997, 3.3291666666666933], [-76.69201999240448, 3.36840888129343], [-76.70356275770396, 3.440663655598986], [-76.63372938368052, 3.4801344129774585], [-76.51595831976994, 3.694945949978328], [-76.44999999999996, 3.75000000000003], [-76.45473395453556, 3.792654758029544], [-76.42963528103296, 3.8520833333333644], [-76.43749999999997, 3.9250000000000314], [-76.40798000759546, 4.035046217176681], [-76.4267422146267, 4.057980007595519], [-76.46324666341143, 4.049432712131109], [-76.51998257107202, 4.074149237738731], [-76.47916666666663, 4.087500000000016], [-76.45035332573781, 4.147575547960086], [-76.45331590440534, 4.232482571072065], [-76.39338005913625, 4.246188015408004], [-76.37291768391924, 4.270819769965295], [-76.33749999999996, 4.262500000000017], [-76.32411261664492, 4.303458319769983], [-76.29526604546437, 4.315816582573802], [-76.29943271213104, 4.343877156575539], [-76.24929165310326, 4.42827928331165], [-76.21249999999996, 4.429166666666685], [-76.21190151638451, 4.449084472656269], [-76.15918409559458, 4.475850762261304], [-76.16193271213103, 4.602210489908874], [-76.12556728786889, 4.6436228434245], [-76.09222276475693, 4.7312574598524515], [-76.11983371310762, 4.736882527669292], [-76.1458333333333, 4.7833333333333545], [-76.12140062120224, 4.907586669921898], [-76.08751390245222, 4.947915988498287], [-76.09548000759546, 5.0357577853732876], [-76.07499999999996, 5.050000000000024], [-76.06249999999996, 5.133333333333358], [-75.98847910563148, 5.15896606445315], [-75.9785222371419, 5.203262837727889], [-75.92535332573783, 5.230908881293428], [-75.89926486545137, 5.353364054362006], [-75.86728430853947, 5.389506530761745], [-75.86666666666665, 5.491666666666694], [-75.9049133300781, 5.482766045464437], [-75.97742445203991, 5.517019992404541], [-76.00416666666663, 5.562500000000028], [-76.0045199924045, 5.619091118706626], [-76.08248240152993, 5.684184265136747], [-76.06249999999997, 5.7625000000000295], [-76.08297526041665, 5.7683764987521995], [-76.08280385335284, 5.813628980848554], [-76.10369788275823, 5.8354166666666965], [-76.08687642415363, 5.924090745714006], [-76.06249999999997, 5.929166666666697], [-76.05771569146049, 5.953167046441003], [-76.09547559950084, 6.010788472493521], [-76.06168874104816, 6.053490363227028], [-76.00416666666665, 6.070833333333349], [-76.0502502441406, 6.265791151258698], [-75.99999999999997, 6.287500000000017], [-75.99166666666665, 6.345833333333351], [-76.0445836385091, 6.379344007704011], [-76.04223395453558, 6.4313771565755395], [-76.08714667426213, 6.473257785373283], [-76.05833333333331, 6.508333333333352], [-76.03390062120224, 6.510289510091165], [-76.00833333333331, 6.6458333333333535], [-75.95833333333331, 6.725000000000021], [-75.9880672878689, 6.80342000325523], [-75.95416666666665, 6.837500000000022], [-75.96666666666663, 6.8666666666666885], [-75.95416666666665, 6.96666666666669], [-75.98333333333329, 7.000000000000023], [-75.96249999999998, 7.0875000000000234], [-75.97083333333332, 7.129166666666691], [-75.94653116861977, 7.178387790256101], [-75.99102393256291, 7.21036495632598], [-76.00480940077038, 7.306301710340738], [-76.0491490681966, 7.342517598470078], [-76.05890062120224, 7.379913330078152], [-76.02916666666664, 7.500000000000027], [-75.95476904975041, 7.5592480129666075], [-75.94583333333331, 7.620833333333362], [-75.97433149549694, 7.671782599555151], [-75.9538133409288, 7.730879550510012], [-75.96666666666664, 7.841666666666697], [-76.00352393256291, 7.889531622992652], [-76.00897606743705, 7.923551940917999], [-75.9840387980143, 7.934111362033451], [-75.98269059922958, 7.961051940918], [-75.99999999999997, 7.975000000000015], [-75.9587943183051, 7.997906663682757], [-75.9576956854926, 8.036594306098122], [-75.92695617675778, 8.029733954535622], [-75.88664906819659, 8.065815734863314], [-75.85080956353079, 8.067354668511317], [-75.83297559950084, 8.144121636284739], [-75.80659111870658, 8.16214667426217], [-75.7866036309136, 8.12150709364151], [-75.74654184977211, 8.124112616644982], [-75.7505672878689, 8.075746663411474], [-75.72566155327688, 8.063313462999147], [-75.70798000759547, 8.152424452039947], [-75.66666666666664, 8.191666666666684], [-75.6755672878689, 8.240451727973108], [-75.66193271213105, 8.298043823242205], [-75.63693271213106, 8.319618394639775], [-75.66609937879772, 8.372789510091163], [-75.65798000759546, 8.514215766059047], [-75.68298000759546, 8.55242445203995], [-75.6371412489149, 8.63995598687068], [-75.60001525878904, 8.667916531033008], [-75.61258833143444, 8.686218939887173], [-75.58992445203991, 8.71631334092884], [-75.55587955050996, 8.695480007595506], [-75.49166666666665, 8.70000000000002], [-75.50776604546438, 8.81054382324221], [-75.46702423095701, 8.843379380967903], [-75.46723395453556, 8.884270562065995], [-75.44223395453557, 8.914456176757835], [-75.45416666666664, 9.01666666666669], [-75.4337951660156, 9.064574517144122], [-75.45381334092879, 9.094091118706622], [-75.43297899034286, 9.14411756727433], [-75.38714667426213, 9.180879550510006], [-75.41214667426213, 9.230908881293427], [-75.40744594997827, 9.324291483561224], [-75.37593722873261, 9.342233954535615], [-75.35209214952255, 9.32129516601565], [-75.28432718912758, 9.363131883409315], [-75.2208333333333, 9.450000000000028], [-75.23390062120222, 9.475988091362874], [-75.22130211724172, 9.510416666666694], [-75.24943271213105, 9.57585008409291], [-75.30833333333331, 9.604166666666694], [-75.30798000759546, 9.631591118706625], [-75.25416666666663, 9.691666666666695], [-75.26666666666664, 9.741666666666696], [-75.19201999240448, 9.8475755479601], [-75.18749999999997, 9.895833333333364], [-75.16737518310543, 9.892554050021731], [-75.14643724229597, 9.921836344401072], [-75.14526604546438, 9.98554382324222], [-75.08751356336802, 10.064584011501752], [-75.09953138563365, 10.122916666666683], [-75.05833333333331, 10.179166666666683], [-75.10065544976126, 10.27566731770835], [-75.0631435818142, 10.325903998480921], [-75.07973395453556, 10.38407999674481], [-75.05711839463973, 10.413067287868943], [-75.0083333333333, 10.420833333333352], [-75.02916666666664, 10.47500000000002], [-74.96737501356334, 10.521720716688387], [-74.9583333333333, 10.57500000000002], [-74.90451999240449, 10.67257554796009], [-74.9130672878689, 10.731377156575542], [-74.98276604546437, 10.789710489908876], [-74.95416666666664, 10.837500000000022], [-74.90085076226126, 10.825850762261307], [-74.82585076226125, 10.89668409559464], [-74.80418124728729, 10.943750000000023], [-74.84108445909285, 11.026021321614607], [-74.8325507269965, 11.092120022243947], [-74.80426839192705, 11.07787984212242], [-74.80751783582896, 11.054592556423636], [-74.7145833333333, 10.992316351996552], [-74.644344414605, 11.017322116427975], [-74.61240878634979, 11.00701836480037], [-74.60759446885848, 10.979880438910612], [-74.57145996093746, 10.9729187011719], [-74.64899190266924, 10.9618598090278], [-74.6702718098958, 10.931250000000023], [-74.62499999999997, 10.866666666666688], [-74.66666666666663, 10.804166666666688], [-74.6577212863498, 10.730184258355056], [-74.63749999999996, 10.716666666666688], [-74.67438083224823, 10.669842868381096], [-74.67915208604597, 10.610416666666687], [-74.64999999999996, 10.56250000000002], [-74.65319892035588, 10.471229383680575], [-74.62278951009111, 10.466099378797761], [-74.54081590440535, 10.396684095594637], [-74.5142422146267, 10.3961866590712], [-74.4892422146267, 10.42464667426217], [-74.4583333333333, 10.408333333333353], [-74.4324276394314, 10.354804484049497], [-74.3799133300781, 10.332766045464428], [-74.35474955240882, 10.340747070312517], [-74.32157999674476, 10.299432712131093], [-74.26324666341142, 10.304733954535608], [-74.23333333333329, 10.283333333333351], [-74.17951999240448, 10.314242214626754], [-74.14338277180985, 10.375353325737866], [-74.03119845920135, 10.358976236979185], [-73.96042921278207, 10.42454121907554], [-73.91746927897132, 10.434068467881964], [-73.91173180474173, 10.45736151801217], [-73.84825778537324, 10.487146674262172], [-73.79999999999998, 10.483333333333352], [-73.76592000325519, 10.521400621202277], [-73.62278951009112, 10.541099378797762], [-73.54166666666664, 10.512500000000019], [-73.5505672878689, 10.57574666341148], [-73.52026604546438, 10.605154758029535], [-73.55089959038627, 10.632672119140645], [-73.61249999999997, 10.645833333333353], [-73.61191101074216, 10.67408175998266], [-73.54665696885849, 10.757598537868946], [-73.64166666666664, 10.787500000000021], [-73.64583333333331, 10.825000000000022], [-73.43528951009112, 10.875567287868947], [-73.38554382324216, 10.916099378797766], [-73.34374999999997, 10.912514580620682], [-73.28087955050995, 10.942019992404536], [-73.25416666666663, 10.91666666666669], [-73.20209469265406, 10.912959798177106], [-73.16741333007809, 10.93390062120228], [-73.11028951009112, 10.924432712131098], [-73.08009101019962, 10.903515625000022], [-73.07499999999997, 10.870833333333355], [-73.03749999999997, 10.85416666666669], [-73.00416666666663, 10.754166666666688], [-72.96327141655813, 10.740895250108528], [-72.86588880750865, 10.638206990559915], [-72.83834533691403, 10.636796400282138], [-72.81249999999997, 10.579166666666687], [-72.84166666666664, 10.541666666666686], [-72.84223395453556, 10.493622843424498], [-72.89166666666664, 10.454166666666685], [-72.91249999999997, 10.112500000000017], [-72.95776604546438, 10.056377156575536], [-72.94999999999997, 10.025000000000016], [-72.99548000759546, 9.931591118706628], [-72.97971428765187, 9.889583333333363], [-72.9918779161241, 9.876251729329457], [-72.94649454752602, 9.838399590386315], [-73.05381334092878, 9.681591118706626], [-73.08433532714841, 9.553903706868518], [-73.14492594401038, 9.544925774468343], [-73.1708333333333, 9.479166666666693], [-73.19999999999997, 9.47083333333336], [-73.18749999999997, 9.445833333333361], [-73.20090925428599, 9.421456909179714], [-73.2208333333333, 9.42083333333336], [-73.26214548746742, 9.369120110405841], [-73.25833333333331, 9.34583333333336], [-73.28679572211368, 9.319913906521293], [-73.3216842651367, 9.230017598470077], [-73.35295172797306, 9.217233954535615], [-73.37592959933808, 9.154858737521726], [-73.41214582655162, 9.152451578776066], [-73.4295199924045, 9.110046386718775], [-73.41249999999998, 9.05416666666669], [-73.43714226616751, 8.998288302951412], [-73.42499999999997, 8.900000000000023], [-73.44548000759546, 8.860075547960092], [-73.39943271213104, 8.696579996744813], [-73.4208333333333, 8.579166666666687], [-73.39999999999998, 8.508333333333352], [-73.41723395453556, 8.465920003255228], [-73.4083333333333, 8.425000000000018], [-73.43333333333331, 8.370833333333351], [-73.41193271213105, 8.313246663411476], [-73.41666666666664, 8.262500000000017], [-73.36666666666665, 8.150000000000016], [-73.31751759847002, 8.115815904405398], [-73.30798000759546, 8.018408881293434], [-73.24618665907116, 7.956591118706628], [-73.22499999999997, 7.85000000000003], [-73.16249999999997, 7.841666666666697], [-73.14929165310328, 7.8008873833550645], [-73.11249999999997, 7.779166666666696], [-73.01838107638886, 7.80797848171661], [-72.99583333333331, 7.7625000000000295], [-72.99938761393226, 7.713511488172772], [-72.95416666666664, 7.666666666666695], [-72.99201999240448, 7.597548929850289], [-72.98298000759546, 7.551742214626763], [-72.97414923773869, 7.525850931803413], [-72.89140218098956, 7.471970452202719], [-72.89943271213104, 7.435289510091172], [-72.8458333333333, 7.379166666666693], [-72.8333333333333, 7.304166666666692], [-72.89081590440536, 7.253315734863307], [-72.90115865071611, 7.200113932291691], [-72.9381174723307, 7.1615003797743295], [-72.9458333333333, 7.091666666666691], [-72.88004014756942, 7.082743326822941], [-72.87419060601125, 7.059021335177976], [-72.78789605034719, 7.036532253689259], [-72.70742763943139, 6.9589711507161685], [-72.67916666666663, 6.95416666666669], [-72.65346374511715, 6.880095757378495], [-72.61666666666663, 6.841666666666688], [-72.61998257107201, 6.717517428927972], [-72.58528951009112, 6.708900621202278], [-72.53447062174476, 6.741931152343771], [-72.48816121419267, 6.711600409613736], [-72.4833333333333, 6.6583333333333545], [-72.38749999999996, 6.608333333333354], [-72.34520975748694, 6.525909084743943], [-72.30473395453555, 6.510543823242207], [-72.27951999240447, 6.43992445203995], [-72.2833333333333, 6.3833333333333515], [-72.32074211968312, 6.334648301866338], [-72.3532575819227, 6.345209757486997], [-72.37434421115448, 6.3198733859592195], [-72.42083333333329, 6.154166666666683], [-72.50498182508677, 6.05481635199656], [-72.5333333333333, 6.054166666666682], [-72.57499999999996, 5.9416666666666975], [-72.59999999999997, 5.916666666666697], [-72.64999999999996, 5.912500000000015], [-72.65452067057288, 5.885049099392392], [-72.68749999999997, 5.866666666666697], [-72.68835076226125, 5.821684265136748], [-72.71666666666664, 5.800000000000029], [-72.68840569390187, 5.791029018825984], [-72.69223395453555, 5.772789510091176], [-72.72842983669702, 5.75327419704864], [-72.71295878092445, 5.72707061767581], [-72.75872938368052, 5.659301079644125], [-72.92408921983504, 5.620216200086833], [-72.92916666666663, 5.587500000000028], [-72.99537150065102, 5.514592149522597], [-72.98380194769962, 5.47708333333336], [-72.99704827202687, 5.42859937879777], [-73.03454827202688, 5.467233954535617], [-73.12499999999997, 5.462500000000027], [-73.1458333333333, 5.483333333333361], [-73.22325778537324, 5.450353325737874], [-73.27464243570961, 5.485046386718777], [-73.2833333333333, 5.512500000000028], [-73.31249999999997, 5.483333333333361], [-73.39095255533852, 5.479901292589003], [-73.39237959120005, 5.511740451388916], [-73.4208333333333, 5.529166666666694], [-73.46313764784068, 5.475905693901937], [-73.58236558702255, 5.407937452528238], [-73.59999999999998, 5.3833333333333595], [-73.5958333333333, 5.295833333333359], [-73.51666666666664, 5.229166666666692], [-73.61335093180335, 5.130017428927976], [-73.66552954779729, 5.121097819010441], [-73.69236958821612, 4.971762424045162], [-73.74999999999997, 4.937500000000023], [-73.76249999999997, 4.887500000000022], [-73.80776604546439, 4.843877156575543], [-73.82499999999997, 4.754166666666688], [-73.85242445203991, 4.757980007595508], [-73.88693271213106, 4.731377156575542], [-73.88812357584634, 4.709242418077277], [-73.93664906819659, 4.694982571072069], [-73.98684522840709, 4.632360500759569], [-74.00833333333331, 4.5625000000000195], [-74.02499999999998, 4.5625000000000195], [-74.07556728786889, 4.468622843424498], [-74.10331590440535, 4.4533159044054], [-74.11249999999997, 4.312500000000018], [-74.16840888129336, 4.283686659071198], [-74.20767211914058, 4.286600409613733], [-74.20484653049041, 4.242716471354184], [-74.2458333333333, 4.195833333333351], [-74.25415344238277, 4.059829033745692], [-74.21666666666663, 4.012500000000032], [-74.30797899034285, 3.877453104654979], [-74.29583333333329, 3.820833333333364], [-74.32598809136282, 3.8255672878689544], [-74.39165344238278, 3.769337632921037], [-74.43881496853295, 3.6957421196831897], [-74.50752088758676, 3.6406309339735534], [-74.51223178439666, 3.6008004082574074], [-74.54166666666663, 3.595833333333362], [-74.52499999999996, 3.5750000000000286], [-74.56249999999997, 3.5250000000000283], [-74.58749999999996, 3.5333333333333616], [-74.62916666666663, 3.4833333333333614], [-74.60776604546437, 3.413437228732666], [-74.64166666666664, 3.366666666666694], [-74.61701999240448, 3.322575547960096], [-74.67149454752601, 3.1883995903863105], [-74.71581590440535, 3.1699824015299733], [-74.84660169813365, 3.0009718153212046], [-74.89999999999996, 2.9666666666666908], [-74.91751742892792, 2.9216840955946415], [-74.99130859374996, 2.8566236707899537], [-75.06701999240448, 2.7475755479600914], [-75.13749999999997, 2.7291666666666887], [-75.14999999999998, 2.7041666666666884]]]}}