{
"type": "FeatureCollection",
"name": "colombia_hydro_regions_hydrobasins",
"crs": { "type": "name", "properties": { "name": "urn:ogc:def:crs:OGC:1.3:CRS84" } },
"features": [
{ "type": "Feature", "properties": { "name": "ANTIOQUIA", "source": "HydroBASINS lev12 trace", "outlets": "Ituango (Cauca); Playas (Nare); Porce III" }, "geometry": { "type": "Polygon", "coordinates": [ [ [ -76.3333333333333, 2.683333333333355 ], [ -76.374294365776876, 2.674192979600716 ], [ -76.387855021158813, 2.626713053385438 ], [ -76.393749660915759, 2.620847574869813 ], [ -76.406591118706558, 2.624646674262174 ], [ -76.427453613281216, 2.607980007595507 ], [ -76.460075547960031, 2.624646674262174 ], [ -76.479166666666629, 2.620833333333354 ], [ -76.510493638780346, 2.629784138997417 ], [ -76.545039198133651, 2.650794135199674 ], [ -76.546450805664023, 2.660493638780403 ], [ -76.579166666666637, 2.7 ], [ -76.596097819010382, 2.705303955078147 ], [ -76.591099378797708, 2.713488091362869 ], [ -76.608729383680526, 2.736532253689258 ], [ -76.632171291775137, 2.754572550455751 ], [ -76.628599378797716, 2.771770562065995 ], [ -76.636932712131042, 2.781122843424502 ], [ -76.654733954535558, 2.860543823242211 ], [ -76.667233954535561, 2.885543823242211 ], [ -76.691099378797716, 2.910289510091169 ], [ -76.692233954535553, 2.938488091362871 ], [ -76.679626464843722, 2.95207180447051 ], [ -76.684184095594588, 2.965815904405406 ], [ -76.719915093315933, 2.966077677408878 ], [ -76.749346245659694, 2.936517333984399 ], [ -76.75, 2.92916666666669 ], [ -76.775, 2.925 ], [ -76.779519992404488, 2.944091118706621 ], [ -76.805878363715252, 2.974642266167559 ], [ -76.8333333333333, 2.991666666666691 ], [ -76.832978990342852, 3.002453274197073 ], [ -76.825, 3.008333333333358 ], [ -76.82439236111108, 3.024086507161483 ], [ -76.804733954535564, 3.043622843424504 ], [ -76.809018961588507, 3.103386433919296 ], [ -76.816666666666634, 3.104166666666692 ], [ -76.816099378797716, 3.114710489908879 ], [ -76.799354383680523, 3.136596340603324 ], [ -76.79140218098955, 3.138637288411484 ], [ -76.796400621202224, 3.146770562065997 ], [ -76.774732462565069, 3.18655141194664 ], [ -76.791666666666629, 3.195833333333359 ], [ -76.778395250108474, 3.253395250108533 ], [ -76.762789238823757, 3.254987250434054 ], [ -76.75, 3.275 ], [ -76.7375, 3.329166666666693 ], [ -76.713350762261257, 3.342517598470079 ], [ -76.692019992404482, 3.36840888129343 ], [ -76.686970350477395, 3.396774122450114 ], [ -76.692196316189211, 3.405107455783448 ], [ -76.687017822265588, 3.411500718858534 ], [ -76.704166666666637, 3.425 ], [ -76.703562757703963, 3.440663655598986 ], [ -76.692375013563336, 3.446720716688396 ], [ -76.685543823242156, 3.461932712131104 ], [ -76.651956176757778, 3.467233954535618 ], [ -76.633729383680517, 3.480134412977459 ], [ -76.621400621202227, 3.501956176757841 ], [ -76.615964084201352, 3.528233506944473 ], [ -76.59166666666664, 3.545833333333362 ], [ -76.59166666666664, 3.554166666666695 ], [ -76.571186659071145, 3.580908881293432 ], [ -76.557766045464376, 3.63137715657555 ], [ -76.538399590386248, 3.638161214192738 ], [ -76.525567287868896, 3.660289510091175 ], [ -76.515958319769936, 3.694945949978328 ], [ -76.491666666666632, 3.7125 ], [ -76.491043090820284, 3.724090745714006 ], [ -76.45, 3.75 ], [ -76.454733954535556, 3.792654758029544 ], [ -76.442233954535553, 3.80612284342451 ], [ -76.429635281032958, 3.852083333333364 ], [ -76.442019992404482, 3.873287116156715 ], [ -76.429166666666632, 3.891666666666698 ], [ -76.4375, 3.925 ], [ -76.428505452473928, 3.95743374294708 ], [ -76.417233954535561, 3.968622843424511 ], [ -76.4125, 3.9875 ], [ -76.42118665907114, 4.001712883843348 ], [ -76.407980007595455, 4.035046217176681 ], [ -76.412853325737814, 4.048257785373297 ], [ -76.426742214626699, 4.057980007595519 ], [ -76.434246148003439, 4.050609673394129 ], [ -76.463246663411425, 4.049432712131109 ], [ -76.501956176757773, 4.066099378797776 ], [ -76.5208333333333, 4.066666666666699 ], [ -76.519982571072021, 4.074149237738731 ], [ -76.508333333333297, 4.0875 ], [ -76.495833333333294, 4.08333333333335 ], [ -76.479166666666629, 4.0875 ], [ -76.470480007595455, 4.114924452039947 ], [ -76.450353325737808, 4.147575547960086 ], [ -76.446186659071145, 4.202424452039947 ], [ -76.453315904405343, 4.232482571072065 ], [ -76.426713053385384, 4.250353325737864 ], [ -76.393380059136248, 4.246188015408004 ], [ -76.372917683919241, 4.270819769965295 ], [ -76.355882432725664, 4.257980007595504 ], [ -76.3375, 4.2625 ], [ -76.324112616644925, 4.303458319769983 ], [ -76.300919596354134, 4.309037611219636 ], [ -76.295266045464373, 4.315816582573802 ], [ -76.299432712131036, 4.343877156575539 ], [ -76.283971150716113, 4.359239027235262 ], [ -76.27824707031246, 4.38691711425783 ], [ -76.258900621202216, 4.401956176757831 ], [ -76.249291653103256, 4.42827928331165 ], [ -76.2125, 4.429166666666685 ], [ -76.211901516384515, 4.449084472656269 ], [ -76.159184095594583, 4.475850762261304 ], [ -76.158686659071151, 4.48992445203995 ], [ -76.170818752712634, 4.51875 ], [ -76.166312323676181, 4.539953274197068 ], [ -76.15, 4.55 ], [ -76.150598483615411, 4.569917805989603 ], [ -76.162146674262118, 4.580908881293423 ], [ -76.161932712131033, 4.602210489908874 ], [ -76.12556728786889, 4.6436228434245 ], [ -76.111791483561177, 4.686612616644986 ], [ -76.096400621202235, 4.701956176757833 ], [ -76.092222764756926, 4.731257459852451 ], [ -76.10140007866751, 4.741604275173632 ], [ -76.119833713107624, 4.736882527669292 ], [ -76.121450975206145, 4.747993638780404 ], [ -76.136731804741729, 4.759305148654535 ], [ -76.1458333333333, 4.783333333333355 ], [ -76.13280385335284, 4.796773952908008 ], [ -76.137104119194859, 4.802083333333355 ], [ -76.129166666666649, 4.816666666666689 ], [ -76.136932712131056, 4.848043823242209 ], [ -76.128599378797716, 4.857396104600717 ], [ -76.132864549424895, 4.864583333333355 ], [ -76.128315734863264, 4.874149237738738 ], [ -76.116099378797728, 4.886753336588564 ], [ -76.121400621202241, 4.907586669921898 ], [ -76.096187676323751, 4.922546725802974 ], [ -76.095480007595455, 4.939924452039953 ], [ -76.087513902452216, 4.947915988498287 ], [ -76.092019992404474, 4.98159111870662 ], [ -76.099646674262118, 4.993408881293426 ], [ -76.095480007595455, 5.035757785373288 ], [ -76.085757785373232, 5.049646674262176 ], [ -76.075, 5.05 ], [ -76.074646674262127, 5.064924452039954 ], [ -76.066681247287306, 5.077083333333357 ], [ -76.071186659071159, 5.097549099392385 ], [ -76.058686659071157, 5.11424221462676 ], [ -76.0625, 5.133333333333358 ], [ -76.035289510091118, 5.138067287868948 ], [ -76.006377156575496, 5.157766045464435 ], [ -75.988479105631484, 5.15896606445315 ], [ -75.974432712131048, 5.172048272026935 ], [ -75.978522237141902, 5.203262837727889 ], [ -75.963350931803362, 5.209184265136743 ], [ -75.961612616644942, 5.215958150227889 ], [ -75.929166666666646, 5.225 ], [ -75.920215691460484, 5.267135789659314 ], [ -75.925617641872805, 5.275469122992646 ], [ -75.904784308539476, 5.318673197428412 ], [ -75.899264865451372, 5.353364054362006 ], [ -75.884194776746938, 5.358664449056016 ], [ -75.882539198133657, 5.370039198133707 ], [ -75.871568467881929, 5.371635945638047 ], [ -75.861882358127147, 5.421302456325981 ], [ -75.867284308539467, 5.437969122992648 ], [ -75.861882358127147, 5.483802456325982 ], [ -75.866666666666646, 5.491666666666694 ], [ -75.904913330078102, 5.482766045464437 ], [ -75.930158657497813, 5.507715861002632 ], [ -75.952951727973073, 5.508900621202285 ], [ -75.958333333333314, 5.504166666666694 ], [ -75.977424452039912, 5.517019992404541 ], [ -76.004166666666634, 5.5625 ], [ -76.000014580620643, 5.602083333333361 ], [ -76.004519992404497, 5.619091118706626 ], [ -76.047575547960051, 5.662146674262182 ], [ -76.0833333333333, 5.6875 ], [ -76.074646674262127, 5.714924452039959 ], [ -76.062853325737819, 5.726742214626765 ], [ -76.067019992404497, 5.751712883843345 ], [ -76.0625, 5.7625 ], [ -76.082975260416646, 5.768376498752199 ], [ -76.07863718668618, 5.775940789116783 ], [ -76.088029479980449, 5.79260745578345 ], [ -76.082803853352843, 5.813628980848554 ], [ -76.103697882758226, 5.835416666666696 ], [ -76.099432712131062, 5.856377156575551 ], [ -76.087959798177067, 5.868738640679284 ], [ -76.096400621202235, 5.882586669921905 ], [ -76.08687642415363, 5.924090745714006 ], [ -76.0625, 5.929166666666697 ], [ -76.057715691460487, 5.953167046441003 ], [ -76.070157029893636, 5.95497792561852 ], [ -76.071509636772987, 5.982522074381542 ], [ -76.086341179741737, 5.987613932291698 ], [ -76.095833333333303, 6.008333333333365 ], [ -76.079166666666623, 6.033333333333349 ], [ -76.067664421929237, 6.034010314941438 ], [ -76.061688741048158, 6.053490363227028 ], [ -76.035339864095036, 6.054784308539528 ], [ -76.004166666666649, 6.070833333333349 ], [ -76.012031216091557, 6.110416666666683 ], [ -76.007766045464393, 6.119618394639773 ], [ -76.020266045464382, 6.131122843424496 ], [ -76.021435716417074, 6.165752156575538 ], [ -76.028458150227848, 6.167554050021717 ], [ -76.034041849772109, 6.190779283311649 ], [ -76.040927971733922, 6.192546251085086 ], [ -76.036932712131062, 6.217603895399323 ], [ -76.045266045464388, 6.226956176757829 ], [ -76.050250244140599, 6.265791151258698 ], [ -76.030908881293385, 6.267019992404531 ], [ -76.0, 6.2875 ], [ -76.004166666666634, 6.325 ], [ -75.991666666666646, 6.345833333333351 ], [ -76.044583638509096, 6.379344007704011 ], [ -76.036932712131062, 6.40907999674481 ], [ -76.042233954535575, 6.43137715657554 ], [ -76.063409254286, 6.453543090820332 ], [ -76.0875, 6.458333333333352 ], [ -76.087146674262129, 6.473257785373283 ], [ -76.058333333333309, 6.508333333333352 ], [ -76.0375, 6.504166666666686 ], [ -76.033900621202235, 6.510289510091165 ], [ -76.008686659071159, 6.614242214626756 ], [ -76.008333333333312, 6.645833333333353 ], [ -75.996400621202241, 6.651956176757833 ], [ -75.986791483561177, 6.690779283311652 ], [ -75.980017598470027, 6.692517428927973 ], [ -75.958333333333314, 6.725 ], [ -75.982980007595458, 6.764242214626758 ], [ -75.988067287868901, 6.80342000325523 ], [ -75.978315734863259, 6.824149237738737 ], [ -75.954166666666652, 6.8375 ], [ -75.966666666666626, 6.866666666666688 ], [ -75.966313340928792, 6.910757785373287 ], [ -75.954519992404485, 6.930908881293425 ], [ -75.958318752712657, 6.95625 ], [ -75.954166666666652, 6.96666666666669 ], [ -75.983333333333292, 7.0 ], [ -75.971400621202235, 7.014456176757836 ], [ -75.966099378797722, 7.081377156575545 ], [ -75.931591118706578, 7.103813340928843 ], [ -75.910046217176628, 7.108686659071205 ], [ -75.893408881293382, 7.10798000759551 ], [ -75.877083333333303, 7.095847913954017 ], [ -75.866666666666646, 7.1 ], [ -75.86193271213105, 7.131377156575545 ], [ -75.838387383355013, 7.142375013563393 ], [ -75.833333333333314, 7.154166666666692 ], [ -75.825746663411437, 7.149432712131101 ], [ -75.796579996744768, 7.158900621202282 ], [ -75.760289510091127, 7.154733954535615 ], [ -75.745086669921847, 7.163067287868948 ], [ -75.726214938693559, 7.157766045464435 ], [ -75.725, 7.1625 ], [ -75.708333333333314, 7.1375 ], [ -75.697915988498238, 7.141652764214435 ], [ -75.68125, 7.129181247287351 ], [ -75.660043165418813, 7.137141927083357 ], [ -75.633686659071159, 7.110757785373288 ], [ -75.629166666666634, 7.079166666666691 ], [ -75.604166666666643, 7.075 ], [ -75.600353325737828, 7.069091118706622 ], [ -75.592284308539476, 7.056326972113739 ], [ -75.58669297960067, 7.021538967556447 ], [ -75.559259711371496, 7.015740288628495 ], [ -75.55354902479381, 7.004635959201412 ], [ -75.55895097520613, 6.972839694552974 ], [ -75.588067287868896, 6.926214938693599 ], [ -75.570833333333312, 6.9 ], [ -75.575353325737822, 6.885046386718773 ], [ -75.570833333333312, 6.8625 ], [ -75.558333333333309, 6.8625 ], [ -75.544865587022542, 6.829562717013911 ], [ -75.501956176757787, 6.820266045464431 ], [ -75.482766045464388, 6.802951727973111 ], [ -75.49251759847003, 6.759184095594639 ], [ -75.508333333333312, 6.754166666666688 ], [ -75.503198920355871, 6.72956271701391 ], [ -75.484232923719588, 6.724338785807313 ], [ -75.46666666666664, 6.7 ], [ -75.439456176757787, 6.703599378797763 ], [ -75.42168426513669, 6.694982571072069 ], [ -75.419933742947023, 6.688161214192728 ], [ -75.405139668782525, 6.686845228407138 ], [ -75.3958333333333, 6.675 ], [ -75.3875, 6.675 ], [ -75.382715691460476, 6.682864040798632 ], [ -75.400617641872799, 6.707864040798632 ], [ -75.399246385362389, 6.720033433702278 ], [ -75.3678792317708, 6.73340793185766 ], [ -75.365454101562477, 6.724925401475716 ], [ -75.352006530761685, 6.728549194335958 ], [ -75.331173197428356, 6.717284138997417 ], [ -75.316780598958303, 6.726158650716167 ], [ -75.307597859700493, 6.753366767035612 ], [ -75.3, 6.758333333333354 ], [ -75.31306728786889, 6.77842000325523 ], [ -75.307365587022545, 6.791270616319466 ], [ -75.276956176757778, 6.800567287868946 ], [ -75.256377156575496, 6.820266045464431 ], [ -75.240920003255184, 6.816099378797765 ], [ -75.230017598470027, 6.82168409559464 ], [ -75.208900621202233, 6.856122843424501 ], [ -75.203813340928789, 6.885046386718773 ], [ -75.208686659071148, 6.901713053385439 ], [ -75.199646674262127, 6.935757785373287 ], [ -75.189952765570723, 6.9454779730903 ], [ -75.167566257052925, 6.954827880859398 ], [ -75.14269205729164, 6.98390062120228 ], [ -75.125346544053784, 6.980351426866342 ], [ -75.107482571072026, 7.007482571072072 ], [ -75.089924452039895, 6.992019992404537 ], [ -75.070833333333297, 6.99166666666669 ], [ -75.053637017144069, 6.967788357204884 ], [ -75.067196316189211, 6.938583034939259 ], [ -75.061970350477395, 6.921773952908008 ], [ -75.067230902777752, 6.884284803602453 ], [ -75.086451890733471, 6.88684522840714 ], [ -75.104696316189205, 6.863583034939259 ], [ -75.095833333333303, 6.8375 ], [ -75.104166666666643, 6.829166666666689 ], [ -75.092413330078102, 6.820266045464431 ], [ -75.08125, 6.824531385633703 ], [ -75.046229383680526, 6.819865587022591 ], [ -75.040815904405349, 6.80918409559464 ], [ -75.025396050347197, 6.803198920355925 ], [ -75.021301947699627, 6.797916666666689 ], [ -75.033900621202221, 6.786753336588563 ], [ -75.020266045464382, 6.753420003255229 ], [ -75.045364718966979, 6.697916666666687 ], [ -75.037968614366292, 6.685416666666687 ], [ -75.042233954535561, 6.6561228434245 ], [ -75.050899590386251, 6.642327880859396 ], [ -75.065706719292507, 6.641010877821201 ], [ -75.071742418077221, 6.629790242513041 ], [ -75.094827270507778, 6.628548177083354 ], [ -75.103599378797711, 6.618877156575541 ], [ -75.100673760308126, 6.575896538628492 ], [ -75.119945949978273, 6.570124986436651 ], [ -75.150567287868896, 6.517413330078144 ], [ -75.145846557617162, 6.509829033745679 ], [ -75.166005452473925, 6.494933742947068 ], [ -75.165815734863259, 6.484184095594637 ], [ -75.152210489908825, 6.471400621202276 ], [ -75.129166666666634, 6.470833333333353 ], [ -75.128431532118029, 6.478364054361998 ], [ -75.101361083984344, 6.48746609157988 ], [ -75.089583333333309, 6.471394856770853 ], [ -75.066666666666634, 6.470833333333353 ], [ -75.053279283311596, 6.454875013563386 ], [ -75.0375, 6.45 ], [ -75.021400621202233, 6.464456176757832 ], [ -75.020124986436599, 6.474112616644984 ], [ -75.005103895399273, 6.483900621202276 ], [ -74.954166666666637, 6.466666666666686 ], [ -74.953505452473934, 6.459232923719637 ], [ -74.912853325737814, 6.431591118706616 ], [ -74.9, 6.408333333333352 ], [ -74.863387383355004, 6.390958319769984 ], [ -74.848043823242151, 6.371400621202275 ], [ -74.8125, 6.366666666666685 ], [ -74.799646674262121, 6.335046386718767 ], [ -74.804519992404479, 6.289213053385435 ], [ -74.8, 6.258333333333351 ], [ -74.844921535915773, 6.263114081488732 ], [ -74.864456176757784, 6.282766045464427 ], [ -74.902160305447012, 6.279784138997414 ], [ -74.911814032660558, 6.288347032335087 ], [ -74.913188001844588, 6.311690606011302 ], [ -74.928008015950496, 6.316780598958351 ], [ -74.938471815321151, 6.336731635199671 ], [ -74.957226901584164, 6.346130032009567 ], [ -74.970833333333303, 6.370833333333351 ], [ -74.985075547960037, 6.378813340928838 ], [ -74.99754909939233, 6.379519992404532 ], [ -75.009232923719594, 6.367327880859394 ], [ -75.028420003255178, 6.361932712131095 ], [ -75.035429212782091, 6.366207885742206 ], [ -75.0625, 6.345833333333351 ], [ -75.081591118706569, 6.346186659071199 ], [ -75.118379720052047, 6.362853325737865 ], [ -75.137853325737822, 6.339213053385435 ], [ -75.128813340928787, 6.322546386718768 ], [ -75.129519992404482, 6.305908881293421 ], [ -75.143408881293368, 6.287853325737865 ], [ -75.15, 6.2875 ], [ -75.159284294976104, 6.303500027126754 ], [ -75.171770562065944, 6.304733954535608 ], [ -75.184079996744757, 6.295266045464427 ], [ -75.195124816894506, 6.300887383355052 ], [ -75.221720716688338, 6.349291653103316 ], [ -75.240451727973067, 6.354733954535608 ], [ -75.242554050021667, 6.346541680230053 ], [ -75.261336771647109, 6.337134128146719 ], [ -75.263405693901888, 6.345195515950539 ], [ -75.281377156575488, 6.346400621202275 ], [ -75.304166666666646, 6.366666666666685 ], [ -75.324297078450499, 6.353237575954879 ], [ -75.32570851643878, 6.34255405002172 ], [ -75.345003594292507, 6.332617187500018 ], [ -75.34166666666664, 6.316666666666684 ], [ -75.374081081814211, 6.316080729166684 ], [ -75.379166666666634, 6.3 ], [ -75.395130920410125, 6.286566840277795 ], [ -75.401150512695281, 6.266349962022587 ], [ -75.424470520019511, 6.293585205078143 ], [ -75.421770222981749, 6.316055976019983 ], [ -75.44081573486325, 6.321684095594636 ], [ -75.446229214138427, 6.332365587022587 ], [ -75.478279283311608, 6.315958319769983 ], [ -75.491215006510387, 6.297919379340295 ], [ -75.483900621202224, 6.289710489908872 ], [ -75.47963545057506, 6.26875 ], [ -75.483900621202224, 6.263246663411476 ], [ -75.474432712131048, 6.246579996744809 ], [ -75.475738694932701, 6.23837958441842 ], [ -75.491666666666646, 6.229166666666684 ], [ -75.483333333333306, 6.195833333333351 ], [ -75.504488457573757, 6.19102376302085 ], [ -75.52355194091794, 6.196476236979183 ], [ -75.529938083224806, 6.171604749891509 ], [ -75.542019992404491, 6.164213053385433 ], [ -75.537854851616729, 6.114214409722239 ], [ -75.547575547960037, 6.10451999240453 ], [ -75.564924452039904, 6.103813340928836 ], [ -75.578813340928789, 6.089924452039947 ], [ -75.583686659071162, 6.080879720052099 ], [ -75.578808593749969, 6.055876329210085 ], [ -75.573257785373244, 6.050353325737863 ], [ -75.563637118869337, 6.054431321885883 ], [ -75.5625, 6.05 ], [ -75.542480807834181, 6.049343193901941 ], [ -75.540667046440944, 6.036882358127202 ], [ -75.510416666666643, 6.041105143229198 ], [ -75.496164449055968, 6.036638556586404 ], [ -75.48806152343748, 6.022916666666698 ], [ -75.492284308539467, 6.01713578965932 ], [ -75.483333333333306, 5.975 ], [ -75.452424452039907, 5.967019992404545 ], [ -75.422789510091121, 5.971400621202288 ], [ -75.396867370605435, 5.996400621202288 ], [ -75.389583333333306, 5.992135450575118 ], [ -75.379562547471764, 5.996801079644129 ], [ -75.345833333333303, 6.041666666666682 ], [ -75.325, 6.033333333333365 ], [ -75.308333333333309, 6.008333333333365 ], [ -75.307980007595461, 5.993408881293433 ], [ -75.287853325737814, 5.956591118706628 ], [ -75.283333333333303, 5.933333333333364 ], [ -75.290864054361947, 5.932598198784753 ], [ -75.296450975206142, 5.912030877007409 ], [ -75.286882358127144, 5.881173197428415 ], [ -75.266313340928789, 5.847548929850291 ], [ -75.271186659071148, 5.839212883843346 ], [ -75.266099378797719, 5.810289510091176 ], [ -75.261600409613692, 5.800661214192738 ], [ -75.246793111165331, 5.799344041612443 ], [ -75.24095815022784, 5.784220716688397 ], [ -75.232766045464388, 5.782118394639786 ], [ -75.233900621202224, 5.760289510091175 ], [ -75.253697882758217, 5.71875 ], [ -75.250623236762124, 5.692653740776938 ], [ -75.26164906819659, 5.686649068196644 ], [ -75.266666666666637, 5.675 ], [ -75.262853325737822, 5.635075547960097 ], [ -75.275, 5.604166666666694 ], [ -75.250014580620629, 5.572916666666694 ], [ -75.254166666666634, 5.5625 ], [ -75.262750244140591, 5.561624484592041 ], [ -75.253523932562899, 5.532619391547337 ], [ -75.288067287868898, 5.488437228732666 ], [ -75.283900621202235, 5.468622843424506 ], [ -75.300567287868901, 5.434270562065999 ], [ -75.296568806966121, 5.409233093261745 ], [ -75.32140062120223, 5.384270562065998 ], [ -75.320221455891897, 5.359345160590304 ], [ -75.309184265136693, 5.346684265136744 ], [ -75.34166666666664, 5.3375 ], [ -75.345266045464385, 5.331377156575547 ], [ -75.358970981174025, 5.246739027235268 ], [ -75.366005452473928, 5.244933742947074 ], [ -75.370480007595461, 5.231591118706622 ], [ -75.370172119140591, 5.217566257052976 ], [ -75.363161214192687, 5.215767076280407 ], [ -75.358333333333306, 5.195833333333358 ], [ -75.351712883843291, 5.191313340928844 ], [ -75.33504401312932, 5.195474582248289 ], [ -75.320833333333312, 5.183333333333358 ], [ -75.32973395453557, 5.163246663411483 ], [ -75.328522237141897, 5.14673733181426 ], [ -75.320266045464379, 5.144618394639782 ], [ -75.325632731119768, 5.117645602756101 ], [ -75.343622843424455, 5.104733954535615 ], [ -75.357433742947023, 5.103505452473982 ], [ -75.366666666666646, 5.06666666666669 ], [ -75.352424452039898, 5.050353325737871 ], [ -75.329166666666637, 5.045833333333357 ], [ -75.316666666666634, 5.033333333333356 ], [ -75.325353325737822, 4.993408881293426 ], [ -75.339242214626708, 4.975353325737871 ], [ -75.353813340928795, 4.96909111870662 ], [ -75.354166666666643, 4.95 ], [ -75.341311815049892, 4.905881076388912 ], [ -75.316666666666634, 4.883333333333356 ], [ -75.328315734863253, 4.874149237738738 ], [ -75.338204277886263, 4.846752929687522 ], [ -75.366099378797713, 4.823043823242209 ], [ -75.375, 4.804166666666688 ], [ -75.375353325737819, 4.785075547960091 ], [ -75.387853325737822, 4.751713053385438 ], [ -75.379181247287306, 4.73125 ], [ -75.3875, 4.716666666666688 ], [ -75.383333333333312, 4.695833333333354 ], [ -75.399138556586351, 4.691335720486132 ], [ -75.400617641872799, 4.681173027886306 ], [ -75.415898471408397, 4.669861518012173 ], [ -75.421450975206142, 4.645364040798631 ], [ -75.416049024793807, 4.616197374131964 ], [ -75.433802456325935, 4.599382527669291 ], [ -75.454635789659264, 4.604784138997416 ], [ -75.470039198133648, 4.599205864800368 ], [ -75.475113932291634, 4.5844919840495 ], [ -75.496193610297283, 4.563588121202277 ], [ -75.5125, 4.558333333333353 ], [ -75.520480007595467, 4.544091118706617 ], [ -75.525, 4.495833333333353 ], [ -75.531591118706572, 4.495480007595505 ], [ -75.574646674262127, 4.452424452039949 ], [ -75.575353325737822, 4.435075547960088 ], [ -75.582980007595467, 4.427424452039949 ], [ -75.57973395453557, 4.397789510091164 ], [ -75.595818752712646, 4.335416666666685 ], [ -75.592019992404488, 4.31840888129342 ], [ -75.604519992404491, 4.297549099392379 ], [ -75.595833333333303, 4.275 ], [ -75.61471048990883, 4.270266045464427 ], [ -75.641005452473934, 4.244933742947065 ], [ -75.64223395453557, 4.231122843424496 ], [ -75.653315734863256, 4.224149237738732 ], [ -75.654762437608483, 4.201010131835954 ], [ -75.691049024793813, 4.164660305447065 ], [ -75.692334662543374, 4.134145779079878 ], [ -75.71666666666664, 4.125 ], [ -75.71666666666664, 4.1125 ], [ -75.732520887586787, 4.11183200412328 ], [ -75.734101528591552, 4.100971815321197 ], [ -75.749264865451366, 4.090863376193592 ], [ -75.750717163085909, 4.075986395941856 ], [ -75.758333333333312, 4.075 ], [ -75.737514241536431, 4.056250339084217 ], [ -75.745833333333309, 4.0375 ], [ -75.769091118706569, 4.024646674262185 ], [ -75.780875481499535, 4.004525587293869 ], [ -75.789583672417507, 4.008319091796907 ], [ -75.795478312174453, 4.002453782823383 ], [ -75.791313340928795, 3.973287116156716 ], [ -75.807980007595461, 3.952424452039963 ], [ -75.812853325737819, 3.918408881293434 ], [ -75.820833333333312, 3.904166666666698 ], [ -75.835757785373247, 3.907980007595517 ], [ -75.862145657009521, 3.881617228190136 ], [ -75.857980007595458, 3.852451070149771 ], [ -75.867019992404494, 3.8350755479601 ], [ -75.895190599229579, 3.806301710340743 ], [ -75.900771416558143, 3.784104749891524 ], [ -75.908333333333317, 3.783333333333364 ], [ -75.916666666666643, 3.745833333333363 ], [ -75.945130920410136, 3.728233506944474 ], [ -75.946541849772117, 3.717554050021731 ], [ -75.958900621202233, 3.704913330078155 ], [ -75.95, 3.679166666666696 ], [ -75.954939270019509, 3.66338636610246 ], [ -75.96459282769095, 3.666278415256106 ], [ -75.975, 3.658333333333363 ], [ -75.980117119683143, 3.642420111762182 ], [ -75.990881856282527, 3.640889824761314 ], [ -75.983333333333306, 3.558333333333362 ], [ -75.991666666666646, 3.554166666666695 ], [ -76.003697882758217, 3.527083333333362 ], [ -76.000458272298161, 3.52290327284074 ], [ -76.025, 3.495833333333362 ], [ -76.020833333333314, 3.475 ], [ -76.030017598470025, 3.45501759847008 ], [ -76.0375, 3.454166666666695 ], [ -76.045364549424889, 3.410416666666694 ], [ -76.040958150227837, 3.396720716688395 ], [ -76.032766045464385, 3.394618394639784 ], [ -76.0339892917209, 3.380067613389784 ], [ -76.058333333333294, 3.354166666666694 ], [ -76.05, 3.34583333333336 ], [ -76.053637186686174, 3.326918368869384 ], [ -76.036970520019509, 3.30094078911678 ], [ -76.04943271213105, 3.285543823242214 ], [ -76.042327880859347, 3.246732923719644 ], [ -76.05776604546439, 3.231377156575547 ], [ -76.05001458062064, 3.21875 ], [ -76.064950731065522, 3.199646674262179 ], [ -76.085432603624113, 3.204168023003498 ], [ -76.091313340928792, 3.198257785373289 ], [ -76.091313340928792, 3.180908881293429 ], [ -76.078813340928804, 3.164215596516953 ], [ -76.083319600423152, 3.156249321831623 ], [ -76.070847066243473, 3.143750678168428 ], [ -76.075899590386257, 3.1173278808594 ], [ -76.098043823242165, 3.111932712131102 ], [ -76.104733954535575, 3.097048272026935 ], [ -76.079519992404499, 3.085757785373289 ], [ -76.071186659071159, 3.069091118706622 ], [ -76.070833333333297, 3.045833333333358 ], [ -76.086882527669232, 3.01882697211374 ], [ -76.088217163085901, 3.005153062608531 ], [ -76.103549194335898, 2.989660305447073 ], [ -76.104901801215235, 2.975802612304712 ], [ -76.117284138997363, 2.97400037977433 ], [ -76.111882527669238, 2.95880262586808 ], [ -76.117401801215237, 2.921636623806447 ], [ -76.128399319118884, 2.911882527669294 ], [ -76.141666666666623, 2.91666666666669 ], [ -76.15, 2.8875 ], [ -76.172916666666623, 2.875561523437523 ], [ -76.183802625868026, 2.879784138997419 ], [ -76.197993638780346, 2.874382527669294 ], [ -76.204935031466974, 2.859305148654537 ], [ -76.223632134331567, 2.85354919433596 ], [ -76.225988430447018, 2.861790296766516 ], [ -76.240667046440933, 2.863117472330752 ], [ -76.242284138997363, 2.852006361219641 ], [ -76.2625, 2.825 ], [ -76.262853325737808, 2.805908881293425 ], [ -76.278813340928778, 2.78159111870662 ], [ -76.279519992404474, 2.747575547960091 ], [ -76.287853325737814, 2.735046386718772 ], [ -76.258332655164892, 2.693735758463563 ], [ -76.268408881293368, 2.683686659071202 ], [ -76.285757785373221, 2.682980007595508 ], [ -76.293408881293374, 2.675353325737869 ], [ -76.314213053385387, 2.674646674262174 ], [ -76.3333333333333, 2.683333333333355 ] ], [ [ -75.825, 6.0 ], [ -75.825, 6.0 ], [ -75.833333333333314, 6.0 ], [ -75.825, 6.0 ] ] ] } },
{ "type": "Feature", "properties": { "name": "CALDAS", "source": "HydroBASINS lev12 trace", "outlets": "Miel I; Guarinó desv." }, "geometry": { "type": "Polygon", "coordinates": [ [ [ -75.352424452039898, 5.050353325737871 ], [ -75.366308932834173, 5.064212375217037 ], [ -75.36193271213105, 5.093877156575545 ], [ -75.357433742947023, 5.103505452473982 ], [ -75.343622843424455, 5.104733954535615 ], [ -75.325632731119768, 5.117645602756101 ], [ -75.320266045464379, 5.144618394639782 ], [ -75.328522237141897, 5.14673733181426 ], [ -75.32973395453557, 5.163246663411483 ], [ -75.320833333333312, 5.183333333333358 ], [ -75.33504401312932, 5.195474582248289 ], [ -75.351712883843291, 5.191313340928844 ], [ -75.358333333333306, 5.195833333333358 ], [ -75.363161214192687, 5.215767076280407 ], [ -75.370172119140591, 5.217566257052976 ], [ -75.370480007595461, 5.231591118706622 ], [ -75.366005452473928, 5.244933742947074 ], [ -75.358970981174025, 5.246739027235268 ], [ -75.350567287868898, 5.281122843424505 ], [ -75.349432712131048, 5.318877156575547 ], [ -75.34166666666664, 5.3375 ], [ -75.313399590386254, 5.342327880859401 ], [ -75.308333333333309, 5.35 ], [ -75.289242214626711, 5.337853325737873 ], [ -75.243383110894072, 5.375353325737874 ], [ -75.235045199924016, 5.374644131130669 ], [ -75.2083333333333, 5.35 ], [ -75.191308932834175, 5.389955139160183 ], [ -75.164213901095891, 5.40452219645185 ], [ -75.124149237738692, 5.457482401529974 ], [ -75.117274305555526, 5.459246656629801 ], [ -75.116666666666632, 5.475 ], [ -75.108689032660564, 5.480878872341608 ], [ -75.104166666666643, 5.5 ], [ -75.075850762261254, 5.505017598470079 ], [ -75.074032253689211, 5.512104119194905 ], [ -75.05221048990883, 5.524432712131103 ], [ -75.041666666666643, 5.525 ], [ -75.040451727973064, 5.520266045464437 ], [ -75.000933159722194, 5.525702412923204 ], [ -74.974432712131048, 5.557345241970514 ], [ -74.979108005099789, 5.569279310438396 ], [ -74.938246663411434, 5.600567287868952 ], [ -74.924100409613686, 5.583994547526069 ], [ -74.888350762261254, 5.575850931803414 ], [ -74.878315904405355, 5.594982401529975 ], [ -74.866099378797713, 5.603420003255236 ], [ -74.870364718966982, 5.610416666666695 ], [ -74.866067165798583, 5.648993089464004 ], [ -74.860543823242153, 5.653599378797772 ], [ -74.81041666666664, 5.662031216091608 ], [ -74.768379720052053, 5.653811815049941 ], [ -74.7625, 5.645833333333362 ], [ -74.767375013563338, 5.634220716688397 ], [ -74.778533935546847, 5.628187561035185 ], [ -74.7875, 5.595833333333362 ], [ -74.823257785373229, 5.591313340928847 ], [ -74.855908881293374, 5.558686659071208 ], [ -74.869091118706564, 5.557980007595514 ], [ -74.883333333333297, 5.545833333333361 ], [ -74.892019992404485, 5.51837955051001 ], [ -74.887853325737822, 5.501742214626764 ], [ -74.895480007595452, 5.489924452039958 ], [ -74.896186659071148, 5.46840888129343 ], [ -74.903813340928792, 5.460757785373291 ], [ -74.9, 5.42083333333336 ], [ -74.904901801215246, 5.39246927897138 ], [ -74.915694851345449, 5.390898471408446 ], [ -74.938117472330703, 5.354635789659314 ], [ -74.933333333333309, 5.3375 ], [ -74.9375, 5.329166666666692 ], [ -74.976742214626711, 5.308686659071206 ], [ -75.0208333333333, 5.304166666666692 ], [ -75.020478312174447, 5.285046217176674 ], [ -75.013067287868893, 5.276956176757838 ], [ -75.028599378797708, 5.256377156575546 ], [ -75.029790242512988, 5.234242587619383 ], [ -75.045195515950496, 5.228260972764782 ], [ -75.046400621202224, 5.210289510091171 ], [ -75.059301079644072, 5.183729214138479 ], [ -75.091005452473922, 5.169933742947073 ], [ -75.092024400499099, 5.160045878092472 ], [ -75.110075547960037, 5.142019992404538 ], [ -75.131620279947882, 5.13298000759551 ], [ -75.156591118706572, 5.137146674262177 ], [ -75.1625, 5.129166666666691 ], [ -75.18132680257159, 5.128549194335962 ], [ -75.229635789659255, 5.099382527669295 ], [ -75.262969122992587, 5.108950805664087 ], [ -75.286692979600673, 5.103461032443601 ], [ -75.292372300889724, 5.071640353732663 ], [ -75.328478664822015, 5.057523939344642 ], [ -75.329166666666637, 5.045833333333357 ], [ -75.352424452039898, 5.050353325737871 ] ] ] } },
{ "type": "Feature", "properties": { "name": "CARIBE", "source": "HydroBASINS lev12 trace", "outlets": "Urrá I" }, "geometry": { "type": "Polygon", "coordinates": [ [ [ -76.243408881293362, 7.182980007595511 ], [ -76.251715766058993, 7.183686659071205 ], [ -76.260415988498224, 7.175013902452282 ], [ -76.2708333333333, 7.179166666666692 ], [ -76.266313340928789, 7.222546217176674 ], [ -76.275, 7.270833333333359 ], [ -76.280046251085039, 7.278427971733967 ], [ -76.296579996744754, 7.274432712131102 ], [ -76.303198920355868, 7.279562547471814 ], [ -76.325978936089371, 7.328533935546901 ], [ -76.35, 7.333333333333359 ], [ -76.354166666666629, 7.366666666666693 ], [ -76.370266045464376, 7.381122843424505 ], [ -76.371541680229996, 7.390779283311659 ], [ -76.415698920355865, 7.421229214138481 ], [ -76.437853325737819, 7.477424452039958 ], [ -76.45, 7.4875 ], [ -76.450617472330691, 7.506326802571643 ], [ -76.459305148654479, 7.520065138075115 ], [ -76.470039198133648, 7.521627468533014 ], [ -76.475, 7.5375 ], [ -76.490698920355868, 7.546229214138482 ], [ -76.5125, 7.5875 ], [ -76.507980007595449, 7.605879550510011 ], [ -76.512486097547708, 7.610417344835097 ], [ -76.500353325737819, 7.626742214626764 ], [ -76.5, 7.6375 ], [ -76.492304484049441, 7.638405693901938 ], [ -76.482766045464373, 7.692413330078153 ], [ -76.496400621202227, 7.740920003255237 ], [ -76.495159573025134, 7.753270297580324 ], [ -76.478599378797711, 7.770086669921904 ], [ -76.482864718966979, 7.797916666666696 ], [ -76.478599378797711, 7.827210489908884 ], [ -76.467233954535558, 7.843622843424509 ], [ -76.462146674262115, 7.873257785373294 ], [ -76.446189032660556, 7.885045539008277 ], [ -76.435787963867156, 7.907977634006107 ], [ -76.421187676323754, 7.914213562011749 ], [ -76.4125, 8.0125 ], [ -76.424068535698751, 8.016946750217029 ], [ -76.421394856770803, 8.03125 ], [ -76.429784138997363, 8.0549034966363 ], [ -76.419861518012112, 8.070064968533002 ], [ -76.409009806315069, 8.071644422743072 ], [ -76.407715861002572, 8.097993638780398 ], [ -76.4, 8.108333333333348 ], [ -76.375866699218719, 8.109022352430571 ], [ -76.370110744900131, 8.149241129557307 ], [ -76.346079169379308, 8.154822116427969 ], [ -76.3333333333333, 8.15 ], [ -76.325461832682251, 8.135425482855918 ], [ -76.328159925672708, 8.125811089409739 ], [ -76.309184095594588, 8.115815904405398 ], [ -76.294982571072012, 8.080017428927967 ], [ -76.279166666666626, 8.066666666666682 ], [ -76.271302625868017, 8.071450805664078 ], [ -76.260416666666629, 8.067228190104183 ], [ -76.229635959201346, 8.083950805664077 ], [ -76.213316514756912, 8.082618543836821 ], [ -76.206965467664901, 8.07021586100262 ], [ -76.196569824218713, 8.071622721354183 ], [ -76.189660305447006, 8.091049194335953 ], [ -76.175746663411417, 8.082766045464425 ], [ -76.143698459201346, 8.083976236979183 ], [ -76.134226142035558, 8.092087470160607 ], [ -76.132690429687457, 8.077031792534738 ], [ -76.115702311197879, 8.0467976888021 ], [ -76.086238267686596, 8.016643269856786 ], [ -76.066666666666634, 8.008333333333349 ], [ -76.0625, 8.0125 ], [ -76.0342329237196, 8.00767211914064 ], [ -76.028809102376286, 7.993379380967897 ], [ -76.010757785373244, 7.975353325737863 ], [ -76.0, 7.975 ], [ -75.982690599229585, 7.961051940918 ], [ -75.984038798014296, 7.934111362033451 ], [ -75.998969862196162, 7.932588365342912 ], [ -76.008976067437047, 7.923551940917999 ], [ -75.999357265896251, 7.877031622992652 ], [ -75.986238437228707, 7.8541431003147 ], [ -75.96666666666664, 7.841666666666697 ], [ -75.970833333333289, 7.8125 ], [ -75.958686659071162, 7.781591118706627 ], [ -75.954520840114995, 7.71004909939239 ], [ -75.975567287868898, 7.684079996744821 ], [ -75.974331495496941, 7.671782599555151 ], [ -75.957766045464382, 7.65907999674482 ], [ -75.96203121609156, 7.652083333333362 ], [ -75.957672119140597, 7.634232923719646 ], [ -75.945833333333312, 7.620833333333362 ], [ -75.954769049750411, 7.559248012966608 ], [ -75.978599378797725, 7.539710489908882 ], [ -75.979166666666643, 7.529166666666694 ], [ -76.02916666666664, 7.5 ], [ -76.038067287868898, 7.435289510091172 ], [ -76.058900621202241, 7.379913330078152 ], [ -76.049149068196598, 7.342517598470078 ], [ -76.033979119194854, 7.336596510145425 ], [ -76.004809400770384, 7.306301710340738 ], [ -75.986857265896248, 7.237821790907143 ], [ -75.992309400770381, 7.22948845757381 ], [ -75.991023932562911, 7.21036495632598 ], [ -75.973738437228704, 7.187476433648028 ], [ -75.946531168619771, 7.178387790256101 ], [ -75.946488104926189, 7.155139499240476 ], [ -75.961791483561171, 7.144945949978323 ], [ -75.963204277886263, 7.134252929687524 ], [ -75.970833333333317, 7.129166666666691 ], [ -75.986612616644933, 7.134041680230059 ], [ -75.993162367078952, 7.145820109049504 ], [ -75.997929212782083, 7.14212544759117 ], [ -76.014456176757776, 7.157766045464435 ], [ -76.031261528862814, 7.154626464843775 ], [ -76.043622843424444, 7.166099378797767 ], [ -76.064660305447006, 7.170215691460529 ], [ -76.095098198784683, 7.157530721028671 ], [ -76.100783962673574, 7.138255479600719 ], [ -76.133802625868015, 7.14228413899742 ], [ -76.157170274522528, 7.124634128146726 ], [ -76.189242214626702, 7.141313340928845 ], [ -76.216666666666626, 7.145833333333358 ], [ -76.217019992404474, 7.156591118706622 ], [ -76.243408881293362, 7.182980007595511 ] ] ] } },
{ "type": "Feature", "properties": { "name": "CENTRO", "source": "HydroBASINS lev12 trace", "outlets": "Betania; Sogamoso; Prado; Amoyá; La Guaca (Bogotá)" }, "geometry": { "type": "MultiPolygon", "coordinates": [ [ [ [ -76.196400621202216, 1.589710489908883 ], [ -76.211932712131045, 1.610289510091175 ], [ -76.217233954535558, 1.634079996744821 ], [ -76.212968614366289, 1.639583333333363 ], [ -76.221684095594583, 1.657482401529977 ], [ -76.247915649414026, 1.679153103298641 ], [ -76.26875, 1.670847913954022 ], [ -76.301713053385384, 1.692019992404544 ], [ -76.320833333333297, 1.683333333333363 ], [ -76.33125, 1.662514580620689 ], [ -76.343379720052042, 1.667019992404543 ], [ -76.347917344835039, 1.662513902452286 ], [ -76.355908881293374, 1.670480007595516 ], [ -76.375, 1.666666666666696 ], [ -76.370266045464376, 1.721579996744822 ], [ -76.37556728786889, 1.738246663411489 ], [ -76.370568847656216, 1.744696214464006 ], [ -76.381377156575482, 1.749432712131107 ], [ -76.394945949978265, 1.745124816894561 ], [ -76.396720716688336, 1.738208516438832 ], [ -76.420833333333292, 1.733333333333363 ], [ -76.425264485677047, 1.744696214464006 ], [ -76.416049194335898, 1.763306342230933 ], [ -76.429960801866287, 1.786705864800378 ], [ -76.458407931857607, 1.79704589843753 ], [ -76.453549194335906, 1.804903327094215 ], [ -76.4625, 1.816666666666698 ], [ -76.504166666666634, 1.833333333333364 ], [ -76.52916666666664, 1.825 ], [ -76.533729383680523, 1.8323655870226 ], [ -76.561649237738678, 1.842517598470083 ], [ -76.579166666666637, 1.866666666666698 ], [ -76.59166666666664, 1.866666666666698 ], [ -76.591059027777746, 1.882420010036923 ], [ -76.584041680230001, 1.884220716688399 ], [ -76.579628499348928, 1.897925482855934 ], [ -76.596779378255178, 1.924241468641525 ], [ -76.611587863498229, 1.929933166503938 ], [ -76.608333333333306, 1.945833333333365 ], [ -76.625, 1.970833333333365 ], [ -76.613350762261248, 1.975850931803417 ], [ -76.593877156575488, 2.003599378797775 ], [ -76.579166666666637, 2.004166666666699 ], [ -76.571301947699624, 2.01875 ], [ -76.588067287868896, 2.042413330078158 ], [ -76.578599378797705, 2.063246663411491 ], [ -76.59166666666664, 2.09583333333335 ], [ -76.58293728298608, 2.115698920355936 ], [ -76.554827880859335, 2.134232923719651 ], [ -76.554166666666632, 2.141666666666684 ], [ -76.543382432725664, 2.13298000759552 ], [ -76.522575547960031, 2.137146674262186 ], [ -76.48921339246958, 2.128812154134148 ], [ -76.482977973090243, 2.114214409722255 ], [ -76.466666666666626, 2.1 ], [ -76.452210489908822, 2.11609937879776 ], [ -76.430139499240411, 2.121488104926232 ], [ -76.42128397623695, 2.131251356336823 ], [ -76.43806728786889, 2.157586669921892 ], [ -76.432701619466116, 2.18233947753908 ], [ -76.413419596354132, 2.192370944552969 ], [ -76.386649237738681, 2.2408159044054 ], [ -76.358333333333292, 2.266666666666685 ], [ -76.374149237738678, 2.28001742892797 ], [ -76.375, 2.291666666666685 ], [ -76.3958333333333, 2.308333333333352 ], [ -76.391666666666637, 2.320833333333352 ], [ -76.354733954535561, 2.356122843424498 ], [ -76.349432712131048, 2.392413330078144 ], [ -76.354166666666629, 2.4 ], [ -76.320833333333297, 2.391666666666686 ], [ -76.32414686414927, 2.420567152235263 ], [ -76.302134874131909, 2.441023763020853 ], [ -76.288530137803789, 2.442411634657138 ], [ -76.277134874131903, 2.461857096354187 ], [ -76.233576117621496, 2.480348036024326 ], [ -76.217309570312466, 2.497865125868076 ], [ -76.215946790907083, 2.520056830512173 ], [ -76.204166666666623, 2.520833333333353 ], [ -76.222546047634509, 2.545475599500889 ], [ -76.233333333333292, 2.55 ], [ -76.232645331488683, 2.561690606011305 ], [ -76.220833333333303, 2.566666666666687 ], [ -76.233900621202224, 2.590920003255229 ], [ -76.232729424370618, 2.624085828993077 ], [ -76.218408881293371, 2.625353325737868 ], [ -76.212853325737811, 2.635757785373285 ], [ -76.230908881293374, 2.649646674262174 ], [ -76.248257785373227, 2.650353325737869 ], [ -76.254166666666634, 2.666666666666688 ], [ -76.269945949978265, 2.671541680230056 ], [ -76.2708333333333, 2.683333333333355 ], [ -76.258332655164892, 2.693735758463563 ], [ -76.287146674262118, 2.730908881293425 ], [ -76.279519992404474, 2.747575547960091 ], [ -76.278813340928778, 2.78159111870662 ], [ -76.262853325737808, 2.805908881293425 ], [ -76.2625, 2.825 ], [ -76.242284138997363, 2.852006361219641 ], [ -76.240667046440933, 2.863117472330752 ], [ -76.225988430447018, 2.861790296766516 ], [ -76.223632134331567, 2.85354919433596 ], [ -76.204935031466974, 2.859305148654537 ], [ -76.197993638780346, 2.874382527669294 ], [ -76.183802625868026, 2.879784138997419 ], [ -76.172916666666623, 2.875561523437523 ], [ -76.15, 2.8875 ], [ -76.141666666666623, 2.91666666666669 ], [ -76.128399319118884, 2.911882527669294 ], [ -76.117401801215237, 2.921636623806447 ], [ -76.111882527669238, 2.95880262586808 ], [ -76.117284138997363, 2.97400037977433 ], [ -76.104901801215235, 2.975802612304712 ], [ -76.103549194335898, 2.989660305447073 ], [ -76.088217163085901, 3.005153062608531 ], [ -76.086882527669232, 3.01882697211374 ], [ -76.070833333333297, 3.045833333333358 ], [ -76.060075547960054, 3.045480007595511 ], [ -76.04668426513669, 3.040815904405406 ], [ -76.036932712131062, 3.025937228732663 ], [ -76.040416971842433, 3.012677341037351 ], [ -76.020833333333314, 3.008333333333358 ], [ -76.028254699707006, 2.971600002712698 ], [ -75.9875, 2.983333333333357 ], [ -75.978087700737831, 2.954559326171899 ], [ -75.954883829752589, 2.936513604058183 ], [ -75.953428819444426, 2.921608818901933 ], [ -75.935408189561613, 2.924444580078148 ], [ -75.922993469238264, 2.913117472330752 ], [ -75.909135945637999, 2.911764865451413 ], [ -75.9, 2.89166666666669 ], [ -75.89498240152993, 2.899149237738738 ], [ -75.883333333333312, 2.9 ], [ -75.882679070366734, 2.892644924587697 ], [ -75.855103895399282, 2.870266045464433 ], [ -75.846579996744765, 2.875567287868947 ], [ -75.826742214626719, 2.871186659071204 ], [ -75.787895880805095, 2.896801079644121 ], [ -75.782482401529919, 2.907482571072072 ], [ -75.746579996744771, 2.917233954535614 ], [ -75.725567287868898, 2.898043823242211 ], [ -75.711532253689214, 2.871229383680579 ], [ -75.696720716688347, 2.865958319769988 ], [ -75.688067287868904, 2.839710489908877 ], [ -75.687853325737819, 2.814242214626759 ], [ -75.704519992404485, 2.79338311089412 ], [ -75.700014580620632, 2.75625 ], [ -75.708686659071162, 2.743379720052106 ], [ -75.700353325737822, 2.723257785373286 ], [ -75.700358920627139, 2.68920864529082 ], [ -75.737146674262135, 2.660757785373285 ], [ -75.767062547471767, 2.609301079644118 ], [ -75.786649068196596, 2.599149237738736 ], [ -75.786907111273848, 2.571750556098111 ], [ -75.770833333333314, 2.55 ], [ -75.713274637858049, 2.545094129774326 ], [ -75.71172332763669, 2.529886542426236 ], [ -75.688266160753017, 2.528446112738736 ], [ -75.672968377007351, 2.513142903645853 ], [ -75.651042683919243, 2.511796400282138 ], [ -75.644091118706569, 2.504519992404534 ], [ -75.622575547960039, 2.503813340928839 ], [ -75.610757785373238, 2.492019992404534 ], [ -75.595833333333303, 2.491666666666687 ], [ -75.595266045464385, 2.518877156575541 ], [ -75.590767076280358, 2.528505452473979 ], [ -75.583333333333314, 2.529166666666687 ], [ -75.59166666666664, 2.575 ], [ -75.5875, 2.591666666666688 ], [ -75.546753268771681, 2.592248874240472 ], [ -75.541666666666643, 2.604166666666688 ], [ -75.509184265136696, 2.625850762261306 ], [ -75.507427639431398, 2.632695515950542 ], [ -75.489456176757784, 2.633900621202278 ], [ -75.466402011447457, 2.65113728841148 ], [ -75.470266045464385, 2.660543823242209 ], [ -75.449295722113689, 2.694913736979188 ], [ -75.425959777832006, 2.703510877821202 ], [ -75.408686659071151, 2.668408881293424 ], [ -75.417024400499102, 2.651711697048632 ], [ -75.453813340928789, 2.614924452039951 ], [ -75.454166666666637, 2.604166666666688 ], [ -75.418877156575491, 2.575567287868944 ], [ -75.391666666666637, 2.570833333333354 ], [ -75.391313340928789, 2.555908881293423 ], [ -75.383347235785564, 2.54791734483509 ], [ -75.387486097547722, 2.518749321831617 ], [ -75.379166666666634, 2.508333333333354 ], [ -75.409253099229574, 2.463082885742208 ], [ -75.429166666666646, 2.45 ], [ -75.429733954535564, 2.431122843424499 ], [ -75.441204833984344, 2.414592149522589 ], [ -75.441079881456133, 2.380183919270852 ], [ -75.417599826388866, 2.370130750868075 ], [ -75.399149068196593, 2.34251742892797 ], [ -75.384041849772103, 2.336612616644984 ], [ -75.379166666666634, 2.320833333333352 ], [ -75.395480007595467, 2.306591118706616 ], [ -75.39223395453557, 2.293622843424498 ], [ -75.403599378797722, 2.277210489908873 ], [ -75.413161214192684, 2.24256625705297 ], [ -75.428315734863261, 2.236649237738733 ], [ -75.441099378797716, 2.218877156575539 ], [ -75.436791483561166, 2.205054050021719 ], [ -75.420833333333306, 2.1916666666667 ], [ -75.441666666666634, 2.145833333333351 ], [ -75.464924452039909, 2.141313340928837 ], [ -75.501742214626717, 2.121186659071198 ], [ -75.533333333333303, 2.116666666666684 ], [ -75.542517598470027, 2.084184095594635 ], [ -75.549604119194854, 2.082365587022586 ], [ -75.575, 2.04583333333335 ], [ -75.587858072916646, 2.010043165418869 ], [ -75.616666666666646, 1.99583333333335 ], [ -75.625967746310735, 1.96706254747182 ], [ -75.636791483561169, 1.961612616644997 ], [ -75.646400621202233, 1.93824666341149 ], [ -75.642135450575068, 1.922916666666698 ], [ -75.658333333333303, 1.891666666666698 ], [ -75.6875, 1.883333333333364 ], [ -75.703813340928789, 1.860757785373295 ], [ -75.7045210096571, 1.843381585015222 ], [ -75.714242214626708, 1.833686659071212 ], [ -75.725, 1.833333333333364 ], [ -75.732766045464388, 1.818877156575552 ], [ -75.738413323296413, 1.779774136013485 ], [ -75.754166666666649, 1.779166666666697 ], [ -75.758333333333312, 1.770833333333364 ], [ -75.776742214626708, 1.762853325737877 ], [ -75.790815734863259, 1.765815734863311 ], [ -75.800899759928356, 1.750735473632843 ], [ -75.817413330078097, 1.754733954535621 ], [ -75.8375, 1.745833333333363 ], [ -75.842469278971336, 1.725735134548641 ], [ -75.870098198784703, 1.720030721028676 ], [ -75.870833333333309, 1.7125 ], [ -75.90416666666664, 1.720833333333363 ], [ -75.941099378797716, 1.685543823242217 ], [ -75.950967746310738, 1.667062547471818 ], [ -75.982421366373671, 1.657566833496123 ], [ -75.978637186686171, 1.644892544216609 ], [ -75.983333333333306, 1.625 ], [ -76.006377156575496, 1.616099378797772 ], [ -76.035289510091118, 1.588067287868952 ], [ -76.066666666666649, 1.591666666666696 ], [ -76.120833333333294, 1.558333333333362 ], [ -76.129562717013854, 1.569865587022598 ], [ -76.160075547960034, 1.587146674262182 ], [ -76.173257785373224, 1.587146674262182 ], [ -76.185075547960039, 1.575353325737876 ], [ -76.195833333333297, 1.575 ], [ -76.196400621202216, 1.589710489908883 ] ] ], [ [ [ -74.8875, 3.541666666666695 ], [ -74.862853325737817, 3.597575547960099 ], [ -74.8625, 3.6375 ], [ -74.854166666666629, 3.65 ], [ -74.854733954535561, 3.673043823242217 ], [ -74.863067287868887, 3.684079996744821 ], [ -74.846431816948751, 3.69684092203779 ], [ -74.845266045464385, 3.732118394639787 ], [ -74.853505452473925, 3.734232923719648 ], [ -74.863067287868887, 3.763246663411489 ], [ -74.858333333333306, 3.775 ], [ -74.84251742892792, 3.780017598470082 ], [ -74.835416666666632, 3.791197882758277 ], [ -74.818738471137124, 3.775459798177114 ], [ -74.767413330078099, 3.808900621202288 ], [ -74.759079996744759, 3.803599378797774 ], [ -74.730908881293374, 3.812146674262183 ], [ -74.706249321831564, 3.795847235785621 ], [ -74.689924452039904, 3.807980007595517 ], [ -74.668408881293374, 3.808686659071211 ], [ -74.656591118706558, 3.820480007595517 ], [ -74.631591118706567, 3.82881334092885 ], [ -74.579166666666637, 3.820833333333364 ], [ -74.571186659071145, 3.801742214626767 ], [ -74.608691067165765, 3.743379550510013 ], [ -74.660075547960034, 3.700353325737877 ], [ -74.681623670789904, 3.69130859375003 ], [ -74.693408881293365, 3.67118665907121 ], [ -74.714951578776009, 3.670479159885012 ], [ -74.724646674262118, 3.660757785373293 ], [ -74.729521009657091, 3.635046725802981 ], [ -74.755908881293365, 3.612853325737876 ], [ -74.7708333333333, 3.608333333333362 ], [ -74.771188354492153, 3.601712883843345 ], [ -74.811532253689208, 3.566270785861574 ], [ -74.816666666666634, 3.520833333333361 ], [ -74.864924452039901, 3.521186659071209 ], [ -74.8875, 3.541666666666695 ] ] ], [ [ [ -75.532678561740425, 3.742639668782582 ], [ -75.538067287868898, 3.768877156575551 ], [ -75.553599378797713, 3.789456176757843 ], [ -75.558686659071157, 3.852424452039962 ], [ -75.584259711371502, 3.89490695529517 ], [ -75.603372531466988, 3.900794135199684 ], [ -75.621680365668382, 3.932647535536056 ], [ -75.633333333333312, 3.933333333333365 ], [ -75.628599378797716, 3.948043823242219 ], [ -75.611519029405358, 3.96601257324222 ], [ -75.597789510091118, 3.967233954535622 ], [ -75.577210489908822, 3.982766045464442 ], [ -75.55739610460067, 3.988067287868956 ], [ -75.548043823242168, 3.979733954535622 ], [ -75.518622843424453, 3.982766045464442 ], [ -75.505154758029491, 3.970266045464442 ], [ -75.488350931803353, 3.975850931803417 ], [ -75.472916666666634, 3.995364549424945 ], [ -75.456377156575499, 3.983900621202289 ], [ -75.433333333333309, 3.983333333333365 ], [ -75.425, 3.954166666666699 ], [ -75.437853325737819, 3.930879550510014 ], [ -75.433333333333309, 3.9 ], [ -75.441099378797716, 3.889710489908885 ], [ -75.450567287868893, 3.84362284342451 ], [ -75.4625, 3.825 ], [ -75.446627468532967, 3.815872531467045 ], [ -75.42854902479381, 3.783802456325985 ], [ -75.432771809895812, 3.777083333333364 ], [ -75.428811815049883, 3.755879550510013 ], [ -75.422917005750847, 3.750014241536488 ], [ -75.416666666666643, 3.754166666666697 ], [ -75.412857733832439, 3.73921152750654 ], [ -75.422575547960037, 3.729519992404544 ], [ -75.439924452039904, 3.728813340928849 ], [ -75.456248982747368, 3.712513563368085 ], [ -75.463413323296407, 3.720225863986575 ], [ -75.493877156575493, 3.721400621202287 ], [ -75.532678561740425, 3.742639668782582 ] ] ], [ [ [ -74.218408881293371, 4.362853325737865 ], [ -74.208347913953958, 4.385416666666686 ], [ -74.212853325737811, 4.393379720052102 ], [ -74.2083333333333, 4.408333333333352 ], [ -74.2, 4.420833333333352 ], [ -74.2083333333333, 4.425 ], [ -74.213499281141452, 4.420351155598977 ], [ -74.24375, 4.437120225694463 ], [ -74.253083631727392, 4.428637017144116 ], [ -74.264748128255178, 4.429696316189254 ], [ -74.2996419270833, 4.447542995876756 ], [ -74.304519992404479, 4.460046386718769 ], [ -74.299646674262121, 4.468379720052102 ], [ -74.304519992404479, 4.476713053385436 ], [ -74.3, 4.4875 ], [ -74.305066257052914, 4.545172119140645 ], [ -74.334079996744762, 4.55473395453561 ], [ -74.358333333333292, 4.55 ], [ -74.378813340928787, 4.59757554796009 ], [ -74.379519992404482, 4.614924452039951 ], [ -74.395480007595452, 4.630908881293423 ], [ -74.3958333333333, 4.675 ], [ -74.388137817382784, 4.680072360568597 ], [ -74.386862182617151, 4.699094306098111 ], [ -74.373043823242156, 4.707766045464431 ], [ -74.35, 4.708333333333354 ], [ -74.358900621202224, 4.746579996744813 ], [ -74.353599378797711, 4.763246663411479 ], [ -74.358994547526009, 4.78243374294707 ], [ -74.391313340928789, 4.801742214626758 ], [ -74.392019992404485, 4.814924452039953 ], [ -74.407980007595455, 4.839242214626758 ], [ -74.407980007595455, 4.864924452039952 ], [ -74.4, 4.875 ], [ -74.368622843424447, 4.871400621202279 ], [ -74.3333333333333, 4.895833333333355 ], [ -74.328279283311602, 4.879875013563391 ], [ -74.304635959201349, 4.870215861002626 ], [ -74.280093044704827, 4.875926378038217 ], [ -74.274051581488678, 4.896100870768251 ], [ -74.260339694552911, 4.892284138997418 ], [ -74.234259711371493, 4.905093044704884 ], [ -74.216666666666626, 4.929166666666689 ], [ -74.216099378797708, 4.96054382324221 ], [ -74.186607530381906, 4.995096503363738 ], [ -74.172916666666623, 4.99213528103301 ], [ -74.163392469618017, 5.000771077473981 ], [ -74.174646674262121, 5.019091118706621 ], [ -74.154166666666626, 5.041666666666691 ], [ -74.142314317491284, 5.038451470269121 ], [ -74.136741468641461, 5.057387288411482 ], [ -74.110581461588509, 5.070303683810788 ], [ -74.095833333333303, 5.070833333333358 ], [ -74.091666666666626, 5.0625 ], [ -74.075850762261254, 5.067517428927975 ], [ -74.067233954535553, 5.081122843424503 ], [ -74.057630411783819, 5.140737575954885 ], [ -74.042294481065511, 5.150908067491343 ], [ -74.046400621202238, 5.196579996744816 ], [ -74.041666666666643, 5.208333333333359 ], [ -74.021579996744777, 5.229733954535615 ], [ -74.0, 5.216666666666692 ], [ -73.975, 5.225 ], [ -73.970266045464385, 5.244618394639782 ], [ -73.979733954535561, 5.253420003255234 ], [ -73.978599378797725, 5.268877156575546 ], [ -73.967327880859358, 5.280066257052977 ], [ -73.961932712131059, 5.299253336588567 ], [ -73.967233954535573, 5.311753336588568 ], [ -73.961932712131059, 5.335543823242213 ], [ -73.9375, 5.366666666666693 ], [ -73.932980007595461, 5.394091118706624 ], [ -73.896295166015605, 5.456241183810791 ], [ -73.903697882758223, 5.48125 ], [ -73.9, 5.5 ], [ -73.908900621202235, 5.525746663411486 ], [ -73.903599378797722, 5.534079996744819 ], [ -73.920833333333306, 5.575 ], [ -73.894865587022551, 5.612104119194907 ], [ -73.88008609347871, 5.617370944552979 ], [ -73.854733954535561, 5.643622843424508 ], [ -73.816666666666649, 5.7125 ], [ -73.817019992404497, 5.731591118706627 ], [ -73.822545539008217, 5.737144300672773 ], [ -73.85, 5.745833333333362 ], [ -73.845480007595469, 5.773257785373293 ], [ -73.83751390245223, 5.781249321831627 ], [ -73.858320617675759, 5.806249830457929 ], [ -73.846186659071151, 5.818408881293433 ], [ -73.845480007595469, 5.839216444227461 ], [ -73.857980007595458, 5.851742214626766 ], [ -73.849646674262132, 5.87254621717668 ], [ -73.862038167317678, 5.893741183810794 ], [ -73.837853325737825, 5.9350755479601 ], [ -73.836892530653188, 5.957420010036923 ], [ -73.817320929633226, 5.971811421712271 ], [ -73.807445949978273, 6.011791483561229 ], [ -73.796720716688341, 6.013208516438834 ], [ -73.790815734863259, 6.04498240152998 ], [ -73.775937228732616, 6.054733954535622 ], [ -73.754913330078097, 6.041099378797774 ], [ -73.746579996744771, 6.046400621202288 ], [ -73.722916666666649, 6.037968783908452 ], [ -73.695833333333312, 6.041666666666682 ], [ -73.683333333333309, 6.070833333333349 ], [ -73.64223395453557, 6.118622843424495 ], [ -73.608686659071154, 6.172575547960086 ], [ -73.595833333333303, 6.20833333333335 ], [ -73.554166666666646, 6.220833333333351 ], [ -73.549172804090688, 6.244776068793421 ], [ -73.540998670789904, 6.24736395941842 ], [ -73.54491509331595, 6.265817260742205 ], [ -73.529335021972628, 6.271501329210087 ], [ -73.500760735405791, 6.266406250000017 ], [ -73.490799797905794, 6.337312825520852 ], [ -73.475, 6.345833333333351 ], [ -73.483319430881053, 6.402084011501755 ], [ -73.475353325737814, 6.410075547960088 ], [ -73.462144300672719, 6.45662129720054 ], [ -73.445833333333312, 6.4625 ], [ -73.449641248914901, 6.494122653537346 ], [ -73.433333333333309, 6.508333333333352 ], [ -73.441099378797716, 6.54387715657554 ], [ -73.429733954535564, 6.560289510091166 ], [ -73.428556315104146, 6.586502075195332 ], [ -73.417327880859347, 6.592566257052972 ], [ -73.416099378797711, 6.606377156575541 ], [ -73.3958333333333, 6.6375 ], [ -73.4, 6.65 ], [ -73.457725863986525, 6.680080159505229 ], [ -73.458686659071148, 6.698257785373285 ], [ -73.478813340928795, 6.722575547960091 ], [ -73.479519992404491, 6.744091118706619 ], [ -73.487485419379311, 6.760416666666687 ], [ -73.450353325737822, 6.889242214626758 ], [ -73.4583333333333, 6.9125 ], [ -73.446186659071159, 6.935075547960093 ], [ -73.453346761067678, 6.965894911024328 ], [ -73.442617119683135, 6.967420111762175 ], [ -73.425567287868901, 6.993622843424502 ], [ -73.411932712131048, 7.077951727973114 ], [ -73.436797078450496, 7.092595757378496 ], [ -73.446793111165334, 7.116010877821205 ], [ -73.488246663411431, 7.121400621202281 ], [ -73.493758816189214, 7.117128499348983 ], [ -73.520833333333314, 7.1375 ], [ -73.520480007595467, 7.148257785373288 ], [ -73.5125, 7.158333333333358 ], [ -73.476742214626711, 7.15798000759551 ], [ -73.464924452039909, 7.150353325737871 ], [ -73.447575547960042, 7.149646674262177 ], [ -73.422548929850237, 7.13298000759551 ], [ -73.405908881293371, 7.137146674262177 ], [ -73.394091118706569, 7.125353325737871 ], [ -73.375, 7.120833333333358 ], [ -73.357445949978271, 7.14095831976999 ], [ -73.339710489908825, 7.149432712131101 ], [ -73.322789510091113, 7.150567287868948 ], [ -73.314710489908833, 7.157766045464435 ], [ -73.284232923719586, 7.157672119140649 ], [ -73.282482401529919, 7.150850762261309 ], [ -73.2708333333333, 7.15 ], [ -73.261932712131042, 7.13010389539933 ], [ -73.2631167941623, 7.105077785915823 ], [ -73.271400621202233, 7.102951727973114 ], [ -73.245266045464376, 7.086285061306448 ], [ -73.25056728786889, 7.064456176757837 ], [ -73.266099378797719, 7.043877156575544 ], [ -73.266666666666637, 7.0375 ], [ -73.25074988471134, 7.03680080837676 ], [ -73.249577840169238, 7.022214762369815 ], [ -73.261893886989995, 7.014583333333357 ], [ -73.257506815592421, 7.000826348198808 ], [ -73.225964185926614, 6.99070231119794 ], [ -73.203136528862814, 6.950744967990474 ], [ -73.188219875759515, 6.949223497178842 ], [ -73.18242170545787, 6.929780748155405 ], [ -73.150746663411425, 6.924432712131098 ], [ -73.10625, 6.945364718967037 ], [ -73.093877156575488, 6.938067287868947 ], [ -73.064216783311608, 6.937146335177975 ], [ -73.037853325737814, 6.910757785373287 ], [ -73.0375, 6.895833333333355 ], [ -73.024669053819409, 6.911638387044293 ], [ -73.009194946289028, 6.916997612847245 ], [ -73.007564968532961, 6.928194851345509 ], [ -72.99645080566404, 6.939506361219641 ], [ -72.991049194335901, 6.967135959201412 ], [ -72.99645080566404, 6.983802625868078 ], [ -72.990872531466977, 6.99920586480037 ], [ -72.979960801866284, 7.000794135199676 ], [ -72.969906955295102, 7.032406955295162 ], [ -72.955273098415773, 7.041963365342905 ], [ -72.946450805664028, 7.060339694552975 ], [ -72.95, 7.091666666666691 ], [ -72.926742214626699, 7.09548000759551 ], [ -72.910757785373235, 7.083686659071205 ], [ -72.880040147569417, 7.082743326822941 ], [ -72.883333333333297, 7.079166666666691 ], [ -72.874190606011254, 7.059021335177976 ], [ -72.850847032335039, 7.057647365993947 ], [ -72.84166666666664, 7.045833333333357 ], [ -72.822789510091113, 7.045266045464434 ], [ -72.8125, 7.0375 ], [ -72.787896050347186, 7.036532253689259 ], [ -72.781377156575488, 7.021400621202281 ], [ -72.759220716688333, 7.015958319769989 ], [ -72.749291653103271, 6.992554050021725 ], [ -72.7375, 6.9875 ], [ -72.725, 6.99166666666669 ], [ -72.707427639431387, 6.958971150716168 ], [ -72.679166666666632, 6.95416666666669 ], [ -72.682445949978273, 6.934041680230058 ], [ -72.667233954535561, 6.927210489908877 ], [ -72.653463745117151, 6.880095757378495 ], [ -72.621400621202227, 6.852210489908876 ], [ -72.616666666666632, 6.841666666666688 ], [ -72.624646674262124, 6.823257785373286 ], [ -72.625, 6.795833333333356 ], [ -72.612853325737817, 6.785757785373285 ], [ -72.607980007595458, 6.760046386718772 ], [ -72.608686659071154, 6.747575547960091 ], [ -72.625001356336767, 6.72709927029082 ], [ -72.619982571072015, 6.717517428927972 ], [ -72.600746663411428, 6.707766045464431 ], [ -72.585289510091116, 6.708900621202278 ], [ -72.556377156575493, 6.736932712131098 ], [ -72.534470621744759, 6.741931152343771 ], [ -72.527210489908825, 6.729733954535611 ], [ -72.496684095594588, 6.71998257107207 ], [ -72.488161214192672, 6.711600409613736 ], [ -72.483801947699618, 6.69375 ], [ -72.491198052300319, 6.68125 ], [ -72.483333333333306, 6.658333333333355 ], [ -72.450887383354996, 6.653458319769985 ], [ -72.441402180989542, 6.644696044921895 ], [ -72.444826592339382, 6.634144422743075 ], [ -72.409312269422713, 6.624367268880229 ], [ -72.398043823242148, 6.608900621202277 ], [ -72.3875, 6.608333333333354 ], [ -72.358900621202224, 6.568877156575541 ], [ -72.357766045464373, 6.556122843424498 ], [ -72.346400621202221, 6.54387715657554 ], [ -72.345209757486941, 6.525909084743943 ], [ -72.313506062825482, 6.520214843750019 ], [ -72.30473395453555, 6.510543823242207 ], [ -72.303813340928784, 6.493408881293422 ], [ -72.295480007595444, 6.480879720052103 ], [ -72.299986436631912, 6.472915988498283 ], [ -72.279519992404474, 6.43992445203995 ], [ -72.279519992404474, 6.418408881293422 ], [ -72.2875, 6.404166666666685 ], [ -72.283333333333303, 6.383333333333352 ], [ -72.299291653103268, 6.374112616644984 ], [ -72.304166666666632, 6.358333333333352 ], [ -72.315908813476526, 6.357597181532136 ], [ -72.320742119683118, 6.334648301866338 ], [ -72.341666666666626, 6.345833333333351 ], [ -72.353257581922705, 6.345209757486997 ], [ -72.363350762261248, 6.325850762261302 ], [ -72.374344211154479, 6.31987338595922 ], [ -72.379875013563336, 6.292554050021719 ], [ -72.395266045464382, 6.277210489908872 ], [ -72.387513902452227, 6.260417344835087 ], [ -72.399646674262115, 6.235757785373281 ], [ -72.400353325737811, 6.21840888129342 ], [ -72.420480007595458, 6.189924452039947 ], [ -72.416313340928781, 6.176713053385433 ], [ -72.420833333333292, 6.154166666666683 ], [ -72.438291083441811, 6.134109497070328 ], [ -72.449180094401001, 6.132561577690989 ], [ -72.446364678276879, 6.118740166558176 ], [ -72.459181382920974, 6.104881117079009 ], [ -72.473006184895794, 6.103561740451405 ], [ -72.486876424153607, 6.090757581922759 ], [ -72.4875, 6.079166666666683 ], [ -72.498841349283822, 6.074886067708365 ], [ -72.504981825086773, 6.05481635199656 ], [ -72.533333333333303, 6.054166666666682 ], [ -72.537853325737814, 6.039212883843348 ], [ -72.533333333333303, 6.020833333333365 ], [ -72.553315904405352, 6.015815734863312 ], [ -72.545847913953963, 5.99375 ], [ -72.558688693576357, 5.964213901095951 ], [ -72.579152425130175, 5.947917005750899 ], [ -72.575, 5.941666666666698 ], [ -72.58418409559458, 5.930017598470083 ], [ -72.599338785807262, 5.924100409613746 ], [ -72.6, 5.916666666666697 ], [ -72.631250678168371, 5.920819430881107 ], [ -72.639242214626705, 5.912853325737878 ], [ -72.65, 5.9125 ], [ -72.654520670572879, 5.885049099392392 ], [ -72.668408881293374, 5.871186659071211 ], [ -72.6875, 5.866666666666697 ], [ -72.687853325737819, 5.855908881293432 ], [ -72.699987114800308, 5.839583163791263 ], [ -72.688350762261251, 5.821684265136748 ], [ -72.71666666666664, 5.8 ], [ -72.706377156575485, 5.79223395453562 ], [ -72.688405693901871, 5.791029018825984 ], [ -72.692233954535553, 5.772789510091176 ], [ -72.728429836697018, 5.75327419704864 ], [ -72.729733954535561, 5.745086669921904 ], [ -72.712958780924453, 5.72707061767581 ], [ -72.758729383680517, 5.659301079644125 ], [ -72.7708333333333, 5.65 ], [ -72.791666666666629, 5.658333333333362 ], [ -72.814242214626702, 5.646186659071208 ], [ -72.874000379774273, 5.641035291883709 ], [ -72.89375, 5.617135450575115 ], [ -72.924089219835039, 5.620216200086833 ], [ -72.920351155598922, 5.611500718858535 ], [ -72.929166666666632, 5.5875 ], [ -72.954862806532091, 5.559223937988309 ], [ -72.970172119140599, 5.553267076280409 ], [ -72.975887383355001, 5.529875183105496 ], [ -72.986612616644933, 5.528458150227892 ], [ -72.995371500651018, 5.514592149522597 ], [ -72.983801947699618, 5.47708333333336 ], [ -72.991198052300319, 5.45625 ], [ -72.98693271213105, 5.440920003255235 ], [ -72.997048272026873, 5.42859937879777 ], [ -73.011822848849803, 5.434228854709229 ], [ -73.034548272026882, 5.467233954535617 ], [ -73.049253336588507, 5.461932712131103 ], [ -73.0625, 5.47083333333336 ], [ -73.093379720052056, 5.466313340928846 ], [ -73.110046386718722, 5.471186659071208 ], [ -73.125, 5.4625 ], [ -73.1458333333333, 5.483333333333361 ], [ -73.160543823242165, 5.482766045464437 ], [ -73.181122843424447, 5.467233954535617 ], [ -73.223257785373235, 5.450353325737874 ], [ -73.230908881293374, 5.457980007595513 ], [ -73.248257785373241, 5.458686659071208 ], [ -73.274642435709609, 5.485046386718777 ], [ -73.283333333333303, 5.5125 ], [ -73.312145826551628, 5.494119771321642 ], [ -73.3125, 5.483333333333361 ], [ -73.390952555338515, 5.479901292589003 ], [ -73.392379591200054, 5.511740451388916 ], [ -73.411439514160136, 5.513232421875028 ], [ -73.420833333333306, 5.529166666666694 ], [ -73.461867268880184, 5.49485422770185 ], [ -73.463137647840682, 5.475905693901937 ], [ -73.502210489908833, 5.453599378797771 ], [ -73.509246656629742, 5.442274136013482 ], [ -73.539710489908828, 5.44109937879777 ], [ -73.562895880805101, 5.417634412977457 ], [ -73.582365587022551, 5.407937452528238 ], [ -73.579166666666637, 5.39583333333336 ], [ -73.6, 5.38333333333336 ], [ -73.592135450575057, 5.347916666666693 ], [ -73.595833333333303, 5.295833333333359 ], [ -73.58839959038626, 5.29517211914065 ], [ -73.556377156575493, 5.258900621202282 ], [ -73.516666666666637, 5.229166666666692 ], [ -73.549382358127147, 5.193826802571639 ], [ -73.554960801866287, 5.175794135199677 ], [ -73.566131591796847, 5.174168226454018 ], [ -73.576158820258215, 5.158447265625025 ], [ -73.598043823242165, 5.149432712131101 ], [ -73.613350931803353, 5.130017428927976 ], [ -73.660416666666649, 5.11713528103301 ], [ -73.665529547797291, 5.121097819010441 ], [ -73.683900621202227, 5.079913330078149 ], [ -73.68276604546439, 5.056122843424503 ], [ -73.671293131510396, 5.031238471137176 ], [ -73.68276604546439, 5.018877156575544 ], [ -73.692369588216124, 4.971762424045162 ], [ -73.70748240152993, 4.961649237738738 ], [ -73.7125, 4.95 ], [ -73.75, 4.9375 ], [ -73.762146674262127, 4.910757785373287 ], [ -73.7625, 4.8875 ], [ -73.773257785373247, 4.882980007595508 ], [ -73.80776604546439, 4.843877156575543 ], [ -73.820833333333312, 4.820833333333355 ], [ -73.829519992404485, 4.768379720052105 ], [ -73.825, 4.754166666666688 ], [ -73.84375, 4.762485419379361 ], [ -73.852424452039912, 4.757980007595508 ], [ -73.886932712131056, 4.731377156575542 ], [ -73.888123575846336, 4.709242418077277 ], [ -73.913246663411442, 4.713067287868945 ], [ -73.92168426513669, 4.700850762261306 ], [ -73.936649068196587, 4.694982571072069 ], [ -73.954875183105443, 4.655054050021722 ], [ -73.986845228407091, 4.632360500759569 ], [ -73.992233954535564, 4.593622843424499 ], [ -74.008333333333312, 4.5625 ], [ -74.025, 4.5625 ], [ -74.041313340928795, 4.531591118706617 ], [ -74.042021518283406, 4.518379720052103 ], [ -74.058333333333309, 4.508333333333352 ], [ -74.0625, 4.491666666666686 ], [ -74.074345228407083, 4.482360500759568 ], [ -74.075567287868893, 4.468622843424498 ], [ -74.084262424045107, 4.459036254882832 ], [ -74.103315904405349, 4.4533159044054 ], [ -74.116198052300305, 4.422916666666685 ], [ -74.111795722113683, 4.384252929687518 ], [ -74.099432712131033, 4.377951727973109 ], [ -74.100567287868884, 4.36445617675783 ], [ -74.108900621202224, 4.355103895399324 ], [ -74.103599378797711, 4.342413330078143 ], [ -74.1125, 4.3125 ], [ -74.139242214626705, 4.296186659071198 ], [ -74.147917344835037, 4.299986097547761 ], [ -74.16840888129336, 4.283686659071198 ], [ -74.1875, 4.283333333333351 ], [ -74.196579996744759, 4.292233954535607 ], [ -74.207672119140582, 4.286600409613733 ], [ -74.2083333333333, 4.279166666666685 ], [ -74.215767076280343, 4.279827880859393 ], [ -74.212146674262115, 4.322546386718768 ], [ -74.218408881293371, 4.362853325737865 ] ] ] ] } },
{ "type": "Feature", "properties": { "name": "ORIENTE", "source": "HydroBASINS lev12 trace", "outlets": "Guavio; Chivor (Batá); Chuza (Chingaza)" }, "geometry": { "type": "Polygon", "coordinates": [ [ [ -73.580017598470022, 4.540815904405402 ], [ -73.609249030219161, 4.557734849717901 ], [ -73.629166666666634, 4.558333333333353 ], [ -73.643741522894942, 4.546388753255227 ], [ -73.66713578965927, 4.554784138997416 ], [ -73.672916666666637, 4.550561523437519 ], [ -73.683802456325935, 4.554784138997416 ], [ -73.692657640245201, 4.542367214626756 ], [ -73.732526312933999, 4.546538967556444 ], [ -73.741780598958314, 4.569674682617207 ], [ -73.753007846408394, 4.575113932291687 ], [ -73.758664449055971, 4.586638387044291 ], [ -73.773841179741723, 4.591780598958353 ], [ -73.779858737521678, 4.619839816623283 ], [ -73.791308593749974, 4.626709662543423 ], [ -73.796186659071154, 4.664213053385437 ], [ -73.791666666666643, 4.683333333333354 ], [ -73.803599378797713, 4.701956176757833 ], [ -73.799382358127147, 4.725469292534743 ], [ -73.80513831244572, 4.736731635199674 ], [ -73.815872531466994, 4.738294135199673 ], [ -73.817434861924895, 4.74902818467884 ], [ -73.828813340928789, 4.76007554796009 ], [ -73.820833333333312, 4.820833333333355 ], [ -73.799149068196584, 4.857482571072071 ], [ -73.7625, 4.8875 ], [ -73.762146674262127, 4.910757785373287 ], [ -73.75, 4.9375 ], [ -73.7125, 4.95 ], [ -73.70748240152993, 4.961649237738738 ], [ -73.692369588216124, 4.971762424045162 ], [ -73.68276604546439, 5.018877156575544 ], [ -73.671293131510396, 5.031238471137176 ], [ -73.68276604546439, 5.056122843424503 ], [ -73.683900621202227, 5.079913330078149 ], [ -73.665529547797291, 5.121097819010441 ], [ -73.660416666666649, 5.11713528103301 ], [ -73.613350931803353, 5.130017428927976 ], [ -73.598043823242165, 5.149432712131101 ], [ -73.576158820258215, 5.158447265625025 ], [ -73.566131591796847, 5.174168226454018 ], [ -73.554960801866287, 5.175794135199677 ], [ -73.549382358127147, 5.193826802571639 ], [ -73.516666666666637, 5.229166666666692 ], [ -73.556377156575493, 5.258900621202282 ], [ -73.58839959038626, 5.29517211914065 ], [ -73.595833333333303, 5.295833333333359 ], [ -73.592135450575057, 5.347916666666693 ], [ -73.6, 5.38333333333336 ], [ -73.579166666666637, 5.39583333333336 ], [ -73.582365587022551, 5.407937452528238 ], [ -73.562895880805101, 5.417634412977457 ], [ -73.539710489908828, 5.44109937879777 ], [ -73.509246656629742, 5.442274136013482 ], [ -73.502210489908833, 5.453599378797771 ], [ -73.463137647840682, 5.475905693901937 ], [ -73.461867268880184, 5.49485422770185 ], [ -73.42721048990883, 5.528599378797771 ], [ -73.417649671766469, 5.528183661566867 ], [ -73.411439514160136, 5.513232421875028 ], [ -73.392379591200054, 5.511740451388916 ], [ -73.390952555338515, 5.479901292589003 ], [ -73.3125, 5.483333333333361 ], [ -73.312145826551628, 5.494119771321642 ], [ -73.283333333333303, 5.5125 ], [ -73.274642435709609, 5.485046386718777 ], [ -73.248257785373241, 5.458686659071208 ], [ -73.21666666666664, 5.45 ], [ -73.217019992404488, 5.426742214626763 ], [ -73.245833333333309, 5.379166666666693 ], [ -73.287142266167507, 5.352455139160183 ], [ -73.2875, 5.325 ], [ -73.271431816948763, 5.319917636447508 ], [ -73.2708333333333, 5.3 ], [ -73.287144300672722, 5.285785759819904 ], [ -73.287853325737814, 5.277453782823376 ], [ -73.279519992404488, 5.26075778537329 ], [ -73.278813340928792, 5.202453782823376 ], [ -73.291666666666643, 5.195833333333358 ], [ -73.287853325737814, 5.185075547960095 ], [ -73.299646674262121, 5.164924452039955 ], [ -73.300353325737817, 5.126742214626761 ], [ -73.308686659071157, 5.110046386718774 ], [ -73.292019992404491, 5.081591118706621 ], [ -73.282980007595455, 4.997575547960093 ], [ -73.266313340928789, 4.972546386718773 ], [ -73.2708333333333, 4.9375 ], [ -73.2625, 4.933333333333357 ], [ -73.262853325737822, 4.926742214626759 ], [ -73.271186659071148, 4.918382432725718 ], [ -73.270480007595452, 4.910075547960092 ], [ -73.262853325737822, 4.898257785373286 ], [ -73.262146674262127, 4.876742214626758 ], [ -73.249646674262124, 4.860049099392383 ], [ -73.254152086045977, 4.84375 ], [ -73.241680569118898, 4.822915988498286 ], [ -73.261791483561169, 4.79494594997832 ], [ -73.271400621202233, 4.768622843424501 ], [ -73.296579996744768, 4.745266045464431 ], [ -73.308333333333309, 4.75 ], [ -73.308333333333309, 4.758333333333354 ], [ -73.291099378797711, 4.78843722873266 ], [ -73.300708516438775, 4.80744594997832 ], [ -73.3333333333333, 4.833333333333355 ], [ -73.325567287868893, 4.852210489908876 ], [ -73.346644253200921, 4.882326592339432 ], [ -73.380126274956567, 4.870266045464431 ], [ -73.39101189507376, 4.880139499240474 ], [ -73.40089959038626, 4.907672119140647 ], [ -73.408333333333303, 4.908333333333356 ], [ -73.4375, 4.904166666666689 ], [ -73.45, 4.883333333333356 ], [ -73.481250678168379, 4.891652764214433 ], [ -73.489242214626714, 4.883686659071203 ], [ -73.520833333333314, 4.87916666666669 ], [ -73.520833333333314, 4.866666666666688 ], [ -73.537145996093727, 4.852450900607661 ], [ -73.540895250108477, 4.779938083224848 ], [ -73.512719387478271, 4.774081081814257 ], [ -73.504166666666634, 4.75 ], [ -73.496806335449193, 4.749345228407139 ], [ -73.486590745713954, 4.733956909179708 ], [ -73.475, 4.733333333333354 ], [ -73.464924452039909, 4.721186659071201 ], [ -73.446684265136696, 4.715815904405403 ], [ -73.444618394639733, 4.707766045464431 ], [ -73.425, 4.7125 ], [ -73.416099378797711, 4.707118394639778 ], [ -73.417233954535561, 4.685289510091167 ], [ -73.425567287868901, 4.67593722873266 ], [ -73.420833333333306, 4.6625 ], [ -73.439456176757787, 4.646400621202277 ], [ -73.457354227701799, 4.645200602213562 ], [ -73.474432712131048, 4.623043823242208 ], [ -73.483333333333306, 4.595833333333353 ], [ -73.498257785373241, 4.599646674262173 ], [ -73.508333333333312, 4.591666666666686 ], [ -73.52498643663192, 4.568751017252624 ], [ -73.520833333333314, 4.5625 ], [ -73.539242214626711, 4.5461866590712 ], [ -73.552424452039901, 4.545480007595506 ], [ -73.572543165418807, 4.521191406250019 ], [ -73.580017598470022, 4.540815904405402 ] ] ] } },
{ "type": "Feature", "properties": { "name": "VALLE", "source": "HydroBASINS lev12 trace", "outlets": "Salvajina; Alto Anchicayá; Calima" }, "geometry": { "type": "MultiPolygon", "coordinates": [ [ [ [ -76.633729383680517, 2.369865587022589 ], [ -76.688246663411419, 2.366099378797762 ], [ -76.710405137803789, 2.382873535156269 ], [ -76.717603895399279, 2.378599378797762 ], [ -76.757482571072018, 2.400850762261304 ], [ -76.783729383680523, 2.432365587022589 ], [ -76.81862284342445, 2.445266045464429 ], [ -76.845833333333303, 2.441666666666686 ], [ -76.877210489908819, 2.45473395453561 ], [ -76.890964084201357, 2.467599826388909 ], [ -76.892375013563338, 2.478279283311652 ], [ -76.910289510091118, 2.486932712131096 ], [ -76.931377156575493, 2.488067287868944 ], [ -76.953599378797719, 2.514456176757833 ], [ -76.953813340928789, 2.531591118706618 ], [ -76.942019992404482, 2.543408881293423 ], [ -76.941313340928787, 2.560757785373284 ], [ -76.912853325737814, 2.597575547960091 ], [ -76.903813340928792, 2.652424452039952 ], [ -76.891308932834164, 2.673288302951411 ], [ -76.875, 2.683333333333355 ], [ -76.870480007595461, 2.714924452039952 ], [ -76.845833333333303, 2.766666666666689 ], [ -76.866308593749963, 2.785042995876759 ], [ -76.876709662543377, 2.807975260416689 ], [ -76.889582655164901, 2.816652764214433 ], [ -76.901715766058999, 2.812146674262175 ], [ -76.9125, 2.820833333333356 ], [ -76.911892361111086, 2.836586507161481 ], [ -76.896572197808126, 2.846712917751759 ], [ -76.90416666666664, 2.870833333333357 ], [ -76.887858072916629, 2.880876329210093 ], [ -76.879519992404482, 2.90174221462676 ], [ -76.878813340928787, 2.939924452039954 ], [ -76.866666666666632, 2.966666666666691 ], [ -76.859232923719588, 2.967327880859399 ], [ -76.844091118706572, 2.991313340928844 ], [ -76.830908881293368, 2.991313340928844 ], [ -76.805878363715252, 2.974642266167559 ], [ -76.779519992404488, 2.944091118706621 ], [ -76.775, 2.925 ], [ -76.75, 2.92916666666669 ], [ -76.749346245659694, 2.936517333984399 ], [ -76.719915093315933, 2.966077677408878 ], [ -76.684184095594588, 2.965815904405406 ], [ -76.679626464843722, 2.95207180447051 ], [ -76.692233954535553, 2.938488091362871 ], [ -76.691099378797716, 2.910289510091169 ], [ -76.667233954535561, 2.885543823242211 ], [ -76.654733954535558, 2.860543823242211 ], [ -76.636932712131042, 2.781122843424502 ], [ -76.628599378797716, 2.771770562065995 ], [ -76.632171291775137, 2.754572550455751 ], [ -76.608729383680526, 2.736532253689258 ], [ -76.591099378797708, 2.713488091362869 ], [ -76.596097819010382, 2.705303955078147 ], [ -76.579166666666637, 2.7 ], [ -76.546450805664023, 2.660493638780403 ], [ -76.545039198133651, 2.650794135199674 ], [ -76.510493638780346, 2.629784138997417 ], [ -76.479166666666629, 2.620833333333354 ], [ -76.460075547960031, 2.624646674262174 ], [ -76.427453613281216, 2.607980007595507 ], [ -76.406591118706558, 2.624646674262174 ], [ -76.393749660915759, 2.620847574869813 ], [ -76.387855021158813, 2.626713053385438 ], [ -76.374294365776876, 2.674192979600716 ], [ -76.3333333333333, 2.683333333333355 ], [ -76.314213053385387, 2.674646674262174 ], [ -76.2708333333333, 2.683333333333355 ], [ -76.269945949978265, 2.671541680230056 ], [ -76.254166666666634, 2.666666666666688 ], [ -76.248257785373227, 2.650353325737869 ], [ -76.230908881293374, 2.649646674262174 ], [ -76.212853325737811, 2.635757785373285 ], [ -76.218408881293371, 2.625353325737868 ], [ -76.232729424370618, 2.624085828993077 ], [ -76.233900621202224, 2.590920003255229 ], [ -76.220833333333303, 2.566666666666687 ], [ -76.232645331488683, 2.561690606011305 ], [ -76.233333333333292, 2.55 ], [ -76.222546047634509, 2.545475599500889 ], [ -76.204166666666623, 2.520833333333353 ], [ -76.215946790907083, 2.520056830512173 ], [ -76.217309570312466, 2.497865125868076 ], [ -76.233576117621496, 2.480348036024326 ], [ -76.277134874131903, 2.461857096354187 ], [ -76.288530137803789, 2.442411634657138 ], [ -76.302134874131909, 2.441023763020853 ], [ -76.32414686414927, 2.420567152235263 ], [ -76.320833333333297, 2.391666666666686 ], [ -76.354166666666629, 2.4 ], [ -76.349432712131048, 2.392413330078144 ], [ -76.354733954535561, 2.356122843424498 ], [ -76.391666666666637, 2.320833333333352 ], [ -76.3958333333333, 2.308333333333352 ], [ -76.375, 2.291666666666685 ], [ -76.374149237738678, 2.28001742892797 ], [ -76.358333333333292, 2.266666666666685 ], [ -76.386649237738681, 2.2408159044054 ], [ -76.413419596354132, 2.192370944552969 ], [ -76.432701619466116, 2.18233947753908 ], [ -76.43806728786889, 2.157586669921892 ], [ -76.42128397623695, 2.131251356336823 ], [ -76.430139499240411, 2.121488104926232 ], [ -76.452210489908822, 2.11609937879776 ], [ -76.462896050347183, 2.100967746310781 ], [ -76.482977973090243, 2.114214409722255 ], [ -76.48921339246958, 2.128812154134148 ], [ -76.522575547960031, 2.137146674262186 ], [ -76.543382432725664, 2.13298000759552 ], [ -76.554166666666632, 2.141666666666684 ], [ -76.566313340928787, 2.164242214626753 ], [ -76.562514580620629, 2.177083333333351 ], [ -76.574985419379303, 2.197916666666684 ], [ -76.567019992404482, 2.210075547960087 ], [ -76.570480007595449, 2.239924452039949 ], [ -76.5625, 2.266666666666685 ], [ -76.582624986436599, 2.271720716688387 ], [ -76.596400621202221, 2.30637715657554 ], [ -76.604166666666629, 2.3125 ], [ -76.608900621202224, 2.34387715657554 ], [ -76.624112616644936, 2.35070834689672 ], [ -76.633729383680517, 2.369865587022589 ] ] ], [ [ [ -76.772575547960031, 3.312853325737874 ], [ -76.793381076388854, 3.312146674262179 ], [ -76.805875311957436, 3.328807746039523 ], [ -76.827083333333306, 3.316681247287353 ], [ -76.84166666666664, 3.325 ], [ -76.859184095594586, 3.365815734863308 ], [ -76.878599378797716, 3.385289510091173 ], [ -76.88390062120223, 3.410543823242215 ], [ -76.895266045464382, 3.422789510091174 ], [ -76.895266045464382, 3.443877156575549 ], [ -76.883333333333297, 3.458333333333361 ], [ -76.899429999457439, 3.471941630045601 ], [ -76.904696316189202, 3.500940789116782 ], [ -76.891184488932254, 3.524000718858535 ], [ -76.911953057183126, 3.542821587456626 ], [ -76.9125, 3.566666666666695 ], [ -76.905879720052056, 3.567021518283449 ], [ -76.891308593749969, 3.589956834581192 ], [ -76.877424452039904, 3.599646674262182 ], [ -76.85085076226126, 3.59081573486331 ], [ -76.845266045464385, 3.579913330078154 ], [ -76.854733954535561, 3.563437228732667 ], [ -76.849032253689202, 3.55039588080515 ], [ -76.80904168023001, 3.532445949978327 ], [ -76.803599378797713, 3.514456176757841 ], [ -76.788208346896667, 3.499112616644994 ], [ -76.77916666666664, 3.470833333333361 ], [ -76.750396050347192, 3.461532253689264 ], [ -76.727210489908828, 3.429733954535618 ], [ -76.7125, 3.429166666666694 ], [ -76.688386366102392, 3.415894063313829 ], [ -76.688029649522534, 3.385251702202718 ], [ -76.7, 3.354166666666694 ], [ -76.735289510091107, 3.329733954535617 ], [ -76.760757785373229, 3.324646674262179 ], [ -76.772575547960031, 3.312853325737874 ] ] ], [ [ [ -76.5833333333333, 3.879166666666698 ], [ -76.591931152343719, 3.898862881130674 ], [ -76.556122843424447, 3.908900621202288 ], [ -76.546752929687472, 3.917249552408886 ], [ -76.525567287868896, 3.943622843424511 ], [ -76.517233954535556, 3.968622843424511 ], [ -76.521400621202218, 3.98824666341149 ], [ -76.516099378797705, 4.011285061306456 ], [ -76.541666666666629, 4.016666666666699 ], [ -76.541313340928781, 4.039924452039963 ], [ -76.524149237738683, 4.06998240152998 ], [ -76.463246663411425, 4.049432712131109 ], [ -76.434246148003439, 4.050609673394129 ], [ -76.429166666666632, 4.05833333333335 ], [ -76.418376329210034, 4.053808593750032 ], [ -76.407980007595455, 4.035046217176681 ], [ -76.42118665907114, 4.001712883843348 ], [ -76.4125, 3.9875 ], [ -76.4375, 3.925 ], [ -76.429166666666632, 3.891666666666698 ], [ -76.441313340928787, 3.877424452039962 ], [ -76.4375, 3.8625 ], [ -76.447916666666629, 3.858347913954024 ], [ -76.460075547960031, 3.86631334092885 ], [ -76.489924452039901, 3.867019992404545 ], [ -76.510049099392333, 3.875353325737878 ], [ -76.566666666666634, 3.8375 ], [ -76.587146674262115, 3.860075547960101 ], [ -76.5833333333333, 3.879166666666698 ] ] ] ] } }
]
}
